{"type":"FeatureCollection","features":[{"type":"Feature","geometry":{"type":"Polygon","coordinates":[[[-1.529402,12.298623],[-1.529179,12.298621],[-1.529179,12.298603],[-1.529141,12.297112],[-1.529098,12.29542],[-1.529098,12.295418],[-1.529098,12.295386],[-1.529524,12.287858],[-1.530473,12.27111],[-1.539537,12.272765],[-1.545858,12.274446],[-1.557933,12.2763],[-1.55994,12.276608],[-1.561299,12.276817],[-1.582074,12.278316],[-1.58317,12.278395],[-1.593016,12.278328],[-1.603763,12.278193],[-1.615916,12.278246],[-1.624326,12.278749],[-1.629471,12.279496],[-1.629553,12.279508],[-1.632165,12.280986],[-1.63403,12.283111],[-1.637461,12.287992],[-1.644308,12.304751],[-1.648753,12.312756],[-1.653017,12.319863],[-1.640516,12.323298],[-1.634153,12.324908],[-1.616973,12.329527],[-1.613196,12.330611],[-1.613129,12.330643],[-1.609103,12.331865],[-1.606932,12.332545],[-1.605209,12.333024],[-1.605206,12.333025],[-1.60477,12.333117],[-1.603991,12.333331],[-1.603791,12.333396],[-1.603807,12.333327],[-1.603683,12.329077],[-1.603897,12.325288],[-1.60218,12.327749],[-1.596375,12.32982],[-1.587417,12.327224],[-1.588005,12.32618],[-1.588758,12.32484],[-1.588755,12.324832],[-1.587891,12.322938],[-1.586727,12.320344],[-1.585834,12.318589],[-1.582788,12.314869],[-1.582631,12.314678],[-1.576181,12.309675],[-1.575343,12.303833],[-1.575342,12.30383],[-1.575278,12.303569],[-1.574567,12.30067],[-1.563403,12.299767],[-1.561287,12.299594],[-1.556313,12.299187],[-1.553488,12.298954],[-1.553056,12.298918],[-1.546802,12.298392],[-1.546017,12.298881],[-1.534488,12.298705],[-1.531072,12.29864],[-1.529402,12.298623]]]},"properties":{"nom":"ARDT. 7"}},{"type":"Feature","geometry":{"type":"Polygon","coordinates":[[[-1.440156,12.259583],[-1.440399,12.258861],[-1.444416,12.258884],[-1.4489,12.25918],[-1.455061,12.260309],[-1.46001,12.261259],[-1.468872,12.264427],[-1.474107,12.265189],[-1.480633,12.26678],[-1.489043,12.268662],[-1.497816,12.269713],[-1.507623,12.271593],[-1.517576,12.270907],[-1.530236,12.271067],[-1.530473,12.27111],[-1.529524,12.287858],[-1.529098,12.295386],[-1.529098,12.295418],[-1.529098,12.29542],[-1.529141,12.297112],[-1.529179,12.298603],[-1.529178,12.298604],[-1.529085,12.30183],[-1.529091,12.301836],[-1.528455,12.317413],[-1.528393,12.318947],[-1.528472,12.321955],[-1.527386,12.328058],[-1.525926,12.332843],[-1.525866,12.332843],[-1.52255,12.332831],[-1.505586,12.33277],[-1.503676,12.332459],[-1.502607,12.332077],[-1.502481,12.332002],[-1.502453,12.331985],[-1.501083,12.331167],[-1.49979,12.329957],[-1.490717,12.319885],[-1.490009,12.319099],[-1.489988,12.319076],[-1.478288,12.306005],[-1.478205,12.305905],[-1.477377,12.304917],[-1.469266,12.295228],[-1.469055,12.294976],[-1.440156,12.259583]]]},"properties":{"nom":"ARDT. 12"}},{"type":"Feature","geometry":{"type":"Polygon","coordinates":[[[-1.440156,12.259583],[-1.469055,12.294976],[-1.469266,12.295228],[-1.477377,12.304917],[-1.478205,12.305905],[-1.478288,12.306005],[-1.489988,12.319076],[-1.490009,12.319099],[-1.490717,12.319885],[-1.49979,12.329957],[-1.501083,12.331167],[-1.502453,12.331985],[-1.500957,12.333552],[-1.498759,12.335883],[-1.48659,12.354085],[-1.478574,12.366074],[-1.478302,12.36648],[-1.4783,12.366483],[-1.464838,12.357747],[-1.464826,12.357739],[-1.464821,12.357736],[-1.461074,12.355302],[-1.461067,12.355301],[-1.459659,12.354322],[-1.451957,12.349446],[-1.451007,12.348922],[-1.450977,12.348905],[-1.451793,12.347129],[-1.449178,12.345715],[-1.434689,12.335534],[-1.426897,12.332988],[-1.425058,12.332546],[-1.422325,12.318786],[-1.426828,12.316693],[-1.427588,12.314204],[-1.430249,12.305766],[-1.432427,12.299803],[-1.435387,12.288882],[-1.436716,12.283285],[-1.437985,12.274008],[-1.438105,12.269235],[-1.43879,12.263634],[-1.440156,12.259583]]]},"properties":{"nom":"ARDT. 11"}},{"type":"Feature","geometry":{"type":"Polygon","coordinates":[[[-1.604467,12.393036],[-1.604464,12.393042],[-1.60416,12.393583],[-1.59946,12.403943],[-1.588634,12.409427],[-1.583922,12.411814],[-1.574847,12.411893],[-1.572333,12.411911],[-1.564787,12.411966],[-1.56085,12.411819],[-1.556936,12.411485],[-1.556909,12.411494],[-1.553894,12.411241],[-1.553848,12.411234],[-1.553608,12.411201],[-1.553521,12.411188],[-1.554447,12.405047],[-1.554434,12.405047],[-1.551837,12.403154],[-1.551875,12.402708],[-1.551213,12.402568],[-1.550315,12.400986],[-1.55008,12.399409],[-1.549664,12.398892],[-1.548146,12.39604],[-1.547453,12.395282],[-1.55009,12.391252],[-1.552408,12.38818],[-1.552886,12.387393],[-1.552899,12.38739],[-1.552903,12.38739],[-1.553012,12.387365],[-1.553071,12.387339],[-1.553073,12.387338],[-1.553102,12.387325],[-1.553227,12.387271],[-1.553256,12.387257],[-1.553257,12.387256],[-1.55332,12.387224],[-1.553349,12.387196],[-1.553349,12.387193],[-1.553352,12.387191],[-1.553362,12.38716],[-1.553367,12.387145],[-1.553367,12.38714],[-1.553371,12.387135],[-1.553375,12.387122],[-1.553376,12.387119],[-1.553378,12.387116],[-1.553382,12.387059],[-1.553383,12.387025],[-1.553383,12.386962],[-1.55339,12.386911],[-1.553393,12.386908],[-1.553393,12.386892],[-1.553443,12.386802],[-1.553476,12.386764],[-1.553485,12.386762],[-1.553489,12.386755],[-1.553512,12.38674],[-1.553538,12.386729],[-1.553617,12.386716],[-1.553696,12.386703],[-1.553781,12.386681],[-1.553849,12.386649],[-1.553914,12.386626],[-1.553961,12.386613],[-1.553963,12.386612],[-1.554028,12.386591],[-1.554077,12.386559],[-1.554101,12.386532],[-1.554124,12.386519],[-1.554171,12.386466],[-1.554363,12.386239],[-1.554484,12.386108],[-1.554597,12.38597],[-1.554725,12.385825],[-1.554817,12.385728],[-1.554902,12.385638],[-1.554987,12.385507],[-1.555151,12.385342],[-1.555165,12.3853],[-1.555498,12.385306],[-1.555565,12.385252],[-1.555576,12.385251],[-1.555986,12.384986],[-1.55551,12.384872],[-1.555419,12.384827],[-1.555072,12.384728],[-1.55471,12.384562],[-1.554689,12.384553],[-1.554551,12.384488],[-1.554219,12.384199],[-1.554199,12.384193],[-1.55412,12.384176],[-1.554045,12.384134],[-1.553982,12.384099],[-1.553853,12.383991],[-1.553709,12.383904],[-1.553634,12.383818],[-1.553632,12.383821],[-1.55361,12.383793],[-1.553603,12.383734],[-1.553606,12.383721],[-1.553658,12.383469],[-1.553731,12.383398],[-1.554021,12.38327],[-1.554213,12.383161],[-1.554352,12.383045],[-1.554439,12.382832],[-1.554519,12.382715],[-1.554651,12.382716],[-1.554769,12.382717],[-1.554862,12.382698],[-1.554961,12.382633],[-1.55508,12.382576],[-1.555186,12.38255],[-1.555317,12.382551],[-1.555475,12.382597],[-1.55548,12.382605],[-1.555482,12.382596],[-1.555601,12.382098],[-1.558422,12.370238],[-1.558428,12.370134],[-1.558828,12.363083],[-1.558901,12.360978],[-1.558386,12.354479],[-1.557539,12.352851],[-1.556056,12.351615],[-1.556065,12.35161],[-1.557706,12.350642],[-1.557808,12.350657],[-1.561552,12.348451],[-1.56769,12.344694],[-1.569041,12.343799],[-1.572657,12.342615],[-1.572704,12.342611],[-1.578165,12.342162],[-1.57933,12.341747],[-1.581352,12.341156],[-1.587458,12.338878],[-1.587548,12.338844],[-1.590731,12.337656],[-1.603791,12.333396],[-1.603991,12.333331],[-1.60477,12.333117],[-1.605206,12.333025],[-1.605209,12.333024],[-1.606846,12.340084],[-1.608238,12.345704],[-1.610507,12.347599],[-1.611118,12.354657],[-1.608367,12.354837],[-1.605778,12.36095],[-1.604292,12.366145],[-1.604324,12.366493],[-1.604553,12.366474],[-1.60521,12.37447],[-1.605707,12.374453],[-1.605781,12.37545],[-1.605284,12.375506],[-1.606012,12.384344],[-1.606406,12.389475],[-1.606313,12.389741],[-1.605998,12.390315],[-1.605995,12.390316],[-1.605053,12.39202],[-1.604467,12.393036]]]},"properties":{"nom":"ARDT. 3"}},{"type":"Feature","geometry":{"type":"Polygon","coordinates":[[[-1.517364,12.426618],[-1.533182,12.413216],[-1.540732,12.413915],[-1.552674,12.415459],[-1.552865,12.415483],[-1.552866,12.415486],[-1.552857,12.415545],[-1.552876,12.41547],[-1.553521,12.411188],[-1.553608,12.411201],[-1.553848,12.411234],[-1.553894,12.411241],[-1.556909,12.411494],[-1.556936,12.411485],[-1.56085,12.411819],[-1.564787,12.411966],[-1.572333,12.411911],[-1.574847,12.411893],[-1.583922,12.411814],[-1.588634,12.409427],[-1.59946,12.403943],[-1.60416,12.393583],[-1.604464,12.393042],[-1.604467,12.393036],[-1.605053,12.39202],[-1.619683,12.40127],[-1.62091,12.402548],[-1.621756,12.402996],[-1.62632,12.405411],[-1.6264,12.405471],[-1.627391,12.405965],[-1.631905,12.410379],[-1.637471,12.416088],[-1.640298,12.419256],[-1.643244,12.422295],[-1.64639,12.425832],[-1.649961,12.429848],[-1.658627,12.43825],[-1.620616,12.445775],[-1.619508,12.454652],[-1.601596,12.455341],[-1.601632,12.455312],[-1.597884,12.455448],[-1.597866,12.455449],[-1.588752,12.455779],[-1.575497,12.473291],[-1.562415,12.480994],[-1.551638,12.485077],[-1.551261,12.48515],[-1.540585,12.487232],[-1.530379,12.489482],[-1.521174,12.492358],[-1.515869,12.430055],[-1.515869,12.430053],[-1.515723,12.430004],[-1.515088,12.429711],[-1.514698,12.429421],[-1.514472,12.429106],[-1.514455,12.429082],[-1.514484,12.429058],[-1.517322,12.426654],[-1.517364,12.426618]]]},"properties":{"nom":"ARDT. 9"}},{"type":"Feature","geometry":{"type":"Polygon","coordinates":[[[-1.514455,12.429082],[-1.514472,12.429106],[-1.514698,12.429421],[-1.515088,12.429711],[-1.515723,12.430004],[-1.515869,12.430053],[-1.515869,12.430055],[-1.521174,12.492358],[-1.517641,12.493462],[-1.507986,12.497368],[-1.49937,12.499716],[-1.492815,12.500322],[-1.480007,12.500539],[-1.479317,12.500535],[-1.472334,12.500495],[-1.462073,12.500281],[-1.461142,12.485406],[-1.459972,12.465479],[-1.446943,12.450823],[-1.441336,12.444116],[-1.445801,12.440264],[-1.445928,12.440159],[-1.45764,12.430529],[-1.457946,12.430228],[-1.471342,12.419046],[-1.473989,12.416811],[-1.478004,12.413565],[-1.481629,12.410635],[-1.498056,12.396454],[-1.498116,12.396402],[-1.498121,12.396392],[-1.50103,12.390463],[-1.501292,12.388729],[-1.501447,12.387875],[-1.501798,12.386381],[-1.501855,12.386071],[-1.501873,12.386057],[-1.501867,12.386022],[-1.501944,12.385963],[-1.502001,12.385919],[-1.502003,12.385919],[-1.504017,12.386054],[-1.504403,12.386022],[-1.505029,12.38595],[-1.505487,12.385862],[-1.505578,12.385851],[-1.505851,12.385773],[-1.508351,12.385065],[-1.508446,12.38508],[-1.509965,12.385314],[-1.510892,12.385752],[-1.511074,12.385855],[-1.512356,12.386578],[-1.513236,12.386776],[-1.514802,12.386929],[-1.515768,12.386967],[-1.515768,12.386967],[-1.516221,12.386985],[-1.523706,12.385913],[-1.523984,12.385857],[-1.524694,12.386165],[-1.524969,12.386236],[-1.525393,12.386274],[-1.52562,12.386269],[-1.525715,12.386247],[-1.525877,12.386119],[-1.5259,12.385946],[-1.526039,12.385817],[-1.526237,12.38579],[-1.526449,12.38587],[-1.526581,12.385885],[-1.527064,12.38594],[-1.527253,12.385932],[-1.527348,12.385932],[-1.527485,12.385987],[-1.527662,12.385927],[-1.527744,12.38574],[-1.527886,12.385682],[-1.528,12.385699],[-1.528158,12.385607],[-1.528235,12.385535],[-1.528418,12.385463],[-1.528455,12.38546],[-1.528514,12.385414],[-1.528712,12.385336],[-1.528858,12.385322],[-1.52907,12.385302],[-1.529195,12.385295],[-1.529348,12.385289],[-1.529389,12.385294],[-1.529465,12.385304],[-1.52967,12.385298],[-1.529816,12.385277],[-1.529934,12.385235],[-1.530004,12.385206],[-1.530022,12.385199],[-1.530124,12.385171],[-1.530183,12.38515],[-1.530285,12.385165],[-1.530424,12.385187],[-1.530541,12.385188],[-1.530651,12.385167],[-1.530856,12.385067],[-1.531091,12.384982],[-1.531186,12.384947],[-1.531245,12.384904],[-1.531369,12.384854],[-1.531465,12.384819],[-1.531486,12.384817],[-1.53156,12.384812],[-1.53164,12.384755],[-1.531685,12.384696],[-1.531971,12.384519],[-1.532144,12.384473],[-1.5323,12.384457],[-1.532396,12.384364],[-1.532719,12.384229],[-1.53337,12.384218],[-1.533772,12.384134],[-1.534037,12.383941],[-1.534314,12.383993],[-1.534452,12.384145],[-1.534414,12.384396],[-1.53442,12.384748],[-1.534389,12.385036],[-1.534359,12.385223],[-1.53424,12.385459],[-1.534093,12.385602],[-1.533752,12.385781],[-1.533456,12.386164],[-1.533775,12.38619],[-1.534258,12.386178],[-1.534777,12.386231],[-1.535063,12.386147],[-1.53521,12.385968],[-1.535386,12.385861],[-1.535488,12.38594],[-1.535583,12.385965],[-1.535757,12.38608],[-1.535804,12.386417],[-1.535459,12.3868],[-1.53586,12.386863],[-1.536639,12.386726],[-1.536845,12.386477],[-1.537032,12.38658],[-1.537411,12.386728],[-1.537706,12.386833],[-1.538138,12.38696],[-1.538496,12.387034],[-1.538939,12.38712],[-1.539718,12.387435],[-1.539887,12.387519],[-1.540129,12.38752],[-1.540446,12.387533],[-1.54072,12.387544],[-1.54091,12.387597],[-1.541142,12.387692],[-1.541457,12.387943],[-1.541666,12.388276],[-1.541865,12.388495],[-1.542361,12.388508],[-1.543281,12.388326],[-1.543999,12.388195],[-1.544581,12.38798],[-1.544616,12.387949],[-1.544642,12.387951],[-1.544694,12.387904],[-1.544833,12.387877],[-1.544939,12.387862],[-1.545061,12.387862],[-1.545194,12.387847],[-1.545316,12.387836],[-1.545477,12.38781],[-1.545688,12.387773],[-1.545882,12.387758],[-1.545999,12.387758],[-1.546087,12.38777],[-1.546143,12.387803],[-1.546214,12.387855],[-1.546226,12.387863],[-1.546314,12.387918],[-1.546375,12.38794],[-1.546408,12.387968],[-1.546436,12.387995],[-1.546452,12.387979],[-1.546592,12.387914],[-1.546708,12.38786],[-1.546809,12.387779],[-1.546931,12.387692],[-1.546993,12.387622],[-1.54706,12.387535],[-1.547154,12.387454],[-1.54726,12.387372],[-1.547303,12.387339],[-1.547344,12.387307],[-1.547405,12.387286],[-1.547505,12.38727],[-1.547516,12.387273],[-1.547624,12.387239],[-1.547983,12.387262],[-1.548184,12.387097],[-1.548301,12.387014],[-1.548512,12.386995],[-1.548829,12.387028],[-1.549029,12.386977],[-1.549442,12.386865],[-1.54978,12.386815],[-1.549991,12.386723],[-1.550143,12.386614],[-1.550351,12.386486],[-1.551566,12.386254],[-1.552624,12.385927],[-1.552742,12.385554],[-1.552757,12.384725],[-1.552927,12.384528],[-1.553234,12.384281],[-1.553425,12.384085],[-1.553632,12.383821],[-1.553634,12.383818],[-1.553709,12.383904],[-1.553853,12.383991],[-1.553982,12.384099],[-1.554045,12.384134],[-1.55412,12.384176],[-1.554199,12.384193],[-1.554219,12.384199],[-1.554551,12.384488],[-1.554689,12.384553],[-1.55471,12.384562],[-1.555072,12.384728],[-1.555419,12.384827],[-1.55551,12.384872],[-1.555986,12.384986],[-1.555576,12.385251],[-1.555565,12.385252],[-1.555498,12.385306],[-1.555165,12.3853],[-1.555151,12.385342],[-1.554987,12.385507],[-1.554902,12.385638],[-1.554817,12.385728],[-1.554725,12.385825],[-1.554597,12.38597],[-1.554484,12.386108],[-1.554363,12.386239],[-1.554171,12.386466],[-1.554124,12.386519],[-1.554101,12.386532],[-1.554077,12.386559],[-1.554028,12.386591],[-1.553963,12.386612],[-1.553961,12.386613],[-1.553914,12.386626],[-1.553849,12.386649],[-1.553781,12.386681],[-1.553696,12.386703],[-1.553617,12.386716],[-1.553538,12.386729],[-1.553512,12.38674],[-1.553489,12.386755],[-1.553485,12.386762],[-1.553476,12.386764],[-1.553443,12.386802],[-1.553393,12.386892],[-1.553393,12.386908],[-1.55339,12.386911],[-1.553383,12.386962],[-1.553383,12.387025],[-1.553382,12.387059],[-1.553378,12.387116],[-1.553376,12.387119],[-1.553375,12.387122],[-1.553371,12.387135],[-1.553367,12.38714],[-1.553367,12.387145],[-1.553362,12.38716],[-1.553352,12.387191],[-1.553349,12.387193],[-1.553349,12.387196],[-1.55332,12.387224],[-1.553257,12.387256],[-1.553256,12.387257],[-1.553227,12.387271],[-1.553102,12.387325],[-1.553073,12.387338],[-1.553071,12.387339],[-1.553012,12.387365],[-1.552903,12.38739],[-1.552899,12.38739],[-1.552886,12.387393],[-1.552408,12.38818],[-1.55009,12.391252],[-1.547453,12.395282],[-1.548146,12.39604],[-1.549664,12.398892],[-1.55008,12.399409],[-1.550315,12.400986],[-1.551213,12.402568],[-1.551875,12.402708],[-1.551837,12.403154],[-1.554434,12.405047],[-1.554447,12.405047],[-1.553521,12.411188],[-1.552876,12.41547],[-1.552857,12.415545],[-1.552866,12.415486],[-1.552865,12.415483],[-1.552674,12.415459],[-1.540732,12.413915],[-1.533182,12.413216],[-1.517364,12.426618],[-1.517322,12.426654],[-1.514484,12.429058],[-1.514455,12.429082]]]},"properties":{"nom":"ARDT. 4"}},{"type":"Feature","geometry":{"type":"Polygon","coordinates":[[[-1.464838,12.357747],[-1.4783,12.366483],[-1.47242,12.375276],[-1.468405,12.38128],[-1.46761,12.382468],[-1.468004,12.383056],[-1.468012,12.383088],[-1.470233,12.392537],[-1.47027,12.392692],[-1.473593,12.406734],[-1.474191,12.406578],[-1.475345,12.409122],[-1.477759,12.413321],[-1.478004,12.413565],[-1.473989,12.416811],[-1.471342,12.419046],[-1.467997,12.421912],[-1.467877,12.421968],[-1.457946,12.430228],[-1.45764,12.430529],[-1.445928,12.440159],[-1.445801,12.440264],[-1.445799,12.440232],[-1.445134,12.432871],[-1.441852,12.420289],[-1.441351,12.418235],[-1.441225,12.418091],[-1.441442,12.413203],[-1.441944,12.412899],[-1.442295,12.406444],[-1.442998,12.40408],[-1.444501,12.399821],[-1.445699,12.399466],[-1.445567,12.398942],[-1.44203,12.387129],[-1.437688,12.377718],[-1.438578,12.369224],[-1.438577,12.369223],[-1.438582,12.369191],[-1.438783,12.36789],[-1.44285,12.35894],[-1.446025,12.352426],[-1.449178,12.345715],[-1.451793,12.347129],[-1.450977,12.348905],[-1.451007,12.348922],[-1.451957,12.349446],[-1.459659,12.354322],[-1.461067,12.355301],[-1.461074,12.355302],[-1.464821,12.357736],[-1.464826,12.357739],[-1.464838,12.357747]]]},"properties":{"nom":"ARDT. 10"}},{"type":"Feature","geometry":{"type":"Polygon","coordinates":[[[-1.5367,12.363013],[-1.53673,12.362995],[-1.556056,12.351615],[-1.557539,12.352851],[-1.558386,12.354479],[-1.558901,12.360978],[-1.558828,12.363083],[-1.558428,12.370134],[-1.558422,12.370238],[-1.555601,12.382098],[-1.555482,12.382596],[-1.55548,12.382605],[-1.555475,12.382597],[-1.555317,12.382551],[-1.555186,12.38255],[-1.55508,12.382576],[-1.554961,12.382633],[-1.554862,12.382698],[-1.554769,12.382717],[-1.554651,12.382716],[-1.554519,12.382715],[-1.554439,12.382832],[-1.554352,12.383045],[-1.554213,12.383161],[-1.554021,12.38327],[-1.553731,12.383398],[-1.553658,12.383469],[-1.553606,12.383721],[-1.553603,12.383734],[-1.55361,12.383793],[-1.553632,12.383821],[-1.553425,12.384085],[-1.553234,12.384281],[-1.552927,12.384528],[-1.552757,12.384725],[-1.552742,12.385554],[-1.552624,12.385927],[-1.551566,12.386254],[-1.550351,12.386486],[-1.550143,12.386614],[-1.549991,12.386723],[-1.54978,12.386815],[-1.549442,12.386865],[-1.549029,12.386977],[-1.548829,12.387028],[-1.548512,12.386995],[-1.548301,12.387014],[-1.548184,12.387097],[-1.547983,12.387262],[-1.547624,12.387239],[-1.547516,12.387273],[-1.547505,12.38727],[-1.547405,12.387286],[-1.547344,12.387307],[-1.547303,12.387339],[-1.54726,12.387372],[-1.547154,12.387454],[-1.54706,12.387535],[-1.546993,12.387622],[-1.546931,12.387692],[-1.546809,12.387779],[-1.546708,12.38786],[-1.546592,12.387914],[-1.546452,12.387979],[-1.546436,12.387995],[-1.546408,12.387968],[-1.546375,12.38794],[-1.546314,12.387918],[-1.546226,12.387863],[-1.546214,12.387855],[-1.546143,12.387803],[-1.546087,12.38777],[-1.545999,12.387758],[-1.545882,12.387758],[-1.545688,12.387773],[-1.545477,12.38781],[-1.545316,12.387836],[-1.545194,12.387847],[-1.545061,12.387862],[-1.544939,12.387862],[-1.544833,12.387877],[-1.544694,12.387904],[-1.544642,12.387951],[-1.544616,12.387949],[-1.544581,12.38798],[-1.543999,12.388195],[-1.543281,12.388326],[-1.542361,12.388508],[-1.541865,12.388495],[-1.541666,12.388276],[-1.541457,12.387943],[-1.541142,12.387692],[-1.54091,12.387597],[-1.54072,12.387544],[-1.540446,12.387533],[-1.540129,12.38752],[-1.539887,12.387519],[-1.539718,12.387435],[-1.538939,12.38712],[-1.538496,12.387034],[-1.538138,12.38696],[-1.537706,12.386833],[-1.537411,12.386728],[-1.537032,12.38658],[-1.536845,12.386477],[-1.536639,12.386726],[-1.53586,12.386863],[-1.535459,12.3868],[-1.535804,12.386417],[-1.535757,12.38608],[-1.535583,12.385965],[-1.535488,12.38594],[-1.535386,12.385861],[-1.53521,12.385968],[-1.535063,12.386147],[-1.534777,12.386231],[-1.534258,12.386178],[-1.533775,12.38619],[-1.533456,12.386164],[-1.533752,12.385781],[-1.534093,12.385602],[-1.53424,12.385459],[-1.534359,12.385223],[-1.534389,12.385036],[-1.53442,12.384748],[-1.534414,12.384396],[-1.534452,12.384145],[-1.534314,12.383993],[-1.534037,12.383941],[-1.533772,12.384134],[-1.53337,12.384218],[-1.532719,12.384229],[-1.532396,12.384364],[-1.5323,12.384457],[-1.532144,12.384473],[-1.531971,12.384519],[-1.531685,12.384696],[-1.53164,12.384755],[-1.53156,12.384812],[-1.531486,12.384817],[-1.531465,12.384819],[-1.531369,12.384854],[-1.531245,12.384904],[-1.531186,12.384947],[-1.531091,12.384982],[-1.530856,12.385067],[-1.530651,12.385167],[-1.530541,12.385188],[-1.530424,12.385187],[-1.530285,12.385165],[-1.530183,12.38515],[-1.530124,12.385171],[-1.530022,12.385199],[-1.530004,12.385206],[-1.529934,12.385235],[-1.529816,12.385277],[-1.52967,12.385298],[-1.529465,12.385304],[-1.529389,12.385294],[-1.529348,12.385289],[-1.529195,12.385295],[-1.52907,12.385302],[-1.528858,12.385322],[-1.528712,12.385336],[-1.528514,12.385414],[-1.528455,12.38546],[-1.528418,12.385463],[-1.528235,12.385535],[-1.528158,12.385607],[-1.528,12.385699],[-1.527886,12.385682],[-1.527744,12.38574],[-1.527662,12.385927],[-1.527485,12.385987],[-1.527348,12.385932],[-1.527253,12.385932],[-1.527064,12.38594],[-1.526581,12.385885],[-1.526449,12.38587],[-1.526237,12.38579],[-1.526039,12.385817],[-1.5259,12.385946],[-1.525877,12.386119],[-1.525715,12.386247],[-1.52562,12.386269],[-1.525393,12.386274],[-1.524969,12.386236],[-1.524694,12.386165],[-1.523984,12.385857],[-1.523706,12.385913],[-1.516221,12.386985],[-1.515768,12.386967],[-1.515768,12.386967],[-1.514802,12.386929],[-1.513236,12.386776],[-1.512356,12.386578],[-1.511074,12.385855],[-1.510892,12.385752],[-1.509965,12.385314],[-1.508446,12.38508],[-1.508351,12.385065],[-1.505851,12.385773],[-1.505578,12.385851],[-1.505487,12.385862],[-1.505029,12.38595],[-1.504403,12.386022],[-1.504017,12.386054],[-1.502003,12.385919],[-1.502071,12.385538],[-1.519312,12.371583],[-1.519429,12.371573],[-1.521822,12.371002],[-1.521848,12.370996],[-1.525855,12.370041],[-1.526399,12.369813],[-1.527189,12.369319],[-1.527413,12.369044],[-1.527497,12.368723],[-1.527498,12.368527],[-1.528468,12.368339],[-1.531005,12.367815],[-1.531381,12.367483],[-1.532481,12.366534],[-1.532773,12.36621],[-1.533223,12.365723],[-1.534208,12.36475],[-1.5367,12.363013]]]},"properties":{"nom":"ARDT. 2"}},{"type":"Feature","geometry":{"type":"Polygon","coordinates":[[[-1.52594,12.332916],[-1.525947,12.332923],[-1.538046,12.335334],[-1.540004,12.335224],[-1.541658,12.334812],[-1.541945,12.334829],[-1.542759,12.334878],[-1.547659,12.338399],[-1.552204,12.341665],[-1.557783,12.350596],[-1.557706,12.350642],[-1.556065,12.35161],[-1.556056,12.351615],[-1.53673,12.362995],[-1.5367,12.363013],[-1.534208,12.36475],[-1.533223,12.365723],[-1.532773,12.36621],[-1.532481,12.366534],[-1.531381,12.367483],[-1.531005,12.367815],[-1.528468,12.368339],[-1.527498,12.368527],[-1.527497,12.368723],[-1.527413,12.369044],[-1.527189,12.369319],[-1.526399,12.369813],[-1.525855,12.370041],[-1.521848,12.370996],[-1.521822,12.371002],[-1.519429,12.371573],[-1.519312,12.371583],[-1.502071,12.385538],[-1.502149,12.385098],[-1.501938,12.385179],[-1.501927,12.385183],[-1.501874,12.385204],[-1.501873,12.385207],[-1.501045,12.385391],[-1.501082,12.384874],[-1.50155,12.382902],[-1.501224,12.381194],[-1.501556,12.38034],[-1.501688,12.379999],[-1.501327,12.379159],[-1.501095,12.377213],[-1.500829,12.375474],[-1.500801,12.375296],[-1.500628,12.373948],[-1.50067,12.371734],[-1.500617,12.371581],[-1.50031,12.370684],[-1.500162,12.368815],[-1.50014,12.368528],[-1.500391,12.36695],[-1.500395,12.366944],[-1.500475,12.364688],[-1.500527,12.363203],[-1.500966,12.363206],[-1.501579,12.363209],[-1.507859,12.353094],[-1.501825,12.349121],[-1.503862,12.345945],[-1.507032,12.347947],[-1.511413,12.341295],[-1.515254,12.343661],[-1.52255,12.332831],[-1.525866,12.332843],[-1.52594,12.332916]]]},"properties":{"nom":"ARDT. 1"}},{"type":"Feature","geometry":{"type":"Polygon","coordinates":[[[-1.6264,12.405471],[-1.62632,12.405411],[-1.621756,12.402996],[-1.62091,12.402548],[-1.619683,12.40127],[-1.605053,12.39202],[-1.605995,12.390316],[-1.605998,12.390315],[-1.606313,12.389741],[-1.606406,12.389475],[-1.606012,12.384344],[-1.605284,12.375506],[-1.605781,12.37545],[-1.605707,12.374453],[-1.60521,12.37447],[-1.604553,12.366474],[-1.604324,12.366493],[-1.604292,12.366145],[-1.605778,12.36095],[-1.608367,12.354837],[-1.611118,12.354657],[-1.610507,12.347599],[-1.608238,12.345704],[-1.606846,12.340084],[-1.605209,12.333024],[-1.606932,12.332545],[-1.609103,12.331865],[-1.613129,12.330643],[-1.613196,12.330611],[-1.616973,12.329527],[-1.634153,12.324908],[-1.640516,12.323298],[-1.653017,12.319863],[-1.653677,12.320963],[-1.65934,12.330176],[-1.663023,12.341947],[-1.664352,12.348701],[-1.664851,12.351241],[-1.665947,12.358317],[-1.665572,12.367718],[-1.665639,12.367767],[-1.665525,12.368883],[-1.664403,12.381064],[-1.664347,12.381671],[-1.662204,12.40324],[-1.682517,12.409435],[-1.684297,12.416506],[-1.680515,12.431578],[-1.666976,12.431512],[-1.659951,12.429767],[-1.659143,12.438148],[-1.659102,12.438156],[-1.658627,12.43825],[-1.649961,12.429848],[-1.64639,12.425832],[-1.643244,12.422295],[-1.640298,12.419256],[-1.637471,12.416088],[-1.631905,12.410379],[-1.627391,12.405965],[-1.6264,12.405471]]]},"properties":{"nom":"ARDT. 8"}},{"type":"Feature","geometry":{"type":"Polygon","coordinates":[[[-1.48659,12.354085],[-1.498759,12.335883],[-1.500957,12.333552],[-1.502453,12.331985],[-1.502481,12.332002],[-1.502607,12.332077],[-1.503676,12.332459],[-1.505586,12.33277],[-1.52255,12.332831],[-1.515254,12.343661],[-1.511413,12.341295],[-1.507032,12.347947],[-1.503862,12.345945],[-1.501825,12.349121],[-1.507859,12.353094],[-1.501579,12.363209],[-1.500966,12.363206],[-1.500527,12.363203],[-1.500475,12.364688],[-1.500395,12.366944],[-1.500391,12.36695],[-1.50014,12.368528],[-1.500162,12.368815],[-1.50031,12.370684],[-1.500617,12.371581],[-1.50067,12.371734],[-1.500628,12.373948],[-1.500801,12.375296],[-1.500829,12.375474],[-1.501095,12.377213],[-1.501327,12.379159],[-1.501688,12.379999],[-1.501556,12.38034],[-1.501224,12.381194],[-1.50155,12.382902],[-1.501082,12.384874],[-1.501045,12.385391],[-1.501873,12.385207],[-1.501874,12.385204],[-1.501927,12.385183],[-1.501938,12.385179],[-1.502149,12.385098],[-1.502071,12.385538],[-1.502003,12.385919],[-1.502001,12.385919],[-1.501944,12.385963],[-1.501867,12.386022],[-1.501873,12.386057],[-1.501855,12.386071],[-1.501798,12.386381],[-1.501447,12.387875],[-1.501292,12.388729],[-1.50103,12.390463],[-1.498121,12.396392],[-1.498116,12.396402],[-1.498056,12.396454],[-1.481629,12.410635],[-1.478004,12.413565],[-1.477759,12.413321],[-1.475345,12.409122],[-1.474191,12.406578],[-1.473593,12.406734],[-1.47027,12.392692],[-1.470233,12.392537],[-1.468012,12.383088],[-1.468004,12.383056],[-1.46761,12.382468],[-1.468405,12.38128],[-1.47242,12.375276],[-1.4783,12.366483],[-1.478302,12.36648],[-1.478574,12.366074],[-1.48659,12.354085]]]},"properties":{"nom":"ARDT . 5"}},{"type":"Feature","geometry":{"type":"Polygon","coordinates":[[[-1.541945,12.334829],[-1.541658,12.334812],[-1.540004,12.335224],[-1.538046,12.335334],[-1.525947,12.332923],[-1.52594,12.332916],[-1.525866,12.332843],[-1.525926,12.332843],[-1.527386,12.328058],[-1.528472,12.321955],[-1.528393,12.318947],[-1.528455,12.317413],[-1.529091,12.301836],[-1.529085,12.30183],[-1.529178,12.298604],[-1.529179,12.298603],[-1.529179,12.298621],[-1.529402,12.298623],[-1.531072,12.29864],[-1.534488,12.298705],[-1.546017,12.298881],[-1.546802,12.298392],[-1.553056,12.298918],[-1.553488,12.298954],[-1.556313,12.299187],[-1.561287,12.299594],[-1.563403,12.299767],[-1.574567,12.30067],[-1.575278,12.303569],[-1.575342,12.30383],[-1.575343,12.303833],[-1.576181,12.309675],[-1.582631,12.314678],[-1.582788,12.314869],[-1.585834,12.318589],[-1.586727,12.320344],[-1.587891,12.322938],[-1.588755,12.324832],[-1.588758,12.32484],[-1.588005,12.32618],[-1.587417,12.327224],[-1.596375,12.32982],[-1.60218,12.327749],[-1.603897,12.325288],[-1.603683,12.329077],[-1.603807,12.333327],[-1.603791,12.333396],[-1.590731,12.337656],[-1.587548,12.338844],[-1.587458,12.338878],[-1.581352,12.341156],[-1.57933,12.341747],[-1.578165,12.342162],[-1.572704,12.342611],[-1.572657,12.342615],[-1.569041,12.343799],[-1.56769,12.344694],[-1.561552,12.348451],[-1.557808,12.350657],[-1.557706,12.350642],[-1.557783,12.350596],[-1.552204,12.341665],[-1.547659,12.338399],[-1.542759,12.334878],[-1.541945,12.334829]]]},"properties":{"nom":"ARDT. 6"}}]}