{"type":"FeatureCollection","features":[{"type":"Feature","geometry":{"type":"Polygon","coordinates":[[[-1.562768,12.376695],[-1.563382,12.377214],[-1.564363,12.377725],[-1.565308,12.378101],[-1.566053,12.37815],[-1.566804,12.37866],[-1.567459,12.379911],[-1.568233,12.37968],[-1.569155,12.379296],[-1.570803,12.379052],[-1.572115,12.379474],[-1.573001,12.380591],[-1.571349,12.381785],[-1.569279,12.38191],[-1.567402,12.381999],[-1.565515,12.382405],[-1.564193,12.38351],[-1.563527,12.384194],[-1.562303,12.384422],[-1.560232,12.384691],[-1.557662,12.385419],[-1.556277,12.386208],[-1.554267,12.387354],[-1.551965,12.387929],[-1.550542,12.389043],[-1.547486,12.389686],[-1.545534,12.390056],[-1.544112,12.390961],[-1.543784,12.39218],[-1.543838,12.394006],[-1.542558,12.394352],[-1.541411,12.393839],[-1.539907,12.393045],[-1.53798,12.392293],[-1.534895,12.392946],[-1.533219,12.39168],[-1.531161,12.391407],[-1.528999,12.391503],[-1.527721,12.391424],[-1.525663,12.391033],[-1.524494,12.391271],[-1.523325,12.391436],[-1.521486,12.391318],[-1.518757,12.390887],[-1.516855,12.39056],[-1.516021,12.390519],[-1.514032,12.390418],[-1.511722,12.390713],[-1.506438,12.391733],[-1.501664,12.390188],[-1.501842,12.389038],[-1.502132,12.387162],[-1.505647,12.386774],[-1.50838,12.386509],[-1.509823,12.386698],[-1.512284,12.387317],[-1.513355,12.388236],[-1.514338,12.388368],[-1.516236,12.387855],[-1.516979,12.388102],[-1.518138,12.388108],[-1.518758,12.387506],[-1.522613,12.387229],[-1.526538,12.387476],[-1.527544,12.386948],[-1.529855,12.386355],[-1.531404,12.385758],[-1.532328,12.384859],[-1.533265,12.383499],[-1.533966,12.383041],[-1.534338,12.383956],[-1.534944,12.38593],[-1.537097,12.385644],[-1.53709,12.387],[-1.540245,12.388535],[-1.54363,12.388328],[-1.546646,12.386906],[-1.551123,12.385565],[-1.552393,12.384428],[-1.553101,12.383795],[-1.554273,12.383033],[-1.556551,12.381824],[-1.558791,12.380824],[-1.55996,12.38073],[-1.560779,12.380662],[-1.56197,12.379801],[-1.561807,12.377612],[-1.561959,12.376772],[-1.562768,12.376695]]]},"properties":{"nom":"Barrage / plan d'eau"}}]}