{"type":"FeatureCollection","features":[{"type":"Feature","geometry":{"type":"Point","coordinates":[-1.528465,12.317354]},"properties":{"designation":"feu tricolore","rue_1":"15.029 Boulevard France Afrique","rue_2":"15.458 Av. Sapone","etat":null}},{"type":"Feature","geometry":{"type":"Point","coordinates":[-1.552185,12.322996]},"properties":{"designation":"feu tricolore","rue_1":"17.025 Av. de la Dignité","rue_2":"Rue 17.276","etat":null}},{"type":"Feature","geometry":{"type":"Point","coordinates":[-1.528064,12.324176]},"properties":{"designation":"feu tricolore","rue_1":"15.029 Boulevard France Afrique","rue_2":"16.302 Rue Warba","etat":null}},{"type":"Feature","geometry":{"type":"Point","coordinates":[-1.571279,12.340328]},"properties":{"designation":"feu tricolore","rue_1":"Rue 17.407","rue_2":"Rue 17.390","etat":null}},{"type":"Feature","geometry":{"type":"Point","coordinates":[-1.516931,12.332815]},"properties":{"designation":"feu tricolore","rue_1":"15.64 Boulevard de la JEUNESSE Sud Est","rue_2":"Rue 15.19","etat":null}},{"type":"Feature","geometry":{"type":"Point","coordinates":[-1.496574,12.338961]},"properties":{"designation":"feu tricolore","rue_1":"30.095 Tânsoba Kiema","rue_2":"30.246 Rue Cardinal Paul Zoungrana","etat":null}},{"type":"Feature","geometry":{"type":"Point","coordinates":[-1.490066,12.348741]},"properties":{"designation":"feu tricolore","rue_1":"30.095 Tânsoba Kiema","rue_2":"30.200 Rue Zîniba","etat":null}},{"type":"Feature","geometry":{"type":"Point","coordinates":[-1.486626,12.353864]},"properties":{"designation":"feu tricolore","rue_1":"30.095 Tânsoba Kiema","rue_2":"30.002 Bogodogo","etat":null}},{"type":"Feature","geometry":{"type":"Point","coordinates":[-1.483408,12.358816]},"properties":{"designation":"feu tricolore","rue_1":"29.099 Tânsoba Wâore","rue_2":"29.063 Rue Na-Paga Ragnimi","etat":null}},{"type":"Feature","geometry":{"type":"Point","coordinates":[-1.480187,12.363594]},"properties":{"designation":"feu tricolore","rue_1":"29.099 Tânsoba Wâore","rue_2":"Rue 29.302","etat":null}},{"type":"Feature","geometry":{"type":"Point","coordinates":[-1.494033,12.366371]},"properties":{"designation":"feu tricolore","rue_1":" 29.001 Av. Babanguida Ibrahim","rue_2":"29.042 Rue Wa  Ne Buuga","etat":null}},{"type":"Feature","geometry":{"type":"Point","coordinates":[-1.493932,12.368382]},"properties":{"designation":"feu tricolore","rue_1":" 29.001 Av. Babanguida Ibrahim","rue_2":"14.054 Av. Yateng Naba Tigre","etat":null}},{"type":"Feature","geometry":{"type":"Point","coordinates":[-1.475671,12.370327]},"properties":{"designation":"feu tricolore","rue_1":"28.067 Blvd Tansoba Fiid-Laado","rue_2":"Rue 28.562","etat":null}},{"type":"Feature","geometry":{"type":"Point","coordinates":[-1.472398,12.374981]},"properties":{"designation":"feu tricolore","rue_1":"28.067 Blvd Tansoba Fiid-Laado","rue_2":"28.446 Blvd Gl Charles De Gaulle","etat":null}},{"type":"Feature","geometry":{"type":"Point","coordinates":[-1.477587,12.375292]},"properties":{"designation":"feu tricolore","rue_1":"28.446 Gl Brd Charles Degaulle","rue_2":"Rue 28.363","etat":null}},{"type":"Feature","geometry":{"type":"Point","coordinates":[-1.483667,12.37555]},"properties":{"designation":"feu tricolore","rue_1":"29.002 Gl Brd Charles Degaulle","rue_2":"13.051 Rue Zag-Bâko","etat":null}},{"type":"Feature","geometry":{"type":"Point","coordinates":[-1.486158,12.38873]},"properties":{"designation":"feu tricolore","rue_1":"28.002  Av. Jean Paul II","rue_2":"MACO","etat":null}},{"type":"Feature","geometry":{"type":"Point","coordinates":[-1.479504,12.390443]},"properties":{"designation":"feu tricolore","rue_1":"28.002  Av. Jean Paul II","rue_2":"ENAREF","etat":null}},{"type":"Feature","geometry":{"type":"Point","coordinates":[-1.477421,12.390862]},"properties":{"designation":"feu tricolore","rue_1":"28.002  Av. Jean Paul II","rue_2":"27.031 Av. Naba Boulsa-Kiba","etat":null}},{"type":"Feature","geometry":{"type":"Point","coordinates":[-1.516247,12.387044]},"properties":{"designation":"feu tricolore","rue_1":"12.083 Av. Ouezzin D Coulibaly","rue_2":"12.006  Av. du Barrage","etat":null}},{"type":"Feature","geometry":{"type":"Point","coordinates":[-1.516472,12.390395]},"properties":{"designation":"feu tricolore","rue_1":"24.001  Av. de la Concorde Nationale","rue_2":"23.002 Rue Soeur Josephine Kabore","etat":null}},{"type":"Feature","geometry":{"type":"Point","coordinates":[-1.535167,12.391986]},"properties":{"designation":"feu tricolore","rue_1":"23.002 Rue Soeur CJosephine Kabore","rue_2":"23.041 Rue  Baorgo","etat":null}},{"type":"Feature","geometry":{"type":"Point","coordinates":[-1.499952,12.393219]},"properties":{"designation":"feu tricolore","rue_1":"25.002  Av. Sanematenga","rue_2":"Rue 24.126","etat":null}},{"type":"Feature","geometry":{"type":"Point","coordinates":[-1.515404,12.395127]},"properties":{"designation":"feu tricolore","rue_1":"24.001  Av. de la Concorde Nationale","rue_2":"23.106 Rue Poog Roogo","etat":null}},{"type":"Feature","geometry":{"type":"Point","coordinates":[-1.498066,12.396386]},"properties":{"designation":"feu tricolore","rue_1":"25.002  Av. Sanematenga","rue_2":"25.001 Av. President J.B. Ouedraogo","etat":null}},{"type":"Feature","geometry":{"type":"Point","coordinates":[-1.514342,12.402307]},"properties":{"designation":"feu tricolore","rue_1":"24.001  Av. de la Concorde Nationale","rue_2":"23.228 Rue Bogdog Baga","etat":null}},{"type":"Feature","geometry":{"type":"Point","coordinates":[-1.597507,12.335234]},"properties":{"designation":"feu tricolore","rue_1":"RN 1 Av. Boulmiougou","rue_2":"vers Zagtouli","etat":null}},{"type":"Feature","geometry":{"type":"Point","coordinates":[-1.585402,12.339553]},"properties":{"designation":"feu tricolore","rue_1":"RN 1 Av. Boulmiougou","rue_2":"Rue 17.541","etat":null}},{"type":"Feature","geometry":{"type":"Point","coordinates":[-1.581125,12.341026]},"properties":{"designation":"feu tricolore","rue_1":"RN 1 Av. Boulmiougou","rue_2":"17.540 Rue  Zomb Saaga","etat":null}},{"type":"Feature","geometry":{"type":"Point","coordinates":[-1.579887,12.341495]},"properties":{"designation":"feu tricolore","rue_1":"RN 1 Av. Boulmiougou","rue_2":"Rue 17.538","etat":" a verifier"}},{"type":"Feature","geometry":{"type":"Point","coordinates":[-1.57796,12.341968]},"properties":{"designation":"feu tricolore","rue_1":"RN 1 Av. Boulmiougou","rue_2":"17.515 Rue Zâmené","etat":null}},{"type":"Feature","geometry":{"type":"Point","coordinates":[-1.572524,12.34267]},"properties":{"designation":"feu tricolore","rue_1":"RN 1 Av. Boulmiougou","rue_2":" 17.505 Av. de l'ONEA","etat":null}},{"type":"Feature","geometry":{"type":"Point","coordinates":[-1.568685,12.344027]},"properties":{"designation":"feu tricolore","rue_1":"RN 1 Av. Boulmiougou","rue_2":"17.408  Av. du Progrès","etat":null}},{"type":"Feature","geometry":{"type":"Point","coordinates":[-1.567268,12.344833]},"properties":{"designation":"feu tricolore","rue_1":"RN 1 Av. Boulmiougou","rue_2":"17.499 Rue Domaines","etat":null}},{"type":"Feature","geometry":{"type":"Point","coordinates":[-1.564807,12.346307]},"properties":{"designation":"feu tricolore","rue_1":"RN 1 Av. Boulmiougou","rue_2":"17.668 Av. Golfe de Syrte","etat":null}},{"type":"Feature","geometry":{"type":"Point","coordinates":[-1.562893,12.347499]},"properties":{"designation":"feu tricolore","rue_1":"RN 1 Av. Boulmiougou","rue_2":"17.178 Rue de l'Unité","etat":null}},{"type":"Feature","geometry":{"type":"Point","coordinates":[-1.558224,12.371504]},"properties":{"designation":"feu tricolore","rue_1":"19.001 Bd. Tânsoba  Bugum","rue_2":"10.074 Rue  Larle","etat":null}},{"type":"Feature","geometry":{"type":"Point","coordinates":[-1.557921,12.385689]},"properties":{"designation":"feu tricolore","rue_1":" Av DU YATENGA","rue_2":"-","etat":null}},{"type":"Feature","geometry":{"type":"Point","coordinates":[-1.557875,12.387266]},"properties":{"designation":"feu tricolore","rue_1":"22.075 Rue Paga Tênga","rue_2":"Rue 22.71","etat":null}},{"type":"Feature","geometry":{"type":"Point","coordinates":[-1.579679,12.389815]},"properties":{"designation":"feu tricolore","rue_1":" Av DU YATENGA","rue_2":null,"etat":null}},{"type":"Feature","geometry":{"type":"Point","coordinates":[-1.599724,12.390457]},"properties":{"designation":"feu tricolore","rue_1":" Av DU YATENGA","rue_2":null,"etat":null}},{"type":"Feature","geometry":{"type":"Point","coordinates":[-1.557816,12.353611]},"properties":{"designation":"feu tricolore","rue_1":"09.001 Boulevard Tânsoba Wam-Gôdi","rue_2":"09.042 Rue Sadba","etat":null}},{"type":"Feature","geometry":{"type":"Point","coordinates":[-1.55157,12.354154]},"properties":{"designation":"feu tricolore","rue_1":"RN 1 Av. Kadiogo","rue_2":"09.009 Rue Basi","etat":null}},{"type":"Feature","geometry":{"type":"Point","coordinates":[-1.547873,12.356426]},"properties":{"designation":"feu tricolore","rue_1":"RN 1 Av. Kadiogo","rue_2":"09.083 Av. Conseil de l'Entente","etat":null}},{"type":"Feature","geometry":{"type":"Point","coordinates":[-1.543142,12.359232]},"properties":{"designation":"feu tricolore","rue_1":"RN 1 Av. Kadiogo","rue_2":" 09.105  Av. Naba Zombré","etat":null}},{"type":"Feature","geometry":{"type":"Point","coordinates":[-1.541821,12.359933]},"properties":{"designation":"feu tricolore","rue_1":"RN 1 Av. Kadiogo","rue_2":"08.059  Rue Av du Mogho","etat":null}},{"type":"Feature","geometry":{"type":"Point","coordinates":[-1.53879,12.361817]},"properties":{"designation":"feu tricolore","rue_1":"RN 1 Av. Kadiogo","rue_2":"Rue 8.29","etat":null}},{"type":"Feature","geometry":{"type":"Point","coordinates":[-1.535517,12.363727]},"properties":{"designation":"feu tricolore","rue_1":"RN 1 Av. Kadiogo","rue_2":"02.007 Rue Sawadogo P. M. Jeanne","etat":null}},{"type":"Feature","geometry":{"type":"Point","coordinates":[-1.550396,12.366935]},"properties":{"designation":"feu tricolore","rue_1":"09.083  Av. Conseil de l'Entente","rue_2":"09.004 Rue Olympisme","etat":null}},{"type":"Feature","geometry":{"type":"Point","coordinates":[-1.531209,12.367713]},"properties":{"designation":"feu tricolore","rue_1":"Rond-point du 2 Octobre DOP","rue_2":"-","etat":null}},{"type":"Feature","geometry":{"type":"Point","coordinates":[-1.528524,12.368264]},"properties":{"designation":"feu tricolore","rue_1":"01.001 Av.  Bassawarga","rue_2":"03.062 Place de la Nation","etat":null}},{"type":"Feature","geometry":{"type":"Point","coordinates":[-1.527886,12.368374]},"properties":{"designation":"feu tricolore","rue_1":"Place des Cineastes","rue_2":"Rue 03.121","etat":null}},{"type":"Feature","geometry":{"type":"Point","coordinates":[-1.527438,12.368399]},"properties":{"designation":"feu tricolore","rue_1":"Place des Cineastes","rue_2":"Rue 03.121","etat":null}},{"type":"Feature","geometry":{"type":"Point","coordinates":[-1.525817,12.368739]},"properties":{"designation":"feu tricolore","rue_1":"01.002 Av. de l'Hotel de Ville","rue_2":"01.023 Rue Naaba Kom I","etat":null}},{"type":"Feature","geometry":{"type":"Point","coordinates":[-1.521726,12.369474]},"properties":{"designation":"feu tricolore","rue_1":"01.002 Av. de l'Hotel de Ville","rue_2":"04.017 Av. Yennenga","etat":null}},{"type":"Feature","geometry":{"type":"Point","coordinates":[-1.530451,12.369846]},"properties":{"designation":"feu tricolore","rue_1":"03.045 Av. de l'Armée","rue_2":"Place de la Nation","etat":null}},{"type":"Feature","geometry":{"type":"Point","coordinates":[-1.519556,12.371301]},"properties":{"designation":"feu tricolore","rue_1":"Place des Nations Unies","rue_2":"-","etat":null}},{"type":"Feature","geometry":{"type":"Point","coordinates":[-1.520268,12.373728]},"properties":{"designation":"feu tricolore","rue_1":"03.036 Rue Culture","rue_2":"3.075  Av. Dimdolosom","etat":null}},{"type":"Feature","geometry":{"type":"Point","coordinates":[-1.515564,12.374667]},"properties":{"designation":"feu tricolore","rue_1":"3.095 Rue Paspanga","rue_2":" 04.020  Av. Pdt Thomas SANKARA","etat":null}},{"type":"Feature","geometry":{"type":"Point","coordinates":[-1.531629,12.374658]},"properties":{"designation":"feu tricolore","rue_1":"3.12  Av.Tapsoba Tenga Dominique R.","rue_2":"3.045 Av. de l'arnée","etat":null}},{"type":"Feature","geometry":{"type":"Point","coordinates":[-1.5205,12.374676]},"properties":{"designation":"feu tricolore","rue_1":"03.044 Rue Douanes","rue_2":"3.075  Av. Dimdolosom","etat":null}},{"type":"Feature","geometry":{"type":"Point","coordinates":[-1.542279,12.375512]},"properties":{"designation":"feu tricolore","rue_1":"11.54  Av de la liberté","rue_2":"RN 2 AV DU YATENGA","etat":null}},{"type":"Feature","geometry":{"type":"Point","coordinates":[-1.513645,12.376238]},"properties":{"designation":"feu tricolore","rue_1":" 04.020  Av. Pdt Thomas SANKARA","rue_2":"04.047 Av. Pdt Guillaume Ouédraogo","etat":null}},{"type":"Feature","geometry":{"type":"Point","coordinates":[-1.546584,12.376468]},"properties":{"designation":"feu tricolore","rue_1":"10.065  Av. Naba Zombre","rue_2":"10.050 Rue Gionfo","etat":null}},{"type":"Feature","geometry":{"type":"Point","coordinates":[-1.536683,12.376699]},"properties":{"designation":"feu tricolore","rue_1":"11.54  Av de la liberté","rue_2":"11.073 Rue Pusêmpuugu","etat":null}},{"type":"Feature","geometry":{"type":"Point","coordinates":[-1.521144,12.377235]},"properties":{"designation":"feu tricolore","rue_1":"3.12  Av.Tapsoba Tenga Dominique R.","rue_2":"3.075  Av. Dimdolosom","etat":null}},{"type":"Feature","geometry":{"type":"Point","coordinates":[-1.532439,12.377697]},"properties":{"designation":"feu tricolore","rue_1":"3.02 Av. de la Liberté","rue_2":"03.045  Av. de l'Armée","etat":null}},{"type":"Feature","geometry":{"type":"Point","coordinates":[-1.53942,12.378226]},"properties":{"designation":"feu tricolore","rue_1":"11.065 Rue Sôasga","rue_2":"11.050 Rue Wiidi","etat":null}},{"type":"Feature","geometry":{"type":"Point","coordinates":[-1.547207,12.378541]},"properties":{"designation":"feu tricolore","rue_1":"RN 2 Naba Ziid-Wênde","rue_2":"Rue 11.42","etat":null}},{"type":"Feature","geometry":{"type":"Point","coordinates":[-1.521424,12.378559]},"properties":{"designation":"feu tricolore","rue_1":"3.006 Rue Kiendrébéogo N. Didier","rue_2":"3.075  Av. Dimdolosom","etat":null}},{"type":"Feature","geometry":{"type":"Point","coordinates":[-1.528141,12.37877]},"properties":{"designation":"feu tricolore","rue_1":"3.02 Av. de la Liberté","rue_2":" 03.061 Rue  Tus n Lubi","etat":null}},{"type":"Feature","geometry":{"type":"Point","coordinates":[-1.532975,12.379789]},"properties":{"designation":"feu tricolore","rue_1":"12.015  Av. de l'Armée","rue_2":"12.020 Av. de Dapoya","etat":null}},{"type":"Feature","geometry":{"type":"Point","coordinates":[-1.524018,12.379751]},"properties":{"designation":"feu tricolore","rue_1":"3.02 Av. de la Liberté","rue_2":"03.069 Rue Bandaogo Laurent","etat":null}},{"type":"Feature","geometry":{"type":"Point","coordinates":[-1.521922,12.380283]},"properties":{"designation":"feu tricolore","rue_1":"3.02 Av. de la Liberté","rue_2":"3.075  Av. Dimdolosom","etat":null}},{"type":"Feature","geometry":{"type":"Point","coordinates":[-1.519762,12.380797]},"properties":{"designation":"feu tricolore","rue_1":"3.02 Av. de la Liberté","rue_2":"Rue 3.83","etat":null}},{"type":"Feature","geometry":{"type":"Point","coordinates":[-1.540187,12.381237]},"properties":{"designation":"feu tricolore","rue_1":"11.038 Rue Abbé Robert Ouédraogo","rue_2":"11.065 Rue Sôasga","etat":null}},{"type":"Feature","geometry":{"type":"Point","coordinates":[-1.517115,12.381406]},"properties":{"designation":"feu tricolore","rue_1":"3.02 Av. de la Liberté","rue_2":"3.095 Rue Paspanga","etat":null}},{"type":"Feature","geometry":{"type":"Point","coordinates":[-1.524531,12.381806]},"properties":{"designation":"feu tricolore","rue_1":"12.020  Av. de Dapoya","rue_2":"Rue 12.49","etat":null}},{"type":"Feature","geometry":{"type":"Point","coordinates":[-1.515267,12.38186]},"properties":{"designation":"feu tricolore","rue_1":"3.02 Av. de la Liberté","rue_2":"Rue 4.01","etat":null}},{"type":"Feature","geometry":{"type":"Point","coordinates":[-1.552889,12.382923]},"properties":{"designation":"feu tricolore","rue_1":"RN 2 Av Naba Ziid-Wênde","rue_2":"19.001 Tânsoba  Bugum","etat":null}},{"type":"Feature","geometry":{"type":"Point","coordinates":[-1.515594,12.382845]},"properties":{"designation":"feu tricolore","rue_1":"12.083  Av. Ouezzin D Coulibaly","rue_2":"12.036  Rue Lompo Eugène","etat":null}},{"type":"Feature","geometry":{"type":"Point","coordinates":[-1.51072,12.30574]},"properties":{"designation":"feu tricolore","rue_1":"15.638 Av. Pascal Zagre","rue_2":"Rue 15.689","etat":null}},{"type":"Feature","geometry":{"type":"Point","coordinates":[-1.528784,12.305631]},"properties":{"designation":"feu tricolore","rue_1":"15.749 Boulevard France Afrique","rue_2":"15.638  Av. Pascal Zagre","etat":null}},{"type":"Feature","geometry":{"type":"Point","coordinates":[-1.502617,12.305738]},"properties":{"designation":"feu tricolore","rue_1":"15.753 Boulevard Moammar El Khadafi","rue_2":"15.638 Av. Pascal Zagre","etat":null}},{"type":"Feature","geometry":{"type":"Point","coordinates":[-1.50258,12.317574]},"properties":{"designation":"feu tricolore","rue_1":"15.753 Boulevard Moammar El Khadafi","rue_2":"15.458 Av. Sapone","etat":null}},{"type":"Feature","geometry":{"type":"Point","coordinates":[-1.502452,12.327216]},"properties":{"designation":"feu tricolore","rue_1":"15.462 Av. Sagesse","rue_2":"15.753 Boulevard Moammar El Khadafi","etat":null}},{"type":"Feature","geometry":{"type":"Point","coordinates":[-1.467795,12.383015]},"properties":{"designation":"feu tricolore","rue_1":"28.067 Blvd Tansoba Fiid-Laado","rue_2":"28.226 Rue du Musée National","etat":null}},{"type":"Feature","geometry":{"type":"Point","coordinates":[-1.453115,12.396853]},"properties":{"designation":"feu tricolore","rue_1":"28.668 Rue Bendogo","rue_2":"Rue  27.389","etat":null}},{"type":"Feature","geometry":{"type":"Point","coordinates":[-1.44813,12.398116]},"properties":{"designation":"feu tricolore","rue_1":"28.668 Rue Bendogo","rue_2":"Rue 27.477","etat":null}},{"type":"Feature","geometry":{"type":"Point","coordinates":[-1.525792,12.332826]},"properties":{"designation":"feu tricolore","rue_1":"16.166 Tânsoba Polle","rue_2":"16.001 Av. Mogho-Naba Wobgo","etat":null}},{"type":"Feature","geometry":{"type":"Point","coordinates":[-1.530921,12.333914]},"properties":{"designation":"feu tricolore","rue_1":"16.166 Tânsoba Polle","rue_2":"Rue 16.85","etat":null}},{"type":"Feature","geometry":{"type":"Point","coordinates":[-1.54768,12.338403]},"properties":{"designation":"feu tricolore","rue_1":"17.072 Boulevard Tânsoba Benda","rue_2":"17.025Av. de la Dignité","etat":null}},{"type":"Feature","geometry":{"type":"Point","coordinates":[-1.526145,12.339625]},"properties":{"designation":"feu tricolore","rue_1":"06.001 Av. Mogho-Naba Wobgo","rue_2":"16.002 Ratag-Rîma","etat":null}},{"type":"Feature","geometry":{"type":"Point","coordinates":[-1.531968,12.340526]},"properties":{"designation":"feu tricolore","rue_1":"16.002 Ratag-Rîma","rue_2":"07.071 Taan-kobi","etat":null}},{"type":"Feature","geometry":{"type":"Point","coordinates":[-1.554032,12.344617]},"properties":{"designation":"feu tricolore","rue_1":"17.664 Boulevard Tânsoba Zoobdo","rue_2":"17.067 Rue Zaeg Kôbdo","etat":null}},{"type":"Feature","geometry":{"type":"Point","coordinates":[-1.526507,12.346742]},"properties":{"designation":"feu tricolore","rue_1":"06.016  Av de la Revolution","rue_2":"06.001 Mogho-Naba Wobgo","etat":null}},{"type":"Feature","geometry":{"type":"Point","coordinates":[-1.524189,12.347791]},"properties":{"designation":"feu tricolore","rue_1":"06.016 Av de la Revolution","rue_2":"06.045 Av G Tassembedo","etat":null}},{"type":"Feature","geometry":{"type":"Point","coordinates":[-1.531029,12.348039]},"properties":{"designation":"feu tricolore","rue_1":"07.009 Naba kumdumye","rue_2":"07.028 Tengsobongo","etat":null}},{"type":"Feature","geometry":{"type":"Point","coordinates":[-1.526674,12.350056]},"properties":{"designation":"feu tricolore","rue_1":"06.001 Mogho-Naba Wobgo","rue_2":"07.024 Rue  Yisgou","etat":null}},{"type":"Feature","geometry":{"type":"Point","coordinates":[-1.531493,12.350658]},"properties":{"designation":"feu tricolore","rue_1":"07.009 Naba kumdumye","rue_2":"07.022  Naba sanem","etat":null}},{"type":"Feature","geometry":{"type":"Point","coordinates":[-1.544916,12.351724]},"properties":{"designation":"feu tricolore","rue_1":"08.042 Rue Simon Compaoré","rue_2":"08.011 Rue Gounghin","etat":null}},{"type":"Feature","geometry":{"type":"Point","coordinates":[-1.516259,12.353573]},"properties":{"designation":"feu tricolore","rue_1":"04.021 Av. Kwame N'Krumah","rue_2":"5.043 Av. de l'Aéroport","etat":null}},{"type":"Feature","geometry":{"type":"Point","coordinates":[-1.5387,12.355358]},"properties":{"designation":"feu tricolore","rue_1":"07.002 Av du Mogho","rue_2":"08.042 Rue Simon Compaoré","etat":null}},{"type":"Feature","geometry":{"type":"Point","coordinates":[-1.535029,12.355571]},"properties":{"designation":"feu tricolore","rue_1":"07.002 Av du Mogho","rue_2":"02.003 Zour Balem","etat":null}},{"type":"Feature","geometry":{"type":"Point","coordinates":[-1.532602,12.355969]},"properties":{"designation":"feu tricolore","rue_1":"02.011 Kanazoe Oumarou","rue_2":"07.002 Av du Mogho","etat":null}},{"type":"Feature","geometry":{"type":"Point","coordinates":[-1.527104,12.356208]},"properties":{"designation":"feu tricolore","rue_1":"01.001Av.  Bassawarga","rue_2":"06.001 Av. Mogho-Naba Wobgo","etat":"bon"}},{"type":"Feature","geometry":{"type":"Point","coordinates":[-1.513079,12.357832]},"properties":{"designation":"feu tricolore","rue_1":"5.043 Av. de l'Aéroport","rue_2":null,"etat":null}},{"type":"Feature","geometry":{"type":"Point","coordinates":[-1.52771,12.362015]},"properties":{"designation":"feu tricolore","rue_1":"01.001 Av. Bassawarga","rue_2":"02.026 Av Me Pacere T. Frederic","etat":null}},{"type":"Feature","geometry":{"type":"Point","coordinates":[-1.5288,12.363325]},"properties":{"designation":"feu tricolore","rue_1":"2.020 Av. Cathédrale","rue_2":null,"etat":null}},{"type":"Feature","geometry":{"type":"Point","coordinates":[-1.527906,12.363422]},"properties":{"designation":"feu tricolore","rue_1":"01.001 Av. Bassawarga","rue_2":"2.020 Av. Cathédrale","etat":null}},{"type":"Feature","geometry":{"type":"Point","coordinates":[-1.52671,12.363588]},"properties":{"designation":"feu tricolore","rue_1":"1.028 Av. de la Cathédrale","rue_2":null,"etat":null}},{"type":"Feature","geometry":{"type":"Point","coordinates":[-1.524555,12.363764]},"properties":{"designation":"feu tricolore","rue_1":"1.028 Av. de la Cathédrale","rue_2":"01.023 Naaba Kom I","etat":null}},{"type":"Feature","geometry":{"type":"Point","coordinates":[-1.521691,12.364328]},"properties":{"designation":"feu tricolore","rue_1":"1.028 Av. de la Cathédrale","rue_2":"01.025 Av. Grande Mosquée","etat":null}},{"type":"Feature","geometry":{"type":"Point","coordinates":[-1.52073,12.364521]},"properties":{"designation":"feu tricolore","rue_1":"1.028 Av. de la Cathédrale","rue_2":"04.017 Av. Yennenga","etat":null}},{"type":"Feature","geometry":{"type":"Point","coordinates":[-1.519539,12.364724]},"properties":{"designation":"feu tricolore","rue_1":"5.02  Av Houari  Boumedienne","rue_2":"04.019  Av. de Loudin","etat":null}},{"type":"Feature","geometry":{"type":"Point","coordinates":[-1.518389,12.364953]},"properties":{"designation":"feu tricolore","rue_1":"5.02  Av Houari  Boumedienne","rue_2":"04.021 Av. Kwame N'Krumah","etat":null}},{"type":"Feature","geometry":{"type":"Point","coordinates":[-1.51706,12.365145]},"properties":{"designation":"feu tricolore","rue_1":"04.027  Av. UEMOA","rue_2":"5.02  Av Houari  Boumedienne","etat":null}},{"type":"Feature","geometry":{"type":"Point","coordinates":[-1.51464,12.365647]},"properties":{"designation":"feu tricolore","rue_1":"04.035 Av. Pdt Sangoulé Lamizana","rue_2":"5.02  Av Houari  Boumedienne","etat":null}},{"type":"Feature","geometry":{"type":"Point","coordinates":[-1.511315,12.366352]},"properties":{"designation":"feu tricolore","rue_1":"4.047 Av. PDT Guillaume","rue_2":"5.02  Av Houari  Boumedienne","etat":null}},{"type":"Feature","geometry":{"type":"Point","coordinates":[-1.525472,12.366903]},"properties":{"designation":"feu tricolore","rue_1":"01.023 Naaba Kom I","rue_2":"01.048 Patrice Lumumba","etat":null}},{"type":"Feature","geometry":{"type":"Point","coordinates":[-1.506663,12.367557]},"properties":{"designation":"feu tricolore","rue_1":"4.067 Av. du Burkina Faso","rue_2":"place de la femme pour la paix","etat":null}},{"type":"Feature","geometry":{"type":"Point","coordinates":[-1.521249,12.367652]},"properties":{"designation":"feu tricolore","rue_1":"04.017 Av. Yennenga","rue_2":"01.048 Patrice Lumumba","etat":null}},{"type":"Feature","geometry":{"type":"Point","coordinates":[-1.518829,12.36791]},"properties":{"designation":"feu tricolore","rue_1":"04.021 Av. Kwame N'Krumah","rue_2":"04.036 Ilboudo Waongyandé","etat":null}},{"type":"Feature","geometry":{"type":"Point","coordinates":[-1.51531,12.368577]},"properties":{"designation":"feu tricolore","rue_1":"04.074 Pdt. Yaméogo Maurice","rue_2":"04.035  Av. Pdt Sangoulé Lamizana","etat":null}},{"type":"Feature","geometry":{"type":"Point","coordinates":[-1.519147,12.368904]},"properties":{"designation":"feu tricolore","rue_1":"04.021 Av. Kwame N'Krumah","rue_2":"04.034Av. Pdt Compaore Blaise","etat":null}},{"type":"Feature","geometry":{"type":"Point","coordinates":[-1.515596,12.369719]},"properties":{"designation":"feu tricolore","rue_1":"04.034Av. Pdt Compaore Blaise","rue_2":"04.035  Av. Pdt Sangoulé Lamizana","etat":null}},{"type":"Feature","geometry":{"type":"Point","coordinates":[-1.507148,12.370328]},"properties":{"designation":"feu tricolore","rue_1":"4.067 Av. du Burkina Faso","rue_2":"04.074  Av. Pdt. Yaméogo Maurice","etat":null}},{"type":"Feature","geometry":{"type":"Point","coordinates":[-1.507476,12.371368]},"properties":{"designation":"feu tricolore","rue_1":"4.067 Av. du Burkina Faso","rue_2":null,"etat":null}},{"type":"Feature","geometry":{"type":"Point","coordinates":[-1.516155,12.372066]},"properties":{"designation":"feu tricolore","rue_1":"04.030 Av. de l'Indépendance","rue_2":"04.035 Av. Pdt Sangoulé Lamizana","etat":null}},{"type":"Feature","geometry":{"type":"Point","coordinates":[-1.514581,12.372377]},"properties":{"designation":"feu tricolore","rue_1":" 04.030 Av. de l'Indépendance","rue_2":null,"etat":null}},{"type":"Feature","geometry":{"type":"Point","coordinates":[-1.507923,12.373901]},"properties":{"designation":"feu tricolore","rue_1":"4.067 Av. du Burkina Faso","rue_2":"04.058   Brd Gl Charles De Gaulle","etat":null}},{"type":"Feature","geometry":{"type":"Point","coordinates":[-1.510012,12.374052]},"properties":{"designation":"feu tricolore","rue_1":"Rue 04.059   Av. du 11 Décembre","rue_2":null,"etat":null}},{"type":"Feature","geometry":{"type":"Point","coordinates":[-1.527919,12.399066]},"properties":{"designation":"Carrefour à feux","rue_1":null,"rue_2":null,"etat":null}},{"type":"Feature","geometry":{"type":"Point","coordinates":[-1.534853,12.395469]},"properties":{"designation":"Carrefour à feux","rue_1":null,"rue_2":null,"etat":null}},{"type":"Feature","geometry":{"type":"Point","coordinates":[-1.546026,12.374415]},"properties":{"designation":"Carrefour à feux","rue_1":null,"rue_2":null,"etat":null}},{"type":"Feature","geometry":{"type":"Point","coordinates":[-1.551074,12.375589]},"properties":{"designation":"Carrefour à feux","rue_1":null,"rue_2":null,"etat":null}},{"type":"Feature","geometry":{"type":"Point","coordinates":[-1.551519,12.380943]},"properties":{"designation":"Carrefour à feux","rue_1":null,"rue_2":null,"etat":null}},{"type":"Feature","geometry":{"type":"Point","coordinates":[-1.569334,12.374741]},"properties":{"designation":"Carrefour à feux","rue_1":null,"rue_2":null,"etat":null}},{"type":"Feature","geometry":{"type":"Point","coordinates":[-1.567299,12.393495]},"properties":{"designation":"Carrefour à feux","rue_1":null,"rue_2":null,"etat":null}},{"type":"Feature","geometry":{"type":"Point","coordinates":[-1.560925,12.395391]},"properties":{"designation":"Carrefour à feux","rue_1":null,"rue_2":null,"etat":null}},{"type":"Feature","geometry":{"type":"Point","coordinates":[-1.513471,12.411825]},"properties":{"designation":"Carrefour à feux","rue_1":null,"rue_2":null,"etat":null}},{"type":"Feature","geometry":{"type":"Point","coordinates":[-1.511617,12.411627]},"properties":{"designation":"Carrefour à feux","rue_1":null,"rue_2":null,"etat":null}},{"type":"Feature","geometry":{"type":"Point","coordinates":[-1.508584,12.408107]},"properties":{"designation":"Carrefour à feux","rue_1":null,"rue_2":null,"etat":null}},{"type":"Feature","geometry":{"type":"Point","coordinates":[-1.505617,12.404819]},"properties":{"designation":"Carrefour à feux","rue_1":null,"rue_2":null,"etat":null}},{"type":"Feature","geometry":{"type":"Point","coordinates":[-1.503301,12.402216]},"properties":{"designation":"Carrefour à feux","rue_1":null,"rue_2":null,"etat":null}},{"type":"Feature","geometry":{"type":"Point","coordinates":[-1.502014,12.400813]},"properties":{"designation":"Carrefour à feux","rue_1":null,"rue_2":null,"etat":null}},{"type":"Feature","geometry":{"type":"Point","coordinates":[-1.488214,12.404965]},"properties":{"designation":"Carrefour à feux","rue_1":null,"rue_2":null,"etat":null}},{"type":"Feature","geometry":{"type":"Point","coordinates":[-1.471267,12.396772]},"properties":{"designation":"Carrefour à feux","rue_1":null,"rue_2":null,"etat":null}},{"type":"Feature","geometry":{"type":"Point","coordinates":[-1.496451,12.376136]},"properties":{"designation":"Carrefour à feux","rue_1":null,"rue_2":null,"etat":null}},{"type":"Feature","geometry":{"type":"Point","coordinates":[-1.497803,12.36871]},"properties":{"designation":"Carrefour à feux","rue_1":null,"rue_2":null,"etat":null}},{"type":"Feature","geometry":{"type":"Point","coordinates":[-1.488846,12.368311]},"properties":{"designation":"Carrefour à feux","rue_1":null,"rue_2":null,"etat":null}},{"type":"Feature","geometry":{"type":"Point","coordinates":[-1.484085,12.36816]},"properties":{"designation":"Carrefour à feux","rue_1":null,"rue_2":null,"etat":null}},{"type":"Feature","geometry":{"type":"Point","coordinates":[-1.488809,12.36263]},"properties":{"designation":"Carrefour à feux","rue_1":null,"rue_2":null,"etat":null}},{"type":"Feature","geometry":{"type":"Point","coordinates":[-1.488949,12.35925]},"properties":{"designation":"Carrefour à feux","rue_1":null,"rue_2":null,"etat":null}},{"type":"Feature","geometry":{"type":"Point","coordinates":[-1.490324,12.356039]},"properties":{"designation":"Carrefour à feux","rue_1":null,"rue_2":null,"etat":null}},{"type":"Feature","geometry":{"type":"Point","coordinates":[-1.470393,12.378151]},"properties":{"designation":"Carrefour à feux","rue_1":null,"rue_2":null,"etat":null}},{"type":"Feature","geometry":{"type":"Point","coordinates":[-1.461383,12.372445]},"properties":{"designation":"Carrefour à feux","rue_1":null,"rue_2":null,"etat":null}},{"type":"Feature","geometry":{"type":"Point","coordinates":[-1.458347,12.370532]},"properties":{"designation":"Carrefour à feux","rue_1":null,"rue_2":null,"etat":null}},{"type":"Feature","geometry":{"type":"Point","coordinates":[-1.463611,12.362739]},"properties":{"designation":"Carrefour à feux","rue_1":null,"rue_2":null,"etat":null}},{"type":"Feature","geometry":{"type":"Point","coordinates":[-1.474382,12.346593]},"properties":{"designation":"Carrefour à feux","rue_1":null,"rue_2":null,"etat":null}},{"type":"Feature","geometry":{"type":"Point","coordinates":[-1.45318,12.378302]},"properties":{"designation":"Carrefour à feux","rue_1":null,"rue_2":null,"etat":null}},{"type":"Feature","geometry":{"type":"Point","coordinates":[-1.449544,12.383639]},"properties":{"designation":"Carrefour à feux","rue_1":null,"rue_2":null,"etat":null}},{"type":"Feature","geometry":{"type":"Point","coordinates":[-1.455951,12.396233]},"properties":{"designation":"Carrefour à feux","rue_1":null,"rue_2":null,"etat":null}},{"type":"Feature","geometry":{"type":"Point","coordinates":[-1.459475,12.39538]},"properties":{"designation":"Carrefour à feux","rue_1":null,"rue_2":null,"etat":null}},{"type":"Feature","geometry":{"type":"Point","coordinates":[-1.550289,12.429876]},"properties":{"designation":"Carrefour à feux","rue_1":null,"rue_2":null,"etat":null}},{"type":"Feature","geometry":{"type":"Point","coordinates":[-1.573704,12.402781]},"properties":{"designation":"Carrefour à feux","rue_1":null,"rue_2":null,"etat":null}},{"type":"Feature","geometry":{"type":"Point","coordinates":[-1.577139,12.403376]},"properties":{"designation":"Carrefour à feux","rue_1":null,"rue_2":null,"etat":null}},{"type":"Feature","geometry":{"type":"Point","coordinates":[-1.580483,12.385655]},"properties":{"designation":"Carrefour à feux","rue_1":null,"rue_2":null,"etat":null}},{"type":"Feature","geometry":{"type":"Point","coordinates":[-1.502494,12.337971]},"properties":{"designation":"Carrefour à feux","rue_1":null,"rue_2":null,"etat":null}},{"type":"Feature","geometry":{"type":"Point","coordinates":[-1.508233,12.337251]},"properties":{"designation":"Carrefour à feux","rue_1":null,"rue_2":null,"etat":null}},{"type":"Feature","geometry":{"type":"Point","coordinates":[-1.509422,12.33807]},"properties":{"designation":"Carrefour à feux","rue_1":null,"rue_2":null,"etat":null}},{"type":"Feature","geometry":{"type":"Point","coordinates":[-1.514208,12.327317]},"properties":{"designation":"Carrefour à feux","rue_1":null,"rue_2":null,"etat":null}},{"type":"Feature","geometry":{"type":"Point","coordinates":[-1.502615,12.32281]},"properties":{"designation":"Carrefour à feux","rue_1":null,"rue_2":null,"etat":null}},{"type":"Feature","geometry":{"type":"Point","coordinates":[-1.527422,12.327358]},"properties":{"designation":"Carrefour à feux","rue_1":null,"rue_2":null,"etat":null}},{"type":"Feature","geometry":{"type":"Point","coordinates":[-1.538261,12.319167]},"properties":{"designation":"Carrefour à feux","rue_1":null,"rue_2":null,"etat":null}},{"type":"Feature","geometry":{"type":"Point","coordinates":[-1.528958,12.307406]},"properties":{"designation":"Carrefour à feux","rue_1":null,"rue_2":null,"etat":null}},{"type":"Feature","geometry":{"type":"Point","coordinates":[-1.554845,12.31395]},"properties":{"designation":"Carrefour à feux","rue_1":null,"rue_2":null,"etat":null}},{"type":"Feature","geometry":{"type":"Point","coordinates":[-1.556807,12.309138]},"properties":{"designation":"Carrefour à feux","rue_1":null,"rue_2":null,"etat":null}},{"type":"Feature","geometry":{"type":"Point","coordinates":[-1.549907,12.331064]},"properties":{"designation":"Carrefour à feux","rue_1":null,"rue_2":null,"etat":null}},{"type":"Feature","geometry":{"type":"Point","coordinates":[-1.557186,12.334311]},"properties":{"designation":"Carrefour à feux","rue_1":null,"rue_2":null,"etat":null}},{"type":"Feature","geometry":{"type":"Point","coordinates":[-1.559374,12.337656]},"properties":{"designation":"Carrefour à feux","rue_1":null,"rue_2":null,"etat":null}},{"type":"Feature","geometry":{"type":"Point","coordinates":[-1.562236,12.342128]},"properties":{"designation":"Carrefour à feux","rue_1":null,"rue_2":null,"etat":null}},{"type":"Feature","geometry":{"type":"Point","coordinates":[-1.56967,12.337748]},"properties":{"designation":"Carrefour à feux","rue_1":null,"rue_2":null,"etat":null}},{"type":"Feature","geometry":{"type":"Point","coordinates":[-1.563166,12.335381]},"properties":{"designation":"Carrefour à feux","rue_1":null,"rue_2":null,"etat":null}},{"type":"Feature","geometry":{"type":"Point","coordinates":[-1.566838,12.333157]},"properties":{"designation":"Carrefour à feux","rue_1":null,"rue_2":null,"etat":null}},{"type":"Feature","geometry":{"type":"Point","coordinates":[-1.564618,12.329729]},"properties":{"designation":"Carrefour à feux","rue_1":null,"rue_2":null,"etat":null}},{"type":"Feature","geometry":{"type":"Point","coordinates":[-1.573193,12.329201]},"properties":{"designation":"Carrefour à feux","rue_1":null,"rue_2":null,"etat":null}},{"type":"Feature","geometry":{"type":"Point","coordinates":[-1.581079,12.325154]},"properties":{"designation":"Carrefour à feux","rue_1":null,"rue_2":null,"etat":null}},{"type":"Feature","geometry":{"type":"Point","coordinates":[-1.585246,12.331056]},"properties":{"designation":"Carrefour à feux","rue_1":null,"rue_2":null,"etat":null}},{"type":"Feature","geometry":{"type":"Point","coordinates":[-1.467983,12.342291]},"properties":{"designation":"Carrefour à feux","rue_1":null,"rue_2":null,"etat":null}},{"type":"Feature","geometry":{"type":"Point","coordinates":[-1.479065,12.340033]},"properties":{"designation":"Carrefour à feux","rue_1":null,"rue_2":null,"etat":null}},{"type":"Feature","geometry":{"type":"Point","coordinates":[-1.486936,12.328071]},"properties":{"designation":"Carrefour à feux","rue_1":null,"rue_2":null,"etat":null}},{"type":"Feature","geometry":{"type":"Point","coordinates":[-1.491631,12.321103]},"properties":{"designation":"Carrefour à feux","rue_1":null,"rue_2":null,"etat":null}},{"type":"Feature","geometry":{"type":"Point","coordinates":[-1.486062,12.314389]},"properties":{"designation":"Carrefour à feux","rue_1":null,"rue_2":null,"etat":null}},{"type":"Feature","geometry":{"type":"Point","coordinates":[-1.490715,12.387752]},"properties":{"designation":"Carrefour à feux","rue_1":null,"rue_2":null,"etat":null}},{"type":"Feature","geometry":{"type":"Point","coordinates":[-1.493332,12.387186]},"properties":{"designation":"Carrefour à feux","rue_1":null,"rue_2":null,"etat":null}},{"type":"Feature","geometry":{"type":"Point","coordinates":[-1.496756,12.386347]},"properties":{"designation":"Carrefour à feux","rue_1":null,"rue_2":null,"etat":null}}]}