{"type":"FeatureCollection","features":[{"type":"Feature","geometry":{"type":"Point","coordinates":[-1.455713,12.293204]},"properties":{"nom":"Balkuy","nature":"Quartier"}},{"type":"Feature","geometry":{"type":"Point","coordinates":[-1.636792,12.392701]},"properties":{"nom":"Bassenko","nature":"Quartier"}},{"type":"Feature","geometry":{"type":"Point","coordinates":[-1.616584,12.39151]},"properties":{"nom":"BissiguIn","nature":"Quartier"}},{"type":"Feature","geometry":{"type":"Point","coordinates":[-1.617914,12.290368]},"properties":{"nom":"Boassa","nature":"Quartier"}},{"type":"Feature","geometry":{"type":"Point","coordinates":[-1.44653,12.336777]},"properties":{"nom":"Yamtenga","nature":"Quartier"}},{"type":"Feature","geometry":{"type":"Point","coordinates":[-1.558221,12.464972]},"properties":{"nom":"Kamboincé","nature":"Quartier"}},{"type":"Feature","geometry":{"type":"Point","coordinates":[-1.47472,12.4761]},"properties":{"nom":"Roumtinga","nature":"Quartier"}},{"type":"Feature","geometry":{"type":"Point","coordinates":[-1.524899,12.45264]},"properties":{"nom":"Sakoula","nature":"Quartier"}},{"type":"Feature","geometry":{"type":"Point","coordinates":[-1.610503,12.297668]},"properties":{"nom":"Sandogo","nature":"Quartier"}},{"type":"Feature","geometry":{"type":"Point","coordinates":[-1.647934,12.36876]},"properties":{"nom":"Silmiougou","nature":"Quartier"}},{"type":"Feature","geometry":{"type":"Point","coordinates":[-1.50056,12.4839]},"properties":{"nom":"Soguedin","nature":"Quartier"}},{"type":"Feature","geometry":{"type":"Point","coordinates":[-1.609337,12.433128]},"properties":{"nom":"Yagma","nature":"Quartier"}},{"type":"Feature","geometry":{"type":"Point","coordinates":[-1.626561,12.327741]},"properties":{"nom":"Zagtouli Nord","nature":"Quartier"}},{"type":"Feature","geometry":{"type":"Point","coordinates":[-1.611316,12.353959]},"properties":{"nom":"Zongo","nature":"Quartier"}},{"type":"Feature","geometry":{"type":"Point","coordinates":[-1.463873,12.431335]},"properties":{"nom":"Nioko2","nature":"Quartier"}},{"type":"Feature","geometry":{"type":"Point","coordinates":[-1.625403,12.316216]},"properties":{"nom":"Zagtouli Sud","nature":"Quartier"}},{"type":"Feature","geometry":{"type":"Point","coordinates":[-1.580118,12.441947]},"properties":{"nom":"Pazanni","nature":"Quartier"}},{"type":"Feature","geometry":{"type":"Point","coordinates":[-1.553688,12.461197]},"properties":{"nom":"Poédogo","nature":"Quartier"}},{"type":"Feature","geometry":{"type":"Point","coordinates":[-1.437865,12.328213]},"properties":{"nom":"Danyongo","nature":"Quartier"}},{"type":"Feature","geometry":{"type":"Point","coordinates":[-1.577119,12.278505]},"properties":{"nom":"Saonré","nature":"Quartier"}},{"type":"Feature","geometry":{"type":"Point","coordinates":[-1.440463,12.287396]},"properties":{"nom":"Widtenga","nature":"Quartier"}},{"type":"Feature","geometry":{"type":"Point","coordinates":[-1.493807,12.36683]},"properties":{"nom":"Dagnoen","nature":"Quartier"}},{"type":"Feature","geometry":{"type":"Point","coordinates":[-1.492753,12.441104]},"properties":{"nom":"Polesgo","nature":"Quartier"}},{"type":"Feature","geometry":{"type":"Point","coordinates":[-1.56928,12.390081]},"properties":{"nom":"Cité An IV","nature":"Quartier"}},{"type":"Feature","geometry":{"type":"Point","coordinates":[-1.520472,12.312368]},"properties":{"nom":"Ouaga 2000","nature":"Quartier"}},{"type":"Feature","geometry":{"type":"Point","coordinates":[-1.521731,12.324384]},"properties":{"nom":"Patte-d'Oie","nature":"Quartier"}},{"type":"Feature","geometry":{"type":"Point","coordinates":[-1.500659,12.3565]},"properties":{"nom":"Kalgonden","nature":"Quartier"}},{"type":"Feature","geometry":{"type":"Point","coordinates":[-1.558683,12.403966]},"properties":{"nom":"Cité AZIMO","nature":"Quartier"}},{"type":"Feature","geometry":{"type":"Point","coordinates":[-1.569009,12.370935]},"properties":{"nom":"Nonsen","nature":"Quartier"}},{"type":"Feature","geometry":{"type":"Point","coordinates":[-1.524492,12.343869]},"properties":{"nom":"Cité An II","nature":"Quartier"}},{"type":"Feature","geometry":{"type":"Point","coordinates":[-1.550907,12.360144]},"properties":{"nom":"Gounguen-Nord","nature":"Quartier"}},{"type":"Feature","geometry":{"type":"Point","coordinates":[-1.540843,12.353465]},"properties":{"nom":"Gounguen-Sud","nature":"Quartier"}},{"type":"Feature","geometry":{"type":"Point","coordinates":[-1.534107,12.348452]},"properties":{"nom":"Samanden","nature":"Quartier"}},{"type":"Feature","geometry":{"type":"Point","coordinates":[-1.521474,12.35357]},"properties":{"nom":"Kamsonguen","nature":"Quartier"}},{"type":"Feature","geometry":{"type":"Point","coordinates":[-1.52484,12.358701]},"properties":{"nom":"Quartiers Saints","nature":"Quartier"}},{"type":"Feature","geometry":{"type":"Point","coordinates":[-1.531893,12.364685]},"properties":{"nom":"Bilbalogo","nature":"Quartier"}},{"type":"Feature","geometry":{"type":"Point","coordinates":[-1.51086,12.36884]},"properties":{"nom":"Koulouba","nature":"Quartier"}},{"type":"Feature","geometry":{"type":"Point","coordinates":[-1.533342,12.375084]},"properties":{"nom":"Cité An III","nature":"Quartier"}},{"type":"Feature","geometry":{"type":"Point","coordinates":[-1.538207,12.374506]},"properties":{"nom":"Larlé","nature":"Quartier"}},{"type":"Feature","geometry":{"type":"Point","coordinates":[-1.516962,12.37979]},"properties":{"nom":"Paspanga","nature":"Quartier"}},{"type":"Feature","geometry":{"type":"Point","coordinates":[-1.538927,12.379319]},"properties":{"nom":"Widi","nature":"Quartier"}},{"type":"Feature","geometry":{"type":"Point","coordinates":[-1.52467,12.384258]},"properties":{"nom":"Dapoya","nature":"Quartier"}},{"type":"Feature","geometry":{"type":"Point","coordinates":[-1.551943,12.379357]},"properties":{"nom":"Hamdalaye","nature":"Quartier"}},{"type":"Feature","geometry":{"type":"Point","coordinates":[-1.546108,12.383488]},"properties":{"nom":"Kolog-Naaba","nature":"Quartier"}},{"type":"Feature","geometry":{"type":"Point","coordinates":[-1.499896,12.408976]},"properties":{"nom":"Somgandé","nature":"Quartier"}},{"type":"Feature","geometry":{"type":"Point","coordinates":[-1.523034,12.402859]},"properties":{"nom":"Tanghin","nature":"Quartier"}},{"type":"Feature","geometry":{"type":"Point","coordinates":[-1.571283,12.39997]},"properties":{"nom":"Tampoui","nature":"Quartier"}},{"type":"Feature","geometry":{"type":"Point","coordinates":[-1.588194,12.395287]},"properties":{"nom":"Kilwen","nature":"Quartier"}},{"type":"Feature","geometry":{"type":"Point","coordinates":[-1.533243,12.382663]},"properties":{"nom":"Nemnen","nature":"Quartier"}},{"type":"Feature","geometry":{"type":"Point","coordinates":[-1.492469,12.378839]},"properties":{"nom":"Zogona","nature":"Quartier"}},{"type":"Feature","geometry":{"type":"Point","coordinates":[-1.466267,12.398523]},"properties":{"nom":"Wayalguen","nature":"Quartier"}},{"type":"Feature","geometry":{"type":"Point","coordinates":[-1.470486,12.416208]},"properties":{"nom":"Kossodo","nature":"Quartier"}},{"type":"Feature","geometry":{"type":"Point","coordinates":[-1.44872,12.394221]},"properties":{"nom":"Bendogo","nature":"Quartier"}},{"type":"Feature","geometry":{"type":"Point","coordinates":[-1.481393,12.346723]},"properties":{"nom":"Sanyiri","nature":"Quartier"}},{"type":"Feature","geometry":{"type":"Point","coordinates":[-1.514997,12.359792]},"properties":{"nom":"Zaca","nature":"Quartier"}},{"type":"Feature","geometry":{"type":"Point","coordinates":[-1.585797,12.365375]},"properties":{"nom":"Kienbonguen","nature":"Quartier"}},{"type":"Feature","geometry":{"type":"Point","coordinates":[-1.536836,12.339609]},"properties":{"nom":"Cissin","nature":"Quartier"}},{"type":"Feature","geometry":{"type":"Point","coordinates":[-1.619539,12.32625]},"properties":{"nom":"Cité Relais","nature":"Quartier"}},{"type":"Feature","geometry":{"type":"Point","coordinates":[-1.650048,12.433522]},"properties":{"nom":"Watinooma","nature":"Quartier"}},{"type":"Feature","geometry":{"type":"Point","coordinates":[-1.491817,12.373079]},"properties":{"nom":"Wemtenga","nature":"Quartier"}},{"type":"Feature","geometry":{"type":"Point","coordinates":[-1.546603,12.31496]},"properties":{"nom":"Kouritenga","nature":"Quartier"}},{"type":"Feature","geometry":{"type":"Point","coordinates":[-1.535763,12.292131]},"properties":{"nom":"Nagren","nature":"Quartier"}},{"type":"Feature","geometry":{"type":"Point","coordinates":[-1.449001,12.394982]},"properties":{"nom":"Goudren","nature":"Quartier"}},{"type":"Feature","geometry":{"type":"Point","coordinates":[-1.444864,12.3682]},"properties":{"nom":"Tabtenga","nature":"Quartier"}},{"type":"Feature","geometry":{"type":"Point","coordinates":[-1.465233,12.320345]},"properties":{"nom":"Karpala","nature":"Quartier"}},{"type":"Feature","geometry":{"type":"Point","coordinates":[-1.506469,12.34347]},"properties":{"nom":"Silmissen","nature":"Quartier"}},{"type":"Feature","geometry":{"type":"Point","coordinates":[-1.489362,12.306899]},"properties":{"nom":"Trame d'accueil","nature":"Quartier"}},{"type":"Feature","geometry":{"type":"Point","coordinates":[-1.560641,12.334964]},"properties":{"nom":"Pissy","nature":"Quartier"}},{"type":"Feature","geometry":{"type":"Point","coordinates":[-1.506682,12.394534]},"properties":{"nom":"Saaben Barrage","nature":"Quartier"}},{"type":"Feature","geometry":{"type":"Point","coordinates":[-1.650486,12.36122]},"properties":{"nom":"Darsalam","nature":"Quartier"}},{"type":"Feature","geometry":{"type":"Point","coordinates":[-1.609168,12.31078]},"properties":{"nom":"Baonoré","nature":"Quartier"}},{"type":"Feature","geometry":{"type":"Point","coordinates":[-1.476584,12.354664]},"properties":{"nom":"Wapassi","nature":"Quartier"}},{"type":"Feature","geometry":{"type":"Point","coordinates":[-1.457624,12.38704]},"properties":{"nom":"Dassasgho","nature":"Quartier"}},{"type":"Feature","geometry":{"type":"Point","coordinates":[-1.464725,12.374229]},"properties":{"nom":"Zone 1","nature":"Quartier"}},{"type":"Feature","geometry":{"type":"Point","coordinates":[-1.487246,12.385081]},"properties":{"nom":"Zone du bois","nature":"Quartier"}},{"type":"Feature","geometry":{"type":"Point","coordinates":[-1.453545,12.400993]},"properties":{"nom":"Bendogo","nature":"Quartier"}},{"type":"Feature","geometry":{"type":"Point","coordinates":[-1.476027,12.290427]},"properties":{"nom":"Cité SOCOGIB","nature":"Cité"}},{"type":"Feature","geometry":{"type":"Point","coordinates":[-1.489272,12.314084]},"properties":{"nom":"Cité CEGCI","nature":"Cité"}},{"type":"Feature","geometry":{"type":"Point","coordinates":[-1.468493,12.325539]},"properties":{"nom":"Logement socio Karpala","nature":"Cité"}},{"type":"Feature","geometry":{"type":"Point","coordinates":[-1.50274,12.288294]},"properties":{"nom":"Palai présidentiel - Kosyam","nature":"Palai"}},{"type":"Feature","geometry":{"type":"Point","coordinates":[-1.518264,12.329996]},"properties":{"nom":"Cité universitaire","nature":"Cité"}},{"type":"Feature","geometry":{"type":"Point","coordinates":[-1.512367,12.335977]},"properties":{"nom":"Ouaga Inter","nature":null}},{"type":"Feature","geometry":{"type":"Point","coordinates":[-1.457295,12.394067]},"properties":{"nom":"Cité de l'avenir","nature":"cité"}},{"type":"Feature","geometry":{"type":"Point","coordinates":[-1.437099,12.394379]},"properties":{"nom":"Nioko I","nature":"Quartier"}},{"type":"Feature","geometry":{"type":"Point","coordinates":[-1.65961,12.413319]},"properties":{"nom":"Cité relai de  Bassinko","nature":"Cité"}},{"type":"Feature","geometry":{"type":"Point","coordinates":[-1.581949,12.34598]},"properties":{"nom":"Boulmiougou","nature":"Quartier"}},{"type":"Feature","geometry":{"type":"Point","coordinates":[-1.541894,12.366154]},"properties":{"nom":"ZI de Gounguen","nature":null}},{"type":"Feature","geometry":{"type":"Point","coordinates":[-1.537669,12.331314]},"properties":{"nom":"Paag La Yiiri","nature":"Quartier"}},{"type":"Feature","geometry":{"type":"Point","coordinates":[-1.528266,12.328485]},"properties":{"nom":"Cité SONATUR","nature":"Cité"}},{"type":"Feature","geometry":{"type":"Point","coordinates":[-1.594013,12.416705]},"properties":{"nom":"Markoussi","nature":"Quartier"}},{"type":"Feature","geometry":{"type":"Point","coordinates":[-1.558769,12.418714]},"properties":{"nom":"Silmyiiri","nature":"Quartier"}},{"type":"Feature","geometry":{"type":"Point","coordinates":[-1.633015,12.34085]},"properties":{"nom":"Cité Abdoul service","nature":"Cité"}},{"type":"Feature","geometry":{"type":"Point","coordinates":[-1.585557,12.305171]},"properties":{"nom":"Wapassi","nature":"Quartier"}},{"type":"Feature","geometry":{"type":"Point","coordinates":[-1.536328,12.436088]},"properties":{"nom":"Toudweogo","nature":"c"}},{"type":"Feature","geometry":{"type":"Point","coordinates":[-1.471658,12.265973]},"properties":{"nom":"Cité SONATUR","nature":"Cité"}}]}