{"type":"FeatureCollection","features":[{"type":"Feature","geometry":{"type":"Polygon","coordinates":[[[-1.440149,12.259575],[-1.440393,12.258853],[-1.444409,12.258876],[-1.448893,12.259172],[-1.455055,12.260301],[-1.460004,12.261251],[-1.468865,12.26442],[-1.4741,12.265181],[-1.480627,12.266772],[-1.489036,12.268654],[-1.497809,12.269706],[-1.507616,12.271585],[-1.517569,12.270899],[-1.53023,12.271059],[-1.530466,12.271102],[-1.529517,12.28785],[-1.529091,12.295378],[-1.529092,12.29541],[-1.529085,12.29541],[-1.502598,12.295328],[-1.469259,12.29522],[-1.469048,12.294968],[-1.440149,12.259575]]]},"properties":{"nom":"SECTEUR 55","arrondissement":"ARDT. 12","population_totale":3005,"hommes":1727,"femmes":1278,"pourcentage_femmes":42.5,"superficie_ha":2413.7,"densite_hab_ha":1.2}},{"type":"Feature","geometry":{"type":"Polygon","coordinates":[[[-1.529395,12.298616],[-1.529173,12.298613],[-1.529172,12.298595],[-1.529134,12.297104],[-1.529092,12.295412],[-1.529092,12.29541],[-1.529091,12.295378],[-1.529517,12.28785],[-1.530466,12.271102],[-1.53953,12.272757],[-1.545851,12.274438],[-1.557926,12.276292],[-1.557805,12.277072],[-1.557764,12.277365],[-1.557763,12.27757],[-1.557801,12.2778],[-1.55784,12.277986],[-1.557908,12.278201],[-1.557987,12.278367],[-1.5581,12.278549],[-1.558238,12.27872],[-1.558352,12.278863],[-1.558456,12.278951],[-1.55855,12.279025],[-1.558708,12.279128],[-1.558827,12.279183],[-1.558985,12.279247],[-1.559149,12.279311],[-1.55915,12.279312],[-1.556015,12.290171],[-1.556182,12.290229],[-1.55634,12.290307],[-1.556567,12.29042],[-1.556846,12.290629],[-1.557047,12.290811],[-1.557221,12.29101],[-1.557326,12.291157],[-1.557438,12.291382],[-1.557516,12.291606],[-1.557558,12.291848],[-1.557575,12.292063],[-1.557565,12.292279],[-1.557546,12.292494],[-1.557501,12.292675],[-1.557448,12.292847],[-1.557359,12.293045],[-1.557279,12.293199],[-1.557182,12.293362],[-1.557032,12.293525],[-1.556865,12.293697],[-1.556671,12.293834],[-1.556478,12.293953],[-1.556276,12.294039],[-1.556118,12.294089],[-1.555977,12.294132],[-1.555696,12.294173],[-1.555521,12.294181],[-1.555179,12.294171],[-1.55489,12.294135],[-1.554872,12.294128],[-1.553481,12.298946],[-1.553049,12.298911],[-1.546795,12.298384],[-1.546011,12.298873],[-1.534482,12.298697],[-1.531065,12.298632],[-1.529395,12.298616]]]},"properties":{"nom":"SECTEUR 30","arrondissement":"ARDT. 7","population_totale":89722,"hommes":46186,"femmes":43536,"pourcentage_femmes":48.5,"superficie_ha":735.6,"densite_hab_ha":122.0}},{"type":"Feature","geometry":{"type":"Polygon","coordinates":[[[-1.440149,12.259575],[-1.469048,12.294968],[-1.469259,12.29522],[-1.477371,12.304909],[-1.477165,12.305091],[-1.473756,12.307311],[-1.463746,12.309949],[-1.462786,12.30944],[-1.461561,12.308791],[-1.457893,12.307799],[-1.454321,12.30623],[-1.453735,12.306166],[-1.453241,12.306103],[-1.452222,12.306218],[-1.451233,12.306304],[-1.448946,12.306746],[-1.447865,12.306953],[-1.440004,12.310217],[-1.435291,12.312528],[-1.428955,12.315636],[-1.426822,12.316685],[-1.427581,12.314196],[-1.430242,12.305758],[-1.43242,12.299795],[-1.43538,12.288874],[-1.43671,12.283277],[-1.437978,12.274],[-1.438098,12.269227],[-1.438783,12.263626],[-1.440149,12.259575]]]},"properties":{"nom":"SECTEUR 49","arrondissement":"ARDT. 11","population_totale":20670,"hommes":10512,"femmes":10158,"pourcentage_femmes":49.1,"superficie_ha":1564.9,"densite_hab_ha":13.2}},{"type":"Feature","geometry":{"type":"Polygon","coordinates":[[[-1.435291,12.312528],[-1.440004,12.310217],[-1.447865,12.306953],[-1.448946,12.306746],[-1.451233,12.306304],[-1.452222,12.306218],[-1.453241,12.306103],[-1.453735,12.306166],[-1.454321,12.30623],[-1.457893,12.307799],[-1.461561,12.308791],[-1.462786,12.30944],[-1.462468,12.31058],[-1.46198,12.312323],[-1.457747,12.330954],[-1.445755,12.324394],[-1.435842,12.313156],[-1.435291,12.312528]]]},"properties":{"nom":"SECTEUR 48","arrondissement":"ARDT. 11","population_totale":12647,"hommes":6595,"femmes":6052,"pourcentage_femmes":47.9,"superficie_ha":443.1,"densite_hab_ha":28.5}},{"type":"Feature","geometry":{"type":"Polygon","coordinates":[[[-1.502447,12.331977],[-1.501076,12.331159],[-1.499783,12.329949],[-1.49071,12.319877],[-1.490002,12.319091],[-1.489982,12.319068],[-1.478282,12.305997],[-1.478198,12.305897],[-1.477371,12.304909],[-1.469259,12.29522],[-1.502598,12.295328],[-1.502582,12.309503],[-1.503102,12.309552],[-1.503493,12.309672],[-1.503906,12.309856],[-1.504209,12.310072],[-1.504459,12.310288],[-1.504675,12.310492],[-1.504913,12.310847],[-1.505042,12.311158],[-1.505149,12.311459],[-1.505223,12.311845],[-1.505221,12.312294],[-1.505197,12.312658],[-1.505119,12.31299],[-1.50503,12.313257],[-1.504931,12.31346],[-1.504788,12.313705],[-1.504623,12.313908],[-1.504393,12.314153],[-1.504087,12.314376],[-1.503923,12.314493],[-1.50377,12.314599],[-1.503497,12.314705],[-1.503366,12.314736],[-1.503148,12.314789],[-1.502985,12.314809],[-1.502625,12.314839],[-1.502575,12.314837],[-1.502575,12.314914],[-1.502575,12.314916],[-1.502572,12.31761],[-1.502566,12.32298],[-1.502544,12.325957],[-1.502486,12.331535],[-1.502474,12.331994],[-1.502447,12.331977]]]},"properties":{"nom":"SECTEUR 53","arrondissement":"ARDT. 12","population_totale":9040,"hommes":4337,"femmes":4703,"pourcentage_femmes":52.0,"superficie_ha":766.7,"densite_hab_ha":11.8}},{"type":"Feature","geometry":{"type":"Polygon","coordinates":[[[-1.502474,12.331994],[-1.502486,12.331535],[-1.502544,12.325957],[-1.502566,12.32298],[-1.502572,12.31761],[-1.528422,12.317405],[-1.528449,12.317405],[-1.528386,12.31894],[-1.528465,12.321947],[-1.52738,12.32805],[-1.525919,12.332835],[-1.525859,12.332835],[-1.522544,12.332823],[-1.505579,12.332762],[-1.503669,12.332451],[-1.502601,12.332069],[-1.502474,12.331994]]]},"properties":{"nom":"SECTEUR 52","arrondissement":"ARDT. 12","population_totale":45128,"hommes":21800,"femmes":23328,"pourcentage_femmes":51.7,"superficie_ha":461.1,"densite_hab_ha":97.9}},{"type":"Feature","geometry":{"type":"Polygon","coordinates":[[[-1.541938,12.334821],[-1.541651,12.334804],[-1.539997,12.335216],[-1.538039,12.335326],[-1.52594,12.332915],[-1.525933,12.332909],[-1.525859,12.332835],[-1.525919,12.332835],[-1.52738,12.32805],[-1.528465,12.321947],[-1.528386,12.31894],[-1.528449,12.317405],[-1.532166,12.317425],[-1.552165,12.323109],[-1.547652,12.338391],[-1.542752,12.33487],[-1.541938,12.334821]]]},"properties":{"nom":"SECTEUR 25","arrondissement":"ARDT. 6","population_totale":39563,"hommes":19443,"femmes":20120,"pourcentage_femmes":50.9,"superficie_ha":430.1,"densite_hab_ha":92.0}},{"type":"Feature","geometry":{"type":"Polygon","coordinates":[[[-1.46574,12.335651],[-1.45801,12.331098],[-1.457747,12.330954],[-1.46198,12.312323],[-1.462468,12.31058],[-1.462786,12.30944],[-1.463746,12.309949],[-1.473756,12.307311],[-1.477165,12.305091],[-1.477371,12.304909],[-1.478198,12.305897],[-1.478282,12.305997],[-1.489982,12.319068],[-1.490002,12.319091],[-1.49071,12.319877],[-1.490097,12.31997],[-1.485159,12.321115],[-1.483788,12.319763],[-1.477646,12.320526],[-1.48082,12.322652],[-1.470277,12.338323],[-1.46574,12.335651]]]},"properties":{"nom":"SECTEUR 50","arrondissement":"ARDT. 11","population_totale":29638,"hommes":14889,"femmes":14749,"pourcentage_femmes":49.8,"superficie_ha":660.3,"densite_hab_ha":44.9}},{"type":"Feature","geometry":{"type":"Polygon","coordinates":[[[-1.451786,12.347121],[-1.449171,12.345707],[-1.434682,12.335526],[-1.42689,12.33298],[-1.425051,12.332538],[-1.422318,12.318778],[-1.426822,12.316685],[-1.428955,12.315636],[-1.435291,12.312528],[-1.435842,12.313156],[-1.445755,12.324394],[-1.457747,12.330954],[-1.45801,12.331098],[-1.46574,12.335651],[-1.459185,12.345529],[-1.458561,12.34617],[-1.45816,12.346583],[-1.457427,12.346947],[-1.45661,12.347147],[-1.455079,12.347322],[-1.453362,12.347487],[-1.452526,12.347533],[-1.451786,12.347121]]]},"properties":{"nom":"SECTEUR 47","arrondissement":"ARDT. 11","population_totale":21564,"hommes":11259,"femmes":10305,"pourcentage_femmes":47.8,"superficie_ha":816.9,"densite_hab_ha":26.4}},{"type":"Feature","geometry":{"type":"Polygon","coordinates":[[[-1.572698,12.342603],[-1.57265,12.342607],[-1.569034,12.343791],[-1.567683,12.344686],[-1.561545,12.348443],[-1.557699,12.350634],[-1.557777,12.350588],[-1.552197,12.341657],[-1.547652,12.338391],[-1.552165,12.323109],[-1.562341,12.326001],[-1.563488,12.327839],[-1.572698,12.342603]]]},"properties":{"nom":"SECTEUR 26","arrondissement":"ARDT. 6","population_totale":42433,"hommes":20904,"femmes":21529,"pourcentage_femmes":50.7,"superficie_ha":462.2,"densite_hab_ha":91.8}},{"type":"Feature","geometry":{"type":"Polygon","coordinates":[[[-1.525933,12.332909],[-1.52594,12.332915],[-1.538039,12.335326],[-1.539997,12.335216],[-1.541651,12.334804],[-1.541938,12.334821],[-1.542197,12.33575],[-1.543437,12.343535],[-1.542421,12.346753],[-1.541273,12.348078],[-1.539405,12.350731],[-1.537614,12.352403],[-1.536955,12.355483],[-1.536952,12.355511],[-1.527084,12.35622],[-1.526454,12.347011],[-1.525831,12.335068],[-1.525889,12.332942],[-1.525933,12.332909]]]},"properties":{"nom":"SECTEUR 5","arrondissement":"ARDT 1","population_totale":56703,"hommes":27782,"femmes":28921,"pourcentage_femmes":51.0,"superficie_ha":383.1,"densite_hab_ha":148.0}},{"type":"Feature","geometry":{"type":"Polygon","coordinates":[[[-1.536952,12.355511],[-1.536955,12.355483],[-1.537614,12.352403],[-1.539405,12.350731],[-1.541273,12.348078],[-1.542421,12.346753],[-1.543437,12.343535],[-1.542197,12.33575],[-1.541938,12.334821],[-1.542752,12.33487],[-1.547652,12.338391],[-1.552197,12.341657],[-1.557777,12.350588],[-1.557699,12.350634],[-1.556058,12.351602],[-1.556049,12.351607],[-1.536723,12.362987],[-1.536693,12.363005],[-1.536356,12.360666],[-1.536952,12.355511]]]},"properties":{"nom":"SECTEUR 6","arrondissement":"ARDT 1","population_totale":31024,"hommes":14995,"femmes":16029,"pourcentage_femmes":51.7,"superficie_ha":326.7,"densite_hab_ha":95.0}},{"type":"Feature","geometry":{"type":"Polygon","coordinates":[[[-1.486584,12.354077],[-1.498752,12.335875],[-1.50095,12.333544],[-1.502447,12.331977],[-1.502474,12.331994],[-1.502601,12.332069],[-1.503669,12.332451],[-1.505579,12.332762],[-1.522544,12.332823],[-1.515247,12.343654],[-1.511407,12.341287],[-1.507025,12.347939],[-1.503856,12.345937],[-1.501819,12.349114],[-1.507853,12.353086],[-1.501572,12.363201],[-1.500959,12.363198],[-1.499446,12.359204],[-1.498194,12.360768],[-1.49035,12.356245],[-1.486584,12.354077]]]},"properties":{"nom":"SECTEUR 24","arrondissement":"ARDT . 5","population_totale":46783,"hommes":23630,"femmes":23153,"pourcentage_femmes":49.5,"superficie_ha":570.5,"densite_hab_ha":82.0}},{"type":"Feature","geometry":{"type":"Polygon","coordinates":[[[-1.500468,12.36468],[-1.50052,12.363195],[-1.500959,12.363198],[-1.501572,12.363201],[-1.507853,12.353086],[-1.501819,12.349114],[-1.503856,12.345937],[-1.507025,12.347939],[-1.511407,12.341287],[-1.515247,12.343654],[-1.522544,12.332823],[-1.525859,12.332835],[-1.525933,12.332909],[-1.525889,12.332942],[-1.525831,12.335068],[-1.526454,12.347011],[-1.527084,12.35622],[-1.520373,12.356702],[-1.519176,12.356831],[-1.520683,12.364545],[-1.518395,12.364968],[-1.51471,12.365671],[-1.509643,12.366774],[-1.507663,12.36717],[-1.507063,12.367484],[-1.506147,12.36786],[-1.505681,12.367656],[-1.504288,12.366913],[-1.503498,12.366559],[-1.502868,12.366214],[-1.501085,12.36497],[-1.500468,12.36468]]]},"properties":{"nom":"SECTEUR 4","arrondissement":"ARDT 1","population_totale":12047,"hommes":5884,"femmes":6163,"pourcentage_femmes":51.2,"superficie_ha":622.9,"densite_hab_ha":19.3}},{"type":"Feature","geometry":{"type":"Polygon","coordinates":[[[-1.527084,12.35622],[-1.536952,12.355511],[-1.536356,12.360666],[-1.536693,12.363005],[-1.534201,12.364742],[-1.533217,12.365715],[-1.532766,12.366202],[-1.532474,12.366527],[-1.531374,12.367475],[-1.530999,12.367807],[-1.528461,12.368332],[-1.527394,12.359815],[-1.527092,12.356331],[-1.527084,12.35622]]]},"properties":{"nom":"SECTEUR 1","arrondissement":"ARDT 1","population_totale":4634,"hommes":2127,"femmes":2507,"pourcentage_femmes":54.1,"superficie_ha":111.9,"densite_hab_ha":41.4}},{"type":"Feature","geometry":{"type":"Polygon","coordinates":[[[-1.520683,12.364545],[-1.519176,12.356831],[-1.520373,12.356702],[-1.527084,12.35622],[-1.527092,12.356331],[-1.527394,12.359815],[-1.528461,12.368332],[-1.527491,12.368519],[-1.52749,12.368716],[-1.527407,12.369037],[-1.527182,12.369311],[-1.526392,12.369805],[-1.525848,12.370033],[-1.521841,12.370988],[-1.521816,12.370994],[-1.521753,12.37061],[-1.521597,12.369644],[-1.521599,12.369635],[-1.520697,12.364618],[-1.520683,12.364545]]]},"properties":{"nom":"SECTEUR 2","arrondissement":"ARDT 1","population_totale":7167,"hommes":3545,"femmes":3622,"pourcentage_femmes":50.5,"superficie_ha":111.8,"densite_hab_ha":64.1}},{"type":"Feature","geometry":{"type":"Polygon","coordinates":[[[-1.536014,12.371388],[-1.536012,12.371386],[-1.535459,12.368159],[-1.5367,12.36305],[-1.536693,12.363005],[-1.536723,12.362987],[-1.556049,12.351607],[-1.557532,12.352843],[-1.558379,12.354471],[-1.558894,12.36097],[-1.558822,12.363075],[-1.558421,12.370126],[-1.54578,12.371004],[-1.536512,12.371718],[-1.536014,12.371388]]]},"properties":{"nom":"SECTEUR 7","arrondissement":"ARDT2","population_totale":27014,"hommes":13171,"femmes":13843,"pourcentage_femmes":51.2,"superficie_ha":380.6,"densite_hab_ha":71.0}},{"type":"Feature","geometry":{"type":"Polygon","coordinates":[[[-1.472413,12.375269],[-1.478293,12.366475],[-1.478295,12.366472],[-1.478567,12.366066],[-1.486584,12.354077],[-1.49035,12.356245],[-1.498194,12.360768],[-1.499446,12.359204],[-1.500959,12.363198],[-1.50052,12.363195],[-1.500468,12.36468],[-1.500388,12.366936],[-1.500385,12.366942],[-1.500133,12.36852],[-1.500156,12.368807],[-1.500303,12.370676],[-1.500611,12.371573],[-1.500663,12.371726],[-1.500621,12.37394],[-1.500795,12.375288],[-1.500822,12.375466],[-1.500631,12.375508],[-1.500625,12.375506],[-1.497845,12.376121],[-1.496713,12.376186],[-1.487591,12.375848],[-1.478031,12.3754],[-1.472413,12.375269]]]},"properties":{"nom":"SECTEUR 23","arrondissement":"ARDT . 5","population_totale":42867,"hommes":21037,"femmes":21830,"pourcentage_femmes":50.9,"superficie_ha":499.5,"densite_hab_ha":85.8}},{"type":"Feature","geometry":{"type":"Polygon","coordinates":[[[-1.460688,12.376254],[-1.459824,12.377569],[-1.459198,12.377116],[-1.453652,12.378235],[-1.452995,12.378344],[-1.451648,12.377471],[-1.464831,12.357739],[-1.478293,12.366475],[-1.472413,12.375269],[-1.468398,12.381272],[-1.460688,12.376254]]]},"properties":{"nom":"SECTEUR 44","arrondissement":"ARDT. 10","population_totale":50471,"hommes":24963,"femmes":25508,"pourcentage_femmes":50.5,"superficie_ha":385.6,"densite_hab_ha":130.9}},{"type":"Feature","geometry":{"type":"Polygon","coordinates":[[[-1.536512,12.371718],[-1.54578,12.371004],[-1.558421,12.370126],[-1.558415,12.37023],[-1.555594,12.38209],[-1.555476,12.382588],[-1.555474,12.382597],[-1.555469,12.382589],[-1.555311,12.382543],[-1.555179,12.382542],[-1.555073,12.382568],[-1.554954,12.382626],[-1.554855,12.38269],[-1.554763,12.382709],[-1.554644,12.382708],[-1.554512,12.382707],[-1.554432,12.382824],[-1.554345,12.383037],[-1.554206,12.383153],[-1.554015,12.383262],[-1.553724,12.38339],[-1.553651,12.383461],[-1.553599,12.383713],[-1.553524,12.383547],[-1.552672,12.38287],[-1.536651,12.37181],[-1.536512,12.371718]]]},"properties":{"nom":"SECTEUR 8","arrondissement":"ARDT2","population_totale":35454,"hommes":17283,"femmes":18171,"pourcentage_femmes":51.3,"superficie_ha":181.7,"densite_hab_ha":195.1}},{"type":"Feature","geometry":{"type":"Polygon","coordinates":[[[-1.501866,12.385199],[-1.501038,12.385383],[-1.501075,12.384866],[-1.501543,12.382894],[-1.501218,12.381186],[-1.501549,12.380332],[-1.501681,12.379991],[-1.501321,12.379151],[-1.501088,12.377205],[-1.500822,12.375466],[-1.500795,12.375288],[-1.500621,12.37394],[-1.500663,12.371726],[-1.500611,12.371573],[-1.500303,12.370676],[-1.500156,12.368807],[-1.500133,12.36852],[-1.500385,12.366942],[-1.500388,12.366936],[-1.500468,12.36468],[-1.501085,12.36497],[-1.502868,12.366214],[-1.503498,12.366559],[-1.504288,12.366913],[-1.505681,12.367656],[-1.506147,12.36786],[-1.507063,12.367484],[-1.507663,12.36717],[-1.509643,12.366774],[-1.51471,12.365671],[-1.518395,12.364968],[-1.520683,12.364545],[-1.520697,12.364618],[-1.521599,12.369635],[-1.521597,12.369644],[-1.521753,12.37061],[-1.521816,12.370994],[-1.519422,12.371565],[-1.519305,12.371575],[-1.502064,12.38553],[-1.502142,12.38509],[-1.501931,12.385171],[-1.50192,12.385176],[-1.501867,12.385196],[-1.501866,12.385199]]]},"properties":{"nom":"SECTEUR 3","arrondissement":"ARDT 1","population_totale":1740,"hommes":856,"femmes":884,"pourcentage_femmes":50.8,"superficie_ha":294.5,"densite_hab_ha":5.9}},{"type":"Feature","geometry":{"type":"Polygon","coordinates":[[[-1.501996,12.385911],[-1.502064,12.38553],[-1.519305,12.371575],[-1.519422,12.371565],[-1.521816,12.370994],[-1.521841,12.370988],[-1.525848,12.370033],[-1.526392,12.369805],[-1.527182,12.369311],[-1.527407,12.369037],[-1.52749,12.368716],[-1.527491,12.368519],[-1.528461,12.368332],[-1.530999,12.367807],[-1.531374,12.367475],[-1.532474,12.366527],[-1.532766,12.366202],[-1.533217,12.365715],[-1.534201,12.364742],[-1.536693,12.363005],[-1.5367,12.36305],[-1.535459,12.368159],[-1.536012,12.371386],[-1.536014,12.371388],[-1.535505,12.372799],[-1.535664,12.374874],[-1.535377,12.377039],[-1.519843,12.380845],[-1.519243,12.38096],[-1.516171,12.381709],[-1.515281,12.381908],[-1.510461,12.383097],[-1.511067,12.385847],[-1.510886,12.385745],[-1.509958,12.385306],[-1.50844,12.385072],[-1.508344,12.385057],[-1.505844,12.385765],[-1.505571,12.385843],[-1.50548,12.385854],[-1.505023,12.385942],[-1.504397,12.386014],[-1.50401,12.386047],[-1.501996,12.385911]]]},"properties":{"nom":"SECTEUR10","arrondissement":"ARDT2","population_totale":10987,"hommes":5313,"femmes":5674,"pourcentage_femmes":51.6,"superficie_ha":321.4,"densite_hab_ha":34.2}},{"type":"Feature","geometry":{"type":"Polygon","coordinates":[[[-1.515762,12.386959],[-1.515761,12.386959],[-1.514795,12.386921],[-1.51323,12.386768],[-1.51235,12.386571],[-1.511067,12.385847],[-1.510461,12.383097],[-1.515281,12.381908],[-1.516171,12.381709],[-1.519243,12.38096],[-1.519843,12.380845],[-1.535377,12.377039],[-1.535248,12.378011],[-1.535229,12.381319],[-1.535603,12.385918],[-1.535576,12.385957],[-1.535482,12.385932],[-1.53538,12.385853],[-1.535203,12.38596],[-1.535056,12.386139],[-1.53477,12.386223],[-1.534251,12.38617],[-1.533769,12.386182],[-1.533449,12.386156],[-1.533745,12.385773],[-1.534086,12.385594],[-1.534234,12.385451],[-1.534352,12.385215],[-1.534382,12.385028],[-1.534413,12.38474],[-1.534408,12.384388],[-1.534446,12.384137],[-1.534308,12.383985],[-1.53403,12.383933],[-1.533766,12.384126],[-1.533363,12.38421],[-1.532712,12.384221],[-1.532389,12.384356],[-1.532294,12.384449],[-1.532137,12.384465],[-1.531964,12.384512],[-1.531678,12.384688],[-1.531634,12.384747],[-1.531553,12.384804],[-1.53148,12.384809],[-1.531458,12.384811],[-1.531363,12.384846],[-1.531238,12.384896],[-1.531179,12.384939],[-1.531084,12.384974],[-1.530849,12.385059],[-1.530644,12.385159],[-1.530534,12.38518],[-1.530417,12.385179],[-1.530278,12.385157],[-1.530176,12.385142],[-1.530117,12.385163],[-1.530015,12.385191],[-1.529997,12.385198],[-1.529927,12.385227],[-1.52981,12.385269],[-1.529663,12.38529],[-1.529458,12.385296],[-1.529382,12.385286],[-1.529341,12.385281],[-1.529188,12.385287],[-1.529064,12.385294],[-1.528851,12.385314],[-1.528705,12.385328],[-1.528507,12.385406],[-1.528448,12.385452],[-1.528411,12.385455],[-1.528228,12.385527],[-1.528151,12.385599],[-1.527993,12.385691],[-1.527879,12.385674],[-1.527737,12.385732],[-1.527656,12.385919],[-1.527478,12.385979],[-1.527341,12.385924],[-1.527246,12.385924],[-1.527057,12.385932],[-1.526574,12.385877],[-1.526442,12.385862],[-1.52623,12.385782],[-1.526033,12.38581],[-1.525893,12.385938],[-1.52587,12.386111],[-1.525708,12.386239],[-1.525613,12.386261],[-1.525386,12.386266],[-1.524962,12.386228],[-1.524687,12.386157],[-1.523977,12.385849],[-1.523699,12.385905],[-1.516214,12.386977],[-1.515762,12.386959]]]},"properties":{"nom":"SECTEUR 11","arrondissement":"ARDT2","population_totale":19916,"hommes":9711,"femmes":10205,"pourcentage_femmes":51.2,"superficie_ha":144.8,"densite_hab_ha":137.6}},{"type":"Feature","geometry":{"type":"Polygon","coordinates":[[[-1.535576,12.385957],[-1.535603,12.385918],[-1.535229,12.381319],[-1.535248,12.378011],[-1.535377,12.377039],[-1.535664,12.374874],[-1.535505,12.372799],[-1.536014,12.371388],[-1.536512,12.371718],[-1.536651,12.37181],[-1.552672,12.38287],[-1.553524,12.383547],[-1.553599,12.383713],[-1.553597,12.383726],[-1.553603,12.383785],[-1.553625,12.383813],[-1.553419,12.384077],[-1.553228,12.384273],[-1.55292,12.38452],[-1.55275,12.384717],[-1.552735,12.385547],[-1.552617,12.385919],[-1.55156,12.386246],[-1.550345,12.386478],[-1.550137,12.386606],[-1.549985,12.386715],[-1.549773,12.386807],[-1.549435,12.386857],[-1.549023,12.386969],[-1.548822,12.38702],[-1.548505,12.386987],[-1.548294,12.387006],[-1.548178,12.387089],[-1.547976,12.387254],[-1.547618,12.387231],[-1.547509,12.387265],[-1.547498,12.387262],[-1.547398,12.387278],[-1.547337,12.387299],[-1.547297,12.387331],[-1.547253,12.387364],[-1.547148,12.387446],[-1.547053,12.387527],[-1.546986,12.387614],[-1.546924,12.387684],[-1.546802,12.387771],[-1.546702,12.387852],[-1.546585,12.387906],[-1.546446,12.387971],[-1.546429,12.387987],[-1.546401,12.38796],[-1.546368,12.387932],[-1.546307,12.38791],[-1.546219,12.387855],[-1.546207,12.387847],[-1.546136,12.387795],[-1.546081,12.387762],[-1.545992,12.38775],[-1.545876,12.38775],[-1.545681,12.387765],[-1.54547,12.387802],[-1.545309,12.387828],[-1.545187,12.387839],[-1.545054,12.387854],[-1.544932,12.387854],[-1.544826,12.38787],[-1.544688,12.387896],[-1.544635,12.387943],[-1.544609,12.387941],[-1.544574,12.387972],[-1.543992,12.388187],[-1.543274,12.388318],[-1.542355,12.3885],[-1.541859,12.388487],[-1.541659,12.388268],[-1.54145,12.387935],[-1.541135,12.387684],[-1.540903,12.387589],[-1.540713,12.387536],[-1.540439,12.387525],[-1.540123,12.387512],[-1.53988,12.387511],[-1.539711,12.387427],[-1.538932,12.387112],[-1.538489,12.387026],[-1.538131,12.386952],[-1.537699,12.386825],[-1.537404,12.38672],[-1.537025,12.386572],[-1.536838,12.386469],[-1.536633,12.386718],[-1.535853,12.386855],[-1.535453,12.386792],[-1.535797,12.386409],[-1.53575,12.386072],[-1.535576,12.385957]]]},"properties":{"nom":"SECTEUR 9","arrondissement":"ARDT2","population_totale":23311,"hommes":11168,"femmes":12143,"pourcentage_femmes":52.1,"superficie_ha":205.8,"densite_hab_ha":113.2}},{"type":"Feature","geometry":{"type":"Polygon","coordinates":[[[-1.468005,12.38308],[-1.467997,12.383048],[-1.467604,12.38246],[-1.468398,12.381272],[-1.472413,12.375269],[-1.478031,12.3754],[-1.487591,12.375848],[-1.496713,12.376186],[-1.497845,12.376121],[-1.500625,12.375506],[-1.500631,12.375508],[-1.500822,12.375466],[-1.501088,12.377205],[-1.501321,12.379151],[-1.501681,12.379991],[-1.501549,12.380332],[-1.501218,12.381186],[-1.501543,12.382894],[-1.501075,12.384866],[-1.501038,12.385383],[-1.495385,12.386639],[-1.484307,12.389257],[-1.48403,12.38776],[-1.483721,12.386388],[-1.48319,12.385014],[-1.482848,12.38389],[-1.482316,12.382672],[-1.481747,12.382513],[-1.480321,12.382442],[-1.479965,12.382304],[-1.477239,12.380965],[-1.477001,12.380924],[-1.476605,12.381],[-1.468005,12.38308]]]},"properties":{"nom":"SECTEUR 22","arrondissement":"ARDT . 5","population_totale":20112,"hommes":10452,"femmes":9660,"pourcentage_femmes":48.0,"superficie_ha":357.6,"densite_hab_ha":56.2}},{"type":"Feature","geometry":{"type":"Polygon","coordinates":[[[-1.438571,12.369216],[-1.441297,12.370776],[-1.441317,12.370782],[-1.441503,12.370896],[-1.451648,12.377471],[-1.452995,12.378344],[-1.453652,12.378235],[-1.459198,12.377116],[-1.459824,12.377569],[-1.460688,12.376254],[-1.468398,12.381272],[-1.467604,12.38246],[-1.467997,12.383048],[-1.468005,12.38308],[-1.470226,12.392529],[-1.470263,12.392685],[-1.44556,12.398934],[-1.442023,12.387121],[-1.437682,12.37771],[-1.438571,12.369216]]]},"properties":{"nom":"SECTEUR 43","arrondissement":"ARDT. 10","population_totale":57351,"hommes":29044,"femmes":28307,"pourcentage_femmes":49.4,"superficie_ha":808.3,"densite_hab_ha":70.9}},{"type":"Feature","geometry":{"type":"Polygon","coordinates":[[[-1.577415,12.381204],[-1.577928,12.381004],[-1.578232,12.380753],[-1.578548,12.380548],[-1.57911,12.380207],[-1.5796,12.380198],[-1.580522,12.379917],[-1.581304,12.379818],[-1.582109,12.379833],[-1.582737,12.380169],[-1.583447,12.380436],[-1.584028,12.380657],[-1.584089,12.380726],[-1.584403,12.380749],[-1.585232,12.382402],[-1.58585,12.382691],[-1.586537,12.383626],[-1.587266,12.383612],[-1.587521,12.383667],[-1.588049,12.38367],[-1.588396,12.383582],[-1.58847,12.383314],[-1.588835,12.38328],[-1.5898,12.383393],[-1.59022,12.38318],[-1.590493,12.383342],[-1.590943,12.384348],[-1.591579,12.384727],[-1.591448,12.385318],[-1.593123,12.385631],[-1.595392,12.387129],[-1.595486,12.386592],[-1.596482,12.386983],[-1.596571,12.387386],[-1.597457,12.387659],[-1.597475,12.388734],[-1.597953,12.388759],[-1.597957,12.390046],[-1.598868,12.390135],[-1.604433,12.393018],[-1.60446,12.393029],[-1.604457,12.393034],[-1.604153,12.393575],[-1.599453,12.403935],[-1.588628,12.409419],[-1.583915,12.411806],[-1.57484,12.411885],[-1.572326,12.411903],[-1.572586,12.409494],[-1.572583,12.409489],[-1.573157,12.406152],[-1.577294,12.382089],[-1.577326,12.381952],[-1.577387,12.381774],[-1.577415,12.381204]]]},"properties":{"nom":"SECTEUR 15","arrondissement":"ARDT 3","population_totale":67394,"hommes":33541,"femmes":33853,"pourcentage_femmes":50.2,"superficie_ha":74.9,"densite_hab_ha":900.3}},{"type":"Feature","geometry":{"type":"Polygon","coordinates":[[[-1.441937,12.412891],[-1.442289,12.406436],[-1.442991,12.404072],[-1.444495,12.399813],[-1.445692,12.399458],[-1.44556,12.398934],[-1.470263,12.392685],[-1.473586,12.406726],[-1.473805,12.407648],[-1.462335,12.415767],[-1.452007,12.415708],[-1.451487,12.416213],[-1.445607,12.417321],[-1.443861,12.417819],[-1.441345,12.418227],[-1.441218,12.418083],[-1.441435,12.413195],[-1.441937,12.412891]]]},"properties":{"nom":"SECTEUR 42","arrondissement":"ARDT. 10","population_totale":47818,"hommes":23769,"femmes":24049,"pourcentage_femmes":50.3,"superficie_ha":655.0,"densite_hab_ha":73.0}},{"type":"Feature","geometry":{"type":"Polygon","coordinates":[[[-1.517358,12.42661],[-1.533175,12.413208],[-1.540725,12.413907],[-1.552667,12.415451],[-1.552858,12.415475],[-1.552859,12.415479],[-1.55285,12.415538],[-1.552613,12.417126],[-1.549726,12.432984],[-1.549722,12.433009],[-1.541112,12.43178],[-1.541071,12.431927],[-1.541033,12.432054],[-1.540959,12.432198],[-1.540829,12.432415],[-1.540661,12.43265],[-1.540476,12.432794],[-1.540328,12.432884],[-1.540069,12.432973],[-1.539755,12.433026],[-1.539552,12.433025],[-1.539276,12.432969],[-1.539055,12.432913],[-1.538908,12.43284],[-1.53865,12.432712],[-1.538412,12.432475],[-1.538193,12.432075],[-1.538085,12.431621],[-1.538122,12.431353],[-1.518166,12.428505],[-1.518166,12.428505],[-1.518161,12.428504],[-1.51815,12.428485],[-1.518124,12.428129],[-1.518043,12.427691],[-1.517933,12.427444],[-1.517824,12.427197],[-1.517685,12.427005],[-1.51752,12.426785],[-1.517358,12.42661]]]},"properties":{"nom":"SECTEUR 39","arrondissement":"ARDT. 9","population_totale":13126,"hommes":6608,"femmes":6518,"pourcentage_femmes":49.7,"superficie_ha":609.5,"densite_hab_ha":21.5}},{"type":"Feature","geometry":{"type":"Polygon","coordinates":[[[-1.512496,12.419003],[-1.511137,12.431864],[-1.511938,12.43119],[-1.514448,12.429075],[-1.514465,12.429098],[-1.514691,12.429413],[-1.515081,12.429704],[-1.515716,12.429996],[-1.515862,12.430045],[-1.515863,12.430047],[-1.521167,12.49235],[-1.517634,12.493454],[-1.507979,12.497361],[-1.499363,12.499708],[-1.492809,12.500314],[-1.48,12.500531],[-1.479311,12.500527],[-1.485209,12.439518],[-1.495223,12.430316],[-1.495586,12.430034],[-1.496229,12.430075],[-1.496776,12.430044],[-1.497537,12.42986],[-1.49793,12.429734],[-1.498216,12.429584],[-1.49849,12.429434],[-1.512496,12.419003]]]},"properties":{"nom":"SECTEUR 20","arrondissement":"ARDT. 4","population_totale":20718,"hommes":11031,"femmes":9687,"pourcentage_femmes":46.8,"superficie_ha":4442.9,"densite_hab_ha":4.7}},{"type":"Feature","geometry":{"type":"Polygon","coordinates":[[[-1.438571,12.369216],[-1.43857,12.369215],[-1.438575,12.369183],[-1.438776,12.367882],[-1.442843,12.358932],[-1.446018,12.352418],[-1.449171,12.345707],[-1.451786,12.347121],[-1.45097,12.348897],[-1.451001,12.348914],[-1.45195,12.349438],[-1.459652,12.354314],[-1.46106,12.355293],[-1.461067,12.355294],[-1.464815,12.357728],[-1.464819,12.357731],[-1.464831,12.357739],[-1.451648,12.377471],[-1.441503,12.370896],[-1.441317,12.370782],[-1.441297,12.370776],[-1.438571,12.369216]]]},"properties":{"nom":"SECTEUR 45","arrondissement":"ARDT. 10","population_totale":33541,"hommes":17758,"femmes":15783,"pourcentage_femmes":47.1,"superficie_ha":1054.1,"densite_hab_ha":31.8}},{"type":"Feature","geometry":{"type":"Polygon","coordinates":[[[-1.502575,12.314916],[-1.502575,12.314914],[-1.502575,12.314837],[-1.502625,12.314839],[-1.502985,12.314809],[-1.503148,12.314789],[-1.503366,12.314736],[-1.503497,12.314705],[-1.50377,12.314599],[-1.503923,12.314493],[-1.504087,12.314376],[-1.504393,12.314153],[-1.504623,12.313908],[-1.504788,12.313705],[-1.504931,12.31346],[-1.50503,12.313257],[-1.505119,12.31299],[-1.505197,12.312658],[-1.505221,12.312294],[-1.505223,12.311845],[-1.505149,12.311459],[-1.505042,12.311158],[-1.504913,12.310847],[-1.504675,12.310492],[-1.504459,12.310288],[-1.504209,12.310072],[-1.503906,12.309856],[-1.503493,12.309672],[-1.503102,12.309552],[-1.502582,12.309503],[-1.502598,12.295328],[-1.529085,12.29541],[-1.529092,12.29541],[-1.529092,12.295412],[-1.529134,12.297104],[-1.529172,12.298595],[-1.529171,12.298596],[-1.529079,12.301822],[-1.529084,12.301829],[-1.528449,12.317405],[-1.528422,12.317405],[-1.502572,12.31761],[-1.502575,12.314916]]]},"properties":{"nom":"SECTEUR 54","arrondissement":"ARDT. 12","population_totale":4080,"hommes":2153,"femmes":1927,"pourcentage_femmes":47.2,"superficie_ha":698.4,"densite_hab_ha":5.8}},{"type":"Feature","geometry":{"type":"Polygon","coordinates":[[[-1.528449,12.317405],[-1.529084,12.301829],[-1.529079,12.301822],[-1.529171,12.298596],[-1.529172,12.298595],[-1.529173,12.298613],[-1.529395,12.298616],[-1.531065,12.298632],[-1.534482,12.298697],[-1.546011,12.298873],[-1.546795,12.298384],[-1.553049,12.298911],[-1.553481,12.298946],[-1.556306,12.299179],[-1.56128,12.299586],[-1.560529,12.301116],[-1.5595,12.303212],[-1.555464,12.311939],[-1.552165,12.323109],[-1.532166,12.317425],[-1.528449,12.317405]]]},"properties":{"nom":"SECTEUR 29","arrondissement":"ARDT. 6","population_totale":40459,"hommes":19863,"femmes":20596,"pourcentage_femmes":50.9,"superficie_ha":676.0,"densite_hab_ha":59.8}},{"type":"Feature","geometry":{"type":"Polygon","coordinates":[[[-1.626393,12.405463],[-1.626313,12.405403],[-1.621749,12.402988],[-1.624627,12.399306],[-1.625154,12.399051],[-1.623634,12.388103],[-1.626347,12.385593],[-1.664341,12.381663],[-1.662197,12.403232],[-1.68251,12.409427],[-1.68429,12.416498],[-1.680508,12.43157],[-1.666969,12.431504],[-1.659944,12.42976],[-1.659136,12.43814],[-1.659096,12.438148],[-1.65862,12.438242],[-1.649955,12.42984],[-1.646384,12.425824],[-1.643238,12.422287],[-1.640292,12.419248],[-1.637464,12.41608],[-1.631898,12.410371],[-1.627385,12.405957],[-1.626393,12.405463]]]},"properties":{"nom":"SECTEUR 36","arrondissement":"ARDT. 8","population_totale":5172,"hommes":2535,"femmes":2637,"pourcentage_femmes":51.0,"superficie_ha":1083.1,"densite_hab_ha":4.8}},{"type":"Feature","geometry":{"type":"Polygon","coordinates":[[[-1.514448,12.429075],[-1.514477,12.42905],[-1.517315,12.426646],[-1.517358,12.42661],[-1.51752,12.426785],[-1.517685,12.427005],[-1.517824,12.427197],[-1.517933,12.427444],[-1.518043,12.427691],[-1.518124,12.428129],[-1.51815,12.428485],[-1.518161,12.428504],[-1.518166,12.428505],[-1.518166,12.428505],[-1.538122,12.431353],[-1.538085,12.431621],[-1.538193,12.432075],[-1.538412,12.432475],[-1.53865,12.432712],[-1.538908,12.43284],[-1.539055,12.432913],[-1.539276,12.432969],[-1.539552,12.433025],[-1.539755,12.433026],[-1.540069,12.432973],[-1.540328,12.432884],[-1.540476,12.432794],[-1.540661,12.43265],[-1.540829,12.432415],[-1.540959,12.432198],[-1.541033,12.432054],[-1.541071,12.431927],[-1.541112,12.43178],[-1.549722,12.433009],[-1.548687,12.439939],[-1.548944,12.441172],[-1.550277,12.445914],[-1.555893,12.444438],[-1.57549,12.473283],[-1.562409,12.480986],[-1.551631,12.485069],[-1.551254,12.485142],[-1.540578,12.487224],[-1.530372,12.489474],[-1.521167,12.49235],[-1.515863,12.430047],[-1.515862,12.430045],[-1.515716,12.429996],[-1.515081,12.429704],[-1.514691,12.429413],[-1.514465,12.429098],[-1.514448,12.429075]]]},"properties":{"nom":"SECTEUR 40","arrondissement":"ARDT. 9","population_totale":20352,"hommes":10678,"femmes":9674,"pourcentage_femmes":47.5,"superficie_ha":1596.4,"densite_hab_ha":12.7}},{"type":"Feature","geometry":{"type":"Polygon","coordinates":[[[-1.620609,12.445767],[-1.619502,12.454644],[-1.60159,12.455333],[-1.601626,12.455304],[-1.597878,12.45544],[-1.597859,12.455441],[-1.596137,12.449232],[-1.593486,12.440023],[-1.593835,12.438791],[-1.593469,12.432519],[-1.592585,12.429009],[-1.588112,12.420809],[-1.591637,12.418932],[-1.592253,12.415557],[-1.588628,12.409419],[-1.599453,12.403935],[-1.604153,12.393575],[-1.604457,12.393034],[-1.60446,12.393029],[-1.605046,12.392012],[-1.619677,12.401262],[-1.620903,12.402541],[-1.621749,12.402988],[-1.626313,12.405403],[-1.626393,12.405463],[-1.627385,12.405957],[-1.631898,12.410371],[-1.637464,12.41608],[-1.640292,12.419248],[-1.643238,12.422287],[-1.646384,12.425824],[-1.649955,12.42984],[-1.65862,12.438242],[-1.620609,12.445767]]]},"properties":{"nom":"SECTEUR 37","arrondissement":"ARDT. 9","population_totale":38396,"hommes":19679,"femmes":18717,"pourcentage_femmes":48.7,"superficie_ha":2114.8,"densite_hab_ha":18.2}},{"type":"Feature","geometry":{"type":"Polygon","coordinates":[[[-1.557699,12.350634],[-1.561545,12.348443],[-1.567683,12.344686],[-1.569034,12.343791],[-1.57265,12.342607],[-1.572698,12.342603],[-1.578158,12.342154],[-1.579323,12.341739],[-1.581345,12.341149],[-1.587451,12.33887],[-1.590626,12.347473],[-1.588615,12.348231],[-1.588928,12.349116],[-1.58254,12.351449],[-1.582501,12.357842],[-1.578975,12.363757],[-1.578055,12.365187],[-1.577134,12.366707],[-1.575851,12.368914],[-1.558421,12.370126],[-1.558822,12.363075],[-1.558894,12.36097],[-1.558379,12.354471],[-1.557532,12.352843],[-1.556049,12.351607],[-1.556058,12.351602],[-1.557699,12.350634]]]},"properties":{"nom":"SECTEUR 12","arrondissement":"ARDT 3","population_totale":19588,"hommes":9600,"femmes":9988,"pourcentage_femmes":51.0,"superficie_ha":766.0,"densite_hab_ha":25.6}},{"type":"Feature","geometry":{"type":"Polygon","coordinates":[[[-1.577415,12.381204],[-1.577416,12.381197],[-1.577408,12.3812],[-1.577086,12.381199],[-1.577035,12.381208],[-1.576772,12.381355],[-1.576742,12.381385],[-1.576648,12.381574],[-1.57649,12.381588],[-1.576425,12.381572],[-1.576257,12.381489],[-1.575846,12.381269],[-1.574967,12.381287],[-1.573874,12.381304],[-1.572856,12.381486],[-1.572317,12.381562],[-1.571696,12.381615],[-1.571524,12.38168],[-1.571419,12.38168],[-1.571036,12.381753],[-1.570778,12.381808],[-1.570596,12.381844],[-1.570453,12.381825],[-1.57031,12.381768],[-1.570158,12.381682],[-1.570005,12.381578],[-1.569881,12.381559],[-1.569864,12.381574],[-1.569747,12.381583],[-1.569609,12.381717],[-1.569487,12.381732],[-1.569229,12.38173],[-1.569355,12.380788],[-1.569542,12.379575],[-1.569398,12.379577],[-1.569197,12.37956],[-1.569097,12.379518],[-1.569041,12.379239],[-1.568932,12.379222],[-1.568723,12.379213],[-1.568614,12.379261],[-1.568355,12.379317],[-1.56813,12.379333],[-1.567954,12.379332],[-1.567871,12.379257],[-1.567872,12.379142],[-1.567914,12.379028],[-1.568006,12.378946],[-1.568116,12.378782],[-1.568209,12.37861],[-1.568243,12.378496],[-1.568243,12.378381],[-1.568211,12.3782],[-1.568128,12.378109],[-1.567953,12.378018],[-1.567928,12.378034],[-1.567844,12.378075],[-1.56771,12.378058],[-1.567544,12.377999],[-1.567485,12.378007],[-1.56741,12.378056],[-1.567334,12.378097],[-1.567193,12.378063],[-1.567125,12.378129],[-1.567092,12.378194],[-1.567033,12.378259],[-1.566974,12.378349],[-1.566923,12.378415],[-1.566847,12.378554],[-1.566764,12.378628],[-1.566596,12.378684],[-1.566228,12.378772],[-1.566019,12.378796],[-1.565886,12.378762],[-1.565628,12.378622],[-1.565536,12.378613],[-1.565402,12.378645],[-1.565251,12.378685],[-1.565134,12.378685],[-1.565093,12.378619],[-1.565027,12.378553],[-1.56496,12.378561],[-1.564893,12.378577],[-1.564676,12.378485],[-1.564509,12.378476],[-1.564434,12.378492],[-1.564334,12.378442],[-1.56421,12.378203],[-1.564094,12.377981],[-1.564087,12.377842],[-1.564003,12.377825],[-1.563966,12.378555],[-1.563938,12.379007],[-1.563904,12.379089],[-1.563812,12.379105],[-1.563737,12.37917],[-1.563686,12.379334],[-1.563602,12.379473],[-1.563497,12.379559],[-1.563363,12.379656],[-1.563208,12.379761],[-1.563081,12.379852],[-1.56292,12.37995],[-1.562719,12.380047],[-1.562598,12.380073],[-1.562485,12.380066],[-1.562325,12.380039],[-1.562164,12.380018],[-1.562098,12.379952],[-1.562038,12.37986],[-1.561979,12.379781],[-1.561952,12.379754],[-1.561892,12.379773],[-1.561885,12.379852],[-1.561851,12.379964],[-1.56183,12.380042],[-1.56181,12.380128],[-1.561803,12.380193],[-1.561801,12.380417],[-1.561788,12.38045],[-1.561748,12.380476],[-1.561701,12.380469],[-1.561607,12.380435],[-1.561481,12.380336],[-1.561315,12.380217],[-1.561115,12.380098],[-1.560955,12.380025],[-1.560835,12.379978],[-1.560688,12.379977],[-1.560474,12.37997],[-1.560294,12.379949],[-1.56024,12.379929],[-1.560046,12.38002],[-1.559919,12.380098],[-1.559764,12.380229],[-1.559684,12.380281],[-1.559597,12.380307],[-1.55941,12.380345],[-1.559316,12.380404],[-1.559242,12.380475],[-1.559208,12.380534],[-1.559148,12.380587],[-1.559061,12.380606],[-1.558987,12.380625],[-1.558913,12.380671],[-1.558853,12.380703],[-1.558793,12.38071],[-1.558672,12.380742],[-1.558592,12.380768],[-1.558552,12.380807],[-1.558491,12.380879],[-1.55843,12.380977],[-1.558383,12.381062],[-1.558336,12.381114],[-1.558299,12.381142],[-1.558233,12.381109],[-1.558199,12.381092],[-1.558116,12.381108],[-1.557965,12.381149],[-1.55789,12.381181],[-1.557739,12.381254],[-1.557705,12.381279],[-1.557655,12.38136],[-1.557613,12.381426],[-1.557546,12.381499],[-1.55752,12.381507],[-1.557428,12.38154],[-1.557319,12.381597],[-1.557211,12.381654],[-1.557135,12.381678],[-1.557052,12.381718],[-1.556943,12.381743],[-1.556909,12.381759],[-1.556851,12.3818],[-1.556817,12.381865],[-1.556766,12.381914],[-1.556624,12.38202],[-1.556515,12.382102],[-1.556381,12.382125],[-1.556256,12.382141],[-1.556097,12.382149],[-1.55598,12.382142],[-1.555973,12.382141],[-1.555927,12.382152],[-1.555881,12.382188],[-1.555813,12.382299],[-1.555758,12.382402],[-1.55572,12.382472],[-1.555703,12.382513],[-1.555678,12.382549],[-1.55564,12.382586],[-1.555594,12.382607],[-1.555552,12.382606],[-1.555477,12.38259],[-1.555476,12.382588],[-1.555594,12.38209],[-1.558415,12.37023],[-1.558421,12.370126],[-1.575851,12.368914],[-1.576836,12.368846],[-1.603479,12.366541],[-1.603479,12.366552],[-1.604317,12.366485],[-1.604547,12.366466],[-1.605203,12.374462],[-1.6057,12.374445],[-1.605774,12.375442],[-1.605277,12.375498],[-1.606005,12.384336],[-1.606399,12.389467],[-1.606306,12.389733],[-1.605991,12.390307],[-1.605988,12.390308],[-1.605046,12.392012],[-1.60446,12.393029],[-1.604433,12.393018],[-1.598868,12.390135],[-1.597957,12.390046],[-1.597953,12.388759],[-1.597475,12.388734],[-1.597457,12.387659],[-1.596571,12.387386],[-1.596482,12.386983],[-1.595486,12.386592],[-1.595392,12.387129],[-1.593123,12.385631],[-1.591448,12.385318],[-1.591579,12.384727],[-1.590943,12.384348],[-1.590493,12.383342],[-1.59022,12.38318],[-1.5898,12.383393],[-1.588835,12.38328],[-1.58847,12.383314],[-1.588396,12.383582],[-1.588049,12.38367],[-1.587521,12.383667],[-1.587266,12.383612],[-1.586537,12.383626],[-1.58585,12.382691],[-1.585232,12.382402],[-1.584403,12.380749],[-1.584089,12.380726],[-1.584028,12.380657],[-1.583447,12.380436],[-1.582737,12.380169],[-1.582109,12.379833],[-1.581304,12.379818],[-1.580522,12.379917],[-1.5796,12.380198],[-1.57911,12.380207],[-1.578548,12.380548],[-1.578232,12.380753],[-1.577928,12.381004],[-1.577415,12.381204]]]},"properties":{"nom":"SECTEUR 14","arrondissement":"ARDT 3","population_totale":62445,"hommes":31223,"femmes":31222,"pourcentage_femmes":50.0,"superficie_ha":702.9,"densite_hab_ha":88.8}},{"type":"Feature","geometry":{"type":"Polygon","coordinates":[[[-1.620903,12.402541],[-1.619677,12.401262],[-1.605046,12.392012],[-1.605988,12.390308],[-1.605991,12.390307],[-1.606306,12.389733],[-1.606399,12.389467],[-1.606005,12.384336],[-1.605277,12.375498],[-1.605774,12.375442],[-1.6057,12.374445],[-1.605203,12.374462],[-1.604547,12.366466],[-1.613002,12.365791],[-1.62252,12.362428],[-1.628349,12.360411],[-1.636583,12.357672],[-1.664345,12.348693],[-1.664845,12.351233],[-1.66594,12.358309],[-1.665565,12.36771],[-1.665632,12.36776],[-1.665518,12.368875],[-1.664396,12.381056],[-1.664341,12.381663],[-1.626347,12.385593],[-1.623634,12.388103],[-1.625154,12.399051],[-1.624627,12.399306],[-1.621749,12.402988],[-1.620903,12.402541]]]},"properties":{"nom":"SECTEUR 35","arrondissement":"ARDT. 8","population_totale":53152,"hommes":27918,"femmes":25234,"pourcentage_femmes":47.5,"superficie_ha":2218.5,"densite_hab_ha":24.0}},{"type":"Feature","geometry":{"type":"Polygon","coordinates":[[[-1.582781,12.314861],[-1.582624,12.31467],[-1.576174,12.309668],[-1.575336,12.303825],[-1.575335,12.303822],[-1.575365,12.303826],[-1.582009,12.304625],[-1.582067,12.278308],[-1.583163,12.278388],[-1.593009,12.27832],[-1.603757,12.278185],[-1.61591,12.278238],[-1.624319,12.278742],[-1.629465,12.279488],[-1.60753,12.31205],[-1.606065,12.312659],[-1.60439,12.313198],[-1.603483,12.313468],[-1.597173,12.318058],[-1.593502,12.320693],[-1.590362,12.323579],[-1.588748,12.324824],[-1.587884,12.32293],[-1.58672,12.320336],[-1.585827,12.318581],[-1.582781,12.314861]]]},"properties":{"nom":"SECTEUR 32","arrondissement":"ARDT. 7","population_totale":30754,"hommes":16283,"femmes":14471,"pourcentage_femmes":47.1,"superficie_ha":1749.1,"densite_hab_ha":17.6}},{"type":"Feature","geometry":{"type":"Polygon","coordinates":[[[-1.575271,12.303561],[-1.574561,12.300662],[-1.563396,12.299759],[-1.56128,12.299586],[-1.556306,12.299179],[-1.553481,12.298946],[-1.554872,12.294128],[-1.55489,12.294135],[-1.555179,12.294171],[-1.555521,12.294181],[-1.555696,12.294173],[-1.555977,12.294132],[-1.556118,12.294089],[-1.556276,12.294039],[-1.556478,12.293953],[-1.556671,12.293834],[-1.556865,12.293697],[-1.557032,12.293525],[-1.557182,12.293362],[-1.557279,12.293199],[-1.557359,12.293045],[-1.557448,12.292847],[-1.557501,12.292675],[-1.557546,12.292494],[-1.557565,12.292279],[-1.557575,12.292063],[-1.557558,12.291848],[-1.557516,12.291606],[-1.557438,12.291382],[-1.557326,12.291157],[-1.557221,12.29101],[-1.557047,12.290811],[-1.556846,12.290629],[-1.556567,12.29042],[-1.55634,12.290307],[-1.556182,12.290229],[-1.556015,12.290171],[-1.55915,12.279312],[-1.559149,12.279311],[-1.558985,12.279247],[-1.558827,12.279183],[-1.558708,12.279128],[-1.55855,12.279025],[-1.558456,12.278951],[-1.558352,12.278863],[-1.558238,12.27872],[-1.5581,12.278549],[-1.557987,12.278367],[-1.557908,12.278201],[-1.55784,12.277986],[-1.557801,12.2778],[-1.557763,12.27757],[-1.557764,12.277365],[-1.557805,12.277072],[-1.557926,12.276292],[-1.559933,12.2766],[-1.561293,12.276809],[-1.582067,12.278308],[-1.582009,12.304625],[-1.575365,12.303826],[-1.575335,12.303822],[-1.575271,12.303561]]]},"properties":{"nom":"SECTEUR 31","arrondissement":"ARDT. 7","population_totale":12570,"hommes":6379,"femmes":6191,"pourcentage_femmes":49.3,"superficie_ha":724.5,"densite_hab_ha":17.3}},{"type":"Feature","geometry":{"type":"Polygon","coordinates":[[[-1.575335,12.303822],[-1.575336,12.303825],[-1.576174,12.309668],[-1.582624,12.31467],[-1.582781,12.314861],[-1.58195,12.315341],[-1.580166,12.31637],[-1.580156,12.316373],[-1.569312,12.323013],[-1.563488,12.327839],[-1.562341,12.326001],[-1.552165,12.323109],[-1.555464,12.311939],[-1.5595,12.303212],[-1.560529,12.301116],[-1.56128,12.299586],[-1.563396,12.299759],[-1.574561,12.300662],[-1.575271,12.303561],[-1.575335,12.303822]]]},"properties":{"nom":"SECTEUR 28","arrondissement":"ARDT. 6","population_totale":31261,"hommes":15784,"femmes":15477,"pourcentage_femmes":49.5,"superficie_ha":560.9,"densite_hab_ha":55.7}},{"type":"Feature","geometry":{"type":"Polygon","coordinates":[[[-1.470277,12.338323],[-1.48082,12.322652],[-1.477646,12.320526],[-1.483788,12.319763],[-1.485159,12.321115],[-1.490097,12.31997],[-1.49071,12.319877],[-1.499783,12.329949],[-1.501076,12.331159],[-1.502447,12.331977],[-1.50095,12.333544],[-1.498752,12.335875],[-1.486584,12.354077],[-1.480148,12.350371],[-1.480107,12.350344],[-1.480073,12.350338],[-1.472336,12.345283],[-1.472587,12.344942],[-1.472872,12.344502],[-1.473107,12.344112],[-1.473242,12.343704],[-1.473278,12.343263],[-1.473267,12.342865],[-1.473278,12.342811],[-1.47328,12.342443],[-1.473212,12.342157],[-1.473117,12.341843],[-1.472967,12.341488],[-1.472858,12.341215],[-1.472693,12.340847],[-1.472488,12.34041],[-1.472255,12.340068],[-1.471717,12.339575],[-1.471235,12.339109],[-1.471121,12.339042],[-1.470632,12.338531],[-1.470277,12.338323]]]},"properties":{"nom":"SECTEUR 51","arrondissement":"ARDT. 11","population_totale":61288,"hommes":30031,"femmes":31257,"pourcentage_femmes":51.0,"superficie_ha":755.9,"densite_hab_ha":81.1}},{"type":"Feature","geometry":{"type":"Polygon","coordinates":[[[-1.464831,12.357739],[-1.464819,12.357731],[-1.464815,12.357728],[-1.461067,12.355294],[-1.46106,12.355293],[-1.459652,12.354314],[-1.45195,12.349438],[-1.451001,12.348914],[-1.45097,12.348897],[-1.451786,12.347121],[-1.452526,12.347533],[-1.453362,12.347487],[-1.455079,12.347322],[-1.45661,12.347147],[-1.457427,12.346947],[-1.45816,12.346583],[-1.458561,12.34617],[-1.459185,12.345529],[-1.46574,12.335651],[-1.470277,12.338323],[-1.470632,12.338531],[-1.471121,12.339042],[-1.471235,12.339109],[-1.471717,12.339575],[-1.472255,12.340068],[-1.472488,12.34041],[-1.472693,12.340847],[-1.472858,12.341215],[-1.472967,12.341488],[-1.473117,12.341843],[-1.473212,12.342157],[-1.47328,12.342443],[-1.473278,12.342811],[-1.473267,12.342865],[-1.473278,12.343263],[-1.473242,12.343704],[-1.473107,12.344112],[-1.472872,12.344502],[-1.472587,12.344942],[-1.472336,12.345283],[-1.480073,12.350338],[-1.480107,12.350344],[-1.480148,12.350371],[-1.486584,12.354077],[-1.478567,12.366066],[-1.478295,12.366472],[-1.478293,12.366475],[-1.464831,12.357739]]]},"properties":{"nom":"SECTEUR 46","arrondissement":"ARDT. 11","population_totale":70300,"hommes":35496,"femmes":34804,"pourcentage_femmes":49.5,"superficie_ha":553.6,"densite_hab_ha":127.0}},{"type":"Feature","geometry":{"type":"Polygon","coordinates":[[[-1.587541,12.338836],[-1.590724,12.337648],[-1.603784,12.333388],[-1.603984,12.333323],[-1.604764,12.333109],[-1.605199,12.333017],[-1.605203,12.333016],[-1.60684,12.340076],[-1.608231,12.345696],[-1.6105,12.347592],[-1.611112,12.354649],[-1.608361,12.354829],[-1.605771,12.360942],[-1.604285,12.366137],[-1.604317,12.366485],[-1.603479,12.366552],[-1.603479,12.366541],[-1.576836,12.368846],[-1.575851,12.368914],[-1.577134,12.366707],[-1.578055,12.365187],[-1.578975,12.363757],[-1.582501,12.357842],[-1.58254,12.351449],[-1.588928,12.349116],[-1.588615,12.348231],[-1.590626,12.347473],[-1.587451,12.33887],[-1.587541,12.338836]]]},"properties":{"nom":"SECTEUR 13","arrondissement":"ARDT 3","population_totale":59737,"hommes":31807,"femmes":27930,"pourcentage_femmes":46.8,"superficie_ha":799.0,"densite_hab_ha":74.8}},{"type":"Feature","geometry":{"type":"Polygon","coordinates":[[[-1.613189,12.330603],[-1.616966,12.329519],[-1.634146,12.3249],[-1.640509,12.32329],[-1.65301,12.319855],[-1.65367,12.320955],[-1.659333,12.330168],[-1.663016,12.341939],[-1.664345,12.348693],[-1.636583,12.357672],[-1.628349,12.360411],[-1.62252,12.362428],[-1.613002,12.365791],[-1.604547,12.366466],[-1.604317,12.366485],[-1.604285,12.366137],[-1.605771,12.360942],[-1.608361,12.354829],[-1.611112,12.354649],[-1.6105,12.347592],[-1.608231,12.345696],[-1.60684,12.340076],[-1.605203,12.333016],[-1.606925,12.332537],[-1.609096,12.331857],[-1.613122,12.330635],[-1.613189,12.330603]]]},"properties":{"nom":"SECTEUR 34","arrondissement":"ARDT. 8","population_totale":15110,"hommes":8018,"femmes":7092,"pourcentage_femmes":46.9,"superficie_ha":2169.3,"densite_hab_ha":7.0}},{"type":"Feature","geometry":{"type":"Polygon","coordinates":[[[-1.605203,12.333016],[-1.605199,12.333017],[-1.604764,12.333109],[-1.603984,12.333323],[-1.603784,12.333388],[-1.6038,12.333319],[-1.603676,12.329069],[-1.603891,12.32528],[-1.602174,12.327741],[-1.596368,12.329812],[-1.58741,12.327216],[-1.587998,12.326172],[-1.588752,12.324832],[-1.588748,12.324824],[-1.590362,12.323579],[-1.593502,12.320693],[-1.597173,12.318058],[-1.603483,12.313468],[-1.60439,12.313198],[-1.606065,12.312659],[-1.60753,12.31205],[-1.629465,12.279488],[-1.629546,12.2795],[-1.632159,12.280978],[-1.634023,12.283103],[-1.637455,12.287984],[-1.644301,12.304743],[-1.648747,12.312748],[-1.65301,12.319855],[-1.640509,12.32329],[-1.634146,12.3249],[-1.616966,12.329519],[-1.613189,12.330603],[-1.613122,12.330635],[-1.609096,12.331857],[-1.606925,12.332537],[-1.605203,12.333016]]]},"properties":{"nom":"SECTEUR 33","arrondissement":"ARDT. 7","population_totale":59737,"hommes":31807,"femmes":27930,"pourcentage_femmes":46.8,"superficie_ha":799.0,"densite_hab_ha":74.8}},{"type":"Feature","geometry":{"type":"Polygon","coordinates":[[[-1.563488,12.327839],[-1.569312,12.323013],[-1.580156,12.316373],[-1.580166,12.31637],[-1.58195,12.315341],[-1.582781,12.314861],[-1.585827,12.318581],[-1.58672,12.320336],[-1.587884,12.32293],[-1.588748,12.324824],[-1.588752,12.324832],[-1.587998,12.326172],[-1.58741,12.327216],[-1.596368,12.329812],[-1.602174,12.327741],[-1.603891,12.32528],[-1.603676,12.329069],[-1.6038,12.333319],[-1.603784,12.333388],[-1.590724,12.337648],[-1.587541,12.338836],[-1.587451,12.33887],[-1.581345,12.341149],[-1.579323,12.341739],[-1.578158,12.342154],[-1.572698,12.342603],[-1.563488,12.327839]]]},"properties":{"nom":"SECTEUR 27","arrondissement":"ARDT. 6","population_totale":43329,"hommes":21198,"femmes":22131,"pourcentage_femmes":51.1,"superficie_ha":650.0,"densite_hab_ha":66.7}},{"type":"Feature","geometry":{"type":"Polygon","coordinates":[[[-1.553601,12.411193],[-1.553515,12.411181],[-1.55444,12.405039],[-1.554428,12.405039],[-1.55183,12.403146],[-1.551868,12.4027],[-1.551206,12.40256],[-1.550308,12.400978],[-1.550073,12.399401],[-1.549657,12.398884],[-1.548139,12.396032],[-1.547446,12.395274],[-1.550083,12.391244],[-1.552401,12.388172],[-1.552879,12.387385],[-1.552892,12.387382],[-1.552896,12.387382],[-1.553005,12.387357],[-1.553065,12.387331],[-1.553066,12.38733],[-1.553096,12.387317],[-1.55322,12.387263],[-1.553249,12.387249],[-1.553251,12.387248],[-1.553313,12.387216],[-1.553342,12.387188],[-1.553342,12.387185],[-1.553345,12.387183],[-1.553355,12.387152],[-1.55336,12.387137],[-1.55336,12.387132],[-1.553364,12.387127],[-1.553368,12.387114],[-1.553369,12.387111],[-1.553371,12.387108],[-1.553376,12.387051],[-1.553376,12.387017],[-1.553376,12.386954],[-1.553383,12.386903],[-1.553387,12.3869],[-1.553387,12.386884],[-1.553436,12.386794],[-1.553469,12.386757],[-1.553478,12.386754],[-1.553482,12.386747],[-1.553506,12.386732],[-1.553531,12.386721],[-1.55361,12.386708],[-1.553689,12.386695],[-1.553774,12.386673],[-1.553842,12.386641],[-1.553908,12.386618],[-1.553954,12.386605],[-1.553957,12.386605],[-1.554022,12.386583],[-1.55407,12.386551],[-1.554094,12.386525],[-1.554117,12.386511],[-1.554165,12.386458],[-1.554356,12.386231],[-1.554477,12.3861],[-1.55459,12.385962],[-1.554718,12.385817],[-1.55481,12.38572],[-1.554895,12.385631],[-1.554981,12.385499],[-1.555144,12.385334],[-1.555158,12.385292],[-1.555491,12.385298],[-1.555558,12.385244],[-1.555569,12.385244],[-1.555979,12.384978],[-1.555503,12.384864],[-1.555413,12.384819],[-1.555065,12.38472],[-1.554703,12.384555],[-1.554682,12.384545],[-1.554545,12.384481],[-1.554212,12.384191],[-1.554192,12.384185],[-1.554113,12.384168],[-1.554038,12.384126],[-1.553975,12.384091],[-1.553846,12.383984],[-1.553703,12.383896],[-1.553627,12.38381],[-1.553625,12.383813],[-1.553603,12.383785],[-1.553597,12.383726],[-1.553599,12.383713],[-1.553651,12.383461],[-1.553724,12.38339],[-1.554015,12.383262],[-1.554206,12.383153],[-1.554345,12.383037],[-1.554432,12.382824],[-1.554512,12.382707],[-1.554644,12.382708],[-1.554763,12.382709],[-1.554855,12.38269],[-1.554954,12.382626],[-1.555073,12.382568],[-1.555179,12.382542],[-1.555311,12.382543],[-1.555469,12.382589],[-1.555474,12.382597],[-1.555476,12.382588],[-1.555477,12.38259],[-1.555552,12.382606],[-1.555594,12.382607],[-1.55564,12.382586],[-1.555678,12.382549],[-1.555703,12.382513],[-1.55572,12.382472],[-1.555758,12.382402],[-1.555813,12.382299],[-1.555881,12.382188],[-1.555927,12.382152],[-1.555973,12.382141],[-1.55598,12.382142],[-1.556097,12.382149],[-1.556256,12.382141],[-1.556381,12.382125],[-1.556515,12.382102],[-1.556624,12.38202],[-1.556766,12.381914],[-1.556817,12.381865],[-1.556851,12.3818],[-1.556909,12.381759],[-1.556943,12.381743],[-1.557052,12.381718],[-1.557135,12.381678],[-1.557211,12.381654],[-1.557319,12.381597],[-1.557428,12.38154],[-1.55752,12.381507],[-1.557546,12.381499],[-1.557613,12.381426],[-1.557655,12.38136],[-1.557705,12.381279],[-1.557739,12.381254],[-1.55789,12.381181],[-1.557965,12.381149],[-1.558116,12.381108],[-1.558199,12.381092],[-1.558233,12.381109],[-1.558299,12.381142],[-1.558336,12.381114],[-1.558383,12.381062],[-1.55843,12.380977],[-1.558491,12.380879],[-1.558552,12.380807],[-1.558592,12.380768],[-1.558672,12.380742],[-1.558793,12.38071],[-1.558853,12.380703],[-1.558913,12.380671],[-1.558987,12.380625],[-1.559061,12.380606],[-1.559148,12.380587],[-1.559208,12.380534],[-1.559242,12.380475],[-1.559316,12.380404],[-1.55941,12.380345],[-1.559597,12.380307],[-1.559684,12.380281],[-1.559764,12.380229],[-1.559919,12.380098],[-1.560046,12.38002],[-1.56024,12.379929],[-1.560294,12.379949],[-1.560474,12.37997],[-1.560688,12.379977],[-1.560835,12.379978],[-1.560955,12.380025],[-1.561115,12.380098],[-1.561315,12.380217],[-1.561481,12.380336],[-1.561607,12.380435],[-1.561701,12.380469],[-1.561748,12.380476],[-1.561788,12.38045],[-1.561801,12.380417],[-1.561803,12.380193],[-1.56181,12.380128],[-1.56183,12.380042],[-1.561851,12.379964],[-1.561885,12.379852],[-1.561892,12.379773],[-1.561952,12.379754],[-1.561979,12.379781],[-1.562038,12.37986],[-1.562098,12.379952],[-1.562164,12.380018],[-1.562325,12.380039],[-1.562485,12.380066],[-1.562598,12.380073],[-1.562719,12.380047],[-1.56292,12.37995],[-1.563081,12.379852],[-1.563208,12.379761],[-1.563363,12.379656],[-1.563497,12.379559],[-1.563602,12.379473],[-1.563686,12.379334],[-1.563737,12.37917],[-1.563812,12.379105],[-1.563904,12.379089],[-1.563938,12.379007],[-1.563966,12.378555],[-1.564003,12.377825],[-1.564087,12.377842],[-1.564094,12.377981],[-1.56421,12.378203],[-1.564334,12.378442],[-1.564434,12.378492],[-1.564509,12.378476],[-1.564676,12.378485],[-1.564893,12.378577],[-1.56496,12.378561],[-1.565027,12.378553],[-1.565093,12.378619],[-1.565134,12.378685],[-1.565251,12.378685],[-1.565402,12.378645],[-1.565536,12.378613],[-1.565628,12.378622],[-1.565886,12.378762],[-1.566019,12.378796],[-1.566228,12.378772],[-1.566596,12.378684],[-1.566764,12.378628],[-1.566847,12.378554],[-1.566923,12.378415],[-1.566974,12.378349],[-1.567033,12.378259],[-1.567092,12.378194],[-1.567125,12.378129],[-1.567193,12.378063],[-1.567334,12.378097],[-1.56741,12.378056],[-1.567485,12.378007],[-1.567544,12.377999],[-1.56771,12.378058],[-1.567844,12.378075],[-1.567928,12.378034],[-1.567953,12.378018],[-1.568128,12.378109],[-1.568211,12.3782],[-1.568243,12.378381],[-1.568243,12.378496],[-1.568209,12.37861],[-1.568116,12.378782],[-1.568006,12.378946],[-1.567914,12.379028],[-1.567872,12.379142],[-1.567871,12.379257],[-1.567954,12.379332],[-1.56813,12.379333],[-1.568355,12.379317],[-1.568614,12.379261],[-1.568723,12.379213],[-1.568932,12.379222],[-1.569041,12.379239],[-1.569097,12.379518],[-1.569197,12.37956],[-1.569398,12.379577],[-1.569542,12.379575],[-1.569355,12.380788],[-1.569229,12.38173],[-1.569487,12.381732],[-1.569609,12.381717],[-1.569747,12.381583],[-1.569864,12.381574],[-1.569881,12.381559],[-1.570005,12.381578],[-1.570158,12.381682],[-1.57031,12.381768],[-1.570453,12.381825],[-1.570596,12.381844],[-1.570778,12.381808],[-1.571036,12.381753],[-1.571419,12.38168],[-1.571524,12.38168],[-1.571696,12.381615],[-1.572317,12.381562],[-1.572856,12.381486],[-1.573874,12.381304],[-1.574967,12.381287],[-1.575846,12.381269],[-1.576257,12.381489],[-1.576425,12.381572],[-1.57649,12.381588],[-1.576648,12.381574],[-1.576742,12.381385],[-1.576772,12.381355],[-1.577035,12.381208],[-1.577086,12.381199],[-1.577408,12.3812],[-1.577416,12.381197],[-1.577415,12.381204],[-1.577387,12.381774],[-1.577326,12.381952],[-1.577294,12.382089],[-1.573157,12.406152],[-1.572583,12.409489],[-1.572586,12.409494],[-1.572326,12.411903],[-1.564781,12.411958],[-1.560843,12.411811],[-1.55693,12.411477],[-1.556902,12.411486],[-1.553888,12.411233],[-1.553842,12.411227],[-1.553601,12.411193]]]},"properties":{"nom":"SECTEUR 16","arrondissement":"ARDT 3","population_totale":71628,"hommes":34747,"femmes":36881,"pourcentage_femmes":51.5,"superficie_ha":874.4,"densite_hab_ha":81.9}},{"type":"Feature","geometry":{"type":"Polygon","coordinates":[[[-1.549722,12.433009],[-1.549726,12.432984],[-1.552613,12.417126],[-1.55285,12.415538],[-1.552869,12.415463],[-1.553515,12.411181],[-1.553601,12.411193],[-1.553842,12.411227],[-1.553888,12.411233],[-1.556902,12.411486],[-1.55693,12.411477],[-1.560843,12.411811],[-1.564781,12.411958],[-1.572326,12.411903],[-1.57484,12.411885],[-1.583915,12.411806],[-1.588628,12.409419],[-1.592253,12.415557],[-1.591637,12.418932],[-1.588112,12.420809],[-1.592585,12.429009],[-1.593469,12.432519],[-1.593835,12.438791],[-1.593486,12.440023],[-1.596137,12.449232],[-1.597859,12.455441],[-1.588745,12.455771],[-1.57549,12.473283],[-1.555893,12.444438],[-1.550277,12.445914],[-1.548944,12.441172],[-1.548687,12.439939],[-1.549722,12.433009]]]},"properties":{"nom":"SECTEUR 38","arrondissement":"ARDT. 9","population_totale":88174,"hommes":46384,"femmes":41790,"pourcentage_femmes":47.4,"superficie_ha":4131.0,"densite_hab_ha":21.3}},{"type":"Feature","geometry":{"type":"Polygon","coordinates":[[[-1.473586,12.406726],[-1.470263,12.392685],[-1.470226,12.392529],[-1.468005,12.38308],[-1.476605,12.381],[-1.477001,12.380924],[-1.477239,12.380965],[-1.479965,12.382304],[-1.480321,12.382442],[-1.481747,12.382513],[-1.482316,12.382672],[-1.482848,12.38389],[-1.48319,12.385014],[-1.483721,12.386388],[-1.48403,12.38776],[-1.484307,12.389257],[-1.495385,12.386639],[-1.501038,12.385383],[-1.501866,12.385199],[-1.501867,12.385196],[-1.50192,12.385176],[-1.501931,12.385171],[-1.502142,12.38509],[-1.502064,12.38553],[-1.501996,12.385911],[-1.501994,12.385911],[-1.501937,12.385955],[-1.50186,12.386014],[-1.501867,12.38605],[-1.501848,12.386063],[-1.501791,12.386373],[-1.50144,12.387867],[-1.501285,12.388721],[-1.501023,12.390455],[-1.498114,12.396384],[-1.498109,12.396394],[-1.498049,12.396446],[-1.481622,12.410627],[-1.477997,12.413557],[-1.477752,12.413313],[-1.475339,12.409114],[-1.474185,12.40657],[-1.473586,12.406726]]]},"properties":{"nom":"SECTEUR 21","arrondissement":"ARDT . 5","population_totale":29085,"hommes":14333,"femmes":14752,"pourcentage_femmes":50.7,"superficie_ha":721.9,"densite_hab_ha":40.3}},{"type":"Feature","geometry":{"type":"Polygon","coordinates":[[[-1.441345,12.418227],[-1.443861,12.417819],[-1.445607,12.417321],[-1.451487,12.416213],[-1.452007,12.415708],[-1.462335,12.415767],[-1.473805,12.407648],[-1.473586,12.406726],[-1.474185,12.40657],[-1.475339,12.409114],[-1.477752,12.413313],[-1.477997,12.413557],[-1.473982,12.416803],[-1.471335,12.419038],[-1.46799,12.421904],[-1.46787,12.42196],[-1.457939,12.43022],[-1.457633,12.430521],[-1.445922,12.440152],[-1.445794,12.440256],[-1.445792,12.440224],[-1.445127,12.432863],[-1.441845,12.420281],[-1.441345,12.418227]]]},"properties":{"nom":"SECTEUR 41","arrondissement":"ARDT. 10","population_totale":30193,"hommes":15685,"femmes":14508,"pourcentage_femmes":48.1,"superficie_ha":509.1,"densite_hab_ha":59.3}},{"type":"Feature","geometry":{"type":"Polygon","coordinates":[[[-1.445794,12.440256],[-1.445922,12.440152],[-1.457633,12.430521],[-1.457939,12.43022],[-1.471335,12.419038],[-1.473982,12.416803],[-1.477997,12.413557],[-1.481622,12.410627],[-1.498049,12.396446],[-1.508955,12.408618],[-1.509011,12.408653],[-1.511597,12.411565],[-1.513289,12.411772],[-1.513059,12.413676],[-1.51304,12.413857],[-1.512779,12.416331],[-1.512733,12.416766],[-1.512496,12.419003],[-1.49849,12.429434],[-1.498216,12.429584],[-1.49793,12.429734],[-1.497537,12.42986],[-1.496776,12.430044],[-1.496229,12.430075],[-1.495586,12.430034],[-1.495223,12.430316],[-1.485209,12.439518],[-1.479311,12.500527],[-1.472327,12.500487],[-1.462067,12.500273],[-1.461135,12.485398],[-1.459965,12.465471],[-1.446936,12.450815],[-1.44133,12.444108],[-1.445794,12.440256]]]},"properties":{"nom":"SECTEUR 19","arrondissement":"ARDT. 4","population_totale":76969,"hommes":39961,"femmes":37008,"pourcentage_femmes":48.1,"superficie_ha":2262.3,"densite_hab_ha":34.0}},{"type":"Feature","geometry":{"type":"Polygon","coordinates":[[[-1.516268,12.392265],[-1.516581,12.39089],[-1.516519,12.390576],[-1.516393,12.390231],[-1.516282,12.390027],[-1.516094,12.389682],[-1.516003,12.388898],[-1.515965,12.388825],[-1.515761,12.386964],[-1.515762,12.386959],[-1.516214,12.386977],[-1.523699,12.385905],[-1.523977,12.385849],[-1.524687,12.386157],[-1.524962,12.386228],[-1.525386,12.386266],[-1.525613,12.386261],[-1.525708,12.386239],[-1.52587,12.386111],[-1.525893,12.385938],[-1.526033,12.38581],[-1.52623,12.385782],[-1.526442,12.385862],[-1.526574,12.385877],[-1.527057,12.385932],[-1.527246,12.385924],[-1.527341,12.385924],[-1.527478,12.385979],[-1.527656,12.385919],[-1.527737,12.385732],[-1.527879,12.385674],[-1.527993,12.385691],[-1.528151,12.385599],[-1.528228,12.385527],[-1.528411,12.385455],[-1.528448,12.385452],[-1.528507,12.385406],[-1.528705,12.385328],[-1.528851,12.385314],[-1.529064,12.385294],[-1.529188,12.385287],[-1.529341,12.385281],[-1.529382,12.385286],[-1.529458,12.385296],[-1.529663,12.38529],[-1.52981,12.385269],[-1.529927,12.385227],[-1.529997,12.385198],[-1.530015,12.385191],[-1.530117,12.385163],[-1.530176,12.385142],[-1.530278,12.385157],[-1.530417,12.385179],[-1.530534,12.38518],[-1.530644,12.385159],[-1.530849,12.385059],[-1.531084,12.384974],[-1.531179,12.384939],[-1.531238,12.384896],[-1.531363,12.384846],[-1.531458,12.384811],[-1.53148,12.384809],[-1.531553,12.384804],[-1.531634,12.384747],[-1.531678,12.384688],[-1.531964,12.384512],[-1.532137,12.384465],[-1.532294,12.384449],[-1.532389,12.384356],[-1.532712,12.384221],[-1.533363,12.38421],[-1.533766,12.384126],[-1.53403,12.383933],[-1.534308,12.383985],[-1.534446,12.384137],[-1.534408,12.384388],[-1.534413,12.38474],[-1.534382,12.385028],[-1.534352,12.385215],[-1.534234,12.385451],[-1.534086,12.385594],[-1.533745,12.385773],[-1.533449,12.386156],[-1.533769,12.386182],[-1.534251,12.38617],[-1.53477,12.386223],[-1.535056,12.386139],[-1.535203,12.38596],[-1.53538,12.385853],[-1.535482,12.385932],[-1.535576,12.385957],[-1.53575,12.386072],[-1.535797,12.386409],[-1.535453,12.386792],[-1.535853,12.386855],[-1.536633,12.386718],[-1.536838,12.386469],[-1.537025,12.386572],[-1.537404,12.38672],[-1.537699,12.386825],[-1.538131,12.386952],[-1.538489,12.387026],[-1.538932,12.387112],[-1.539711,12.387427],[-1.53988,12.387511],[-1.540123,12.387512],[-1.540439,12.387525],[-1.540713,12.387536],[-1.540903,12.387589],[-1.541135,12.387684],[-1.54145,12.387935],[-1.541659,12.388268],[-1.541859,12.388487],[-1.542355,12.3885],[-1.543274,12.388318],[-1.543992,12.388187],[-1.544574,12.387972],[-1.544609,12.387941],[-1.544635,12.387943],[-1.544688,12.387896],[-1.544826,12.38787],[-1.544932,12.387854],[-1.545054,12.387854],[-1.545187,12.387839],[-1.545309,12.387828],[-1.54547,12.387802],[-1.545681,12.387765],[-1.545876,12.38775],[-1.545992,12.38775],[-1.546081,12.387762],[-1.546136,12.387795],[-1.546207,12.387847],[-1.546219,12.387855],[-1.546307,12.38791],[-1.546368,12.387932],[-1.546401,12.38796],[-1.546429,12.387987],[-1.546446,12.387971],[-1.546585,12.387906],[-1.546702,12.387852],[-1.546802,12.387771],[-1.546924,12.387684],[-1.546986,12.387614],[-1.547053,12.387527],[-1.547148,12.387446],[-1.547253,12.387364],[-1.547297,12.387331],[-1.547337,12.387299],[-1.547398,12.387278],[-1.547498,12.387262],[-1.547509,12.387265],[-1.547618,12.387231],[-1.547976,12.387254],[-1.548178,12.387089],[-1.548294,12.387006],[-1.548505,12.386987],[-1.548822,12.38702],[-1.549023,12.386969],[-1.549435,12.386857],[-1.549773,12.386807],[-1.549985,12.386715],[-1.550137,12.386606],[-1.550345,12.386478],[-1.55156,12.386246],[-1.552617,12.385919],[-1.552735,12.385547],[-1.55275,12.384717],[-1.55292,12.38452],[-1.553228,12.384273],[-1.553419,12.384077],[-1.553625,12.383813],[-1.553627,12.38381],[-1.553703,12.383896],[-1.553846,12.383984],[-1.553975,12.384091],[-1.554038,12.384126],[-1.554113,12.384168],[-1.554192,12.384185],[-1.554212,12.384191],[-1.554545,12.384481],[-1.554682,12.384545],[-1.554703,12.384555],[-1.555065,12.38472],[-1.555413,12.384819],[-1.555503,12.384864],[-1.555979,12.384978],[-1.555569,12.385244],[-1.555558,12.385244],[-1.555491,12.385298],[-1.555158,12.385292],[-1.555144,12.385334],[-1.554981,12.385499],[-1.554895,12.385631],[-1.55481,12.38572],[-1.554718,12.385817],[-1.55459,12.385962],[-1.554477,12.3861],[-1.554356,12.386231],[-1.554165,12.386458],[-1.554117,12.386511],[-1.554094,12.386525],[-1.55407,12.386551],[-1.554022,12.386583],[-1.553957,12.386605],[-1.553954,12.386605],[-1.553908,12.386618],[-1.553842,12.386641],[-1.553774,12.386673],[-1.553689,12.386695],[-1.55361,12.386708],[-1.553531,12.386721],[-1.553506,12.386732],[-1.553482,12.386747],[-1.553478,12.386754],[-1.553469,12.386757],[-1.553436,12.386794],[-1.553387,12.386884],[-1.553387,12.3869],[-1.553383,12.386903],[-1.553376,12.386954],[-1.553376,12.387017],[-1.553376,12.387051],[-1.553371,12.387108],[-1.553369,12.387111],[-1.553368,12.387114],[-1.553364,12.387127],[-1.55336,12.387132],[-1.55336,12.387137],[-1.553355,12.387152],[-1.553345,12.387183],[-1.553342,12.387185],[-1.553342,12.387188],[-1.553313,12.387216],[-1.553251,12.387248],[-1.553249,12.387249],[-1.55322,12.387263],[-1.553096,12.387317],[-1.553066,12.38733],[-1.553065,12.387331],[-1.553005,12.387357],[-1.552896,12.387382],[-1.552892,12.387382],[-1.552879,12.387385],[-1.552401,12.388172],[-1.550083,12.391244],[-1.547446,12.395274],[-1.548139,12.396032],[-1.549657,12.398884],[-1.550073,12.399401],[-1.550308,12.400978],[-1.551206,12.40256],[-1.551868,12.4027],[-1.55183,12.403146],[-1.554428,12.405039],[-1.55444,12.405039],[-1.553515,12.411181],[-1.552869,12.415463],[-1.55285,12.415538],[-1.552859,12.415479],[-1.552858,12.415475],[-1.552667,12.415451],[-1.540725,12.413907],[-1.533175,12.413208],[-1.517358,12.42661],[-1.517315,12.426646],[-1.514477,12.42905],[-1.514448,12.429075],[-1.511938,12.43119],[-1.511137,12.431864],[-1.512496,12.419003],[-1.512733,12.416766],[-1.512779,12.416331],[-1.51304,12.413857],[-1.513059,12.413676],[-1.513289,12.411772],[-1.514222,12.404044],[-1.514439,12.399861],[-1.514437,12.399846],[-1.514451,12.399627],[-1.514481,12.399181],[-1.514588,12.397589],[-1.514827,12.397241],[-1.516268,12.392265]]]},"properties":{"nom":"SECTEUR 17","arrondissement":"ARDT. 4","population_totale":64694,"hommes":32165,"femmes":32529,"pourcentage_femmes":50.3,"superficie_ha":1407.7,"densite_hab_ha":46.0}},{"type":"Feature","geometry":{"type":"Polygon","coordinates":[[[-1.514481,12.399181],[-1.514451,12.399627],[-1.514437,12.399846],[-1.514439,12.399861],[-1.514222,12.404044],[-1.513289,12.411772],[-1.511597,12.411565],[-1.509011,12.408653],[-1.508955,12.408618],[-1.498049,12.396446],[-1.498109,12.396394],[-1.498114,12.396384],[-1.501023,12.390455],[-1.501285,12.388721],[-1.50144,12.387867],[-1.501791,12.386373],[-1.501848,12.386063],[-1.501867,12.38605],[-1.50186,12.386014],[-1.501937,12.385955],[-1.501994,12.385911],[-1.501996,12.385911],[-1.50401,12.386047],[-1.504397,12.386014],[-1.505023,12.385942],[-1.50548,12.385854],[-1.505571,12.385843],[-1.505844,12.385765],[-1.508344,12.385057],[-1.50844,12.385072],[-1.509958,12.385306],[-1.510886,12.385745],[-1.511067,12.385847],[-1.51235,12.386571],[-1.51323,12.386768],[-1.514795,12.386921],[-1.515761,12.386959],[-1.515762,12.386959],[-1.515761,12.386964],[-1.515965,12.388825],[-1.516003,12.388898],[-1.516094,12.389682],[-1.516282,12.390027],[-1.516393,12.390231],[-1.516519,12.390576],[-1.516581,12.39089],[-1.516268,12.392265],[-1.514827,12.397241],[-1.514588,12.397589],[-1.514481,12.399181]]]},"properties":{"nom":"SECTEUR 18","arrondissement":"ARDT. 4","population_totale":18047,"hommes":8927,"femmes":9120,"pourcentage_femmes":50.5,"superficie_ha":380.9,"densite_hab_ha":47.4}}]}