{"type":"FeatureCollection","features":[{"type":"Feature","geometry":{"type":"Polygon","coordinates":[[[-1.543991,12.298752],[-1.545973,12.298751],[-1.548492,12.301034],[-1.543918,12.300526],[-1.543991,12.298752]]]},"properties":{"nom":"Ceinture verte"}},{"type":"Feature","geometry":{"type":"Polygon","coordinates":[[[-1.597317,12.331354],[-1.595805,12.331932],[-1.594532,12.333248],[-1.593664,12.334092],[-1.594132,12.3355],[-1.594374,12.335741],[-1.586855,12.338381],[-1.585007,12.334702],[-1.586691,12.333963],[-1.58547,12.331121],[-1.587004,12.328885],[-1.585167,12.322736],[-1.580846,12.316207],[-1.574556,12.310566],[-1.572823,12.303283],[-1.549292,12.301188],[-1.546803,12.298334],[-1.574513,12.300581],[-1.57525,12.303485],[-1.576175,12.309577],[-1.576178,12.309597],[-1.582629,12.314615],[-1.585843,12.318544],[-1.587025,12.320861],[-1.588738,12.324773],[-1.587415,12.327153],[-1.597019,12.329905],[-1.597359,12.329775],[-1.597317,12.331354]]]},"properties":{"nom":"Ceinture verte"}},{"type":"Feature","geometry":{"type":"Polygon","coordinates":[[[-1.603653,12.329274],[-1.601531,12.329981],[-1.601444,12.329763],[-1.601688,12.328329],[-1.602011,12.328206],[-1.604502,12.324604],[-1.607617,12.324649],[-1.608468,12.325802],[-1.603653,12.329274]]]},"properties":{"nom":"Ceinture verte"}},{"type":"Feature","geometry":{"type":"Polygon","coordinates":[[[-1.590847,12.348425],[-1.5912,12.349384],[-1.591183,12.349422],[-1.591168,12.34943],[-1.591153,12.349437],[-1.591137,12.349443],[-1.591122,12.349449],[-1.591106,12.349456],[-1.591091,12.349461],[-1.591075,12.349467],[-1.591058,12.349472],[-1.591043,12.349477],[-1.591027,12.349481],[-1.59101,12.349486],[-1.590994,12.34949],[-1.590978,12.349495],[-1.590961,12.349498],[-1.590944,12.349501],[-1.590928,12.349504],[-1.590912,12.349507],[-1.590895,12.349509],[-1.590878,12.349511],[-1.590862,12.349513],[-1.590844,12.349515],[-1.590828,12.349516],[-1.590811,12.349517],[-1.590794,12.349518],[-1.590777,12.349518],[-1.59076,12.349518],[-1.590744,12.349518],[-1.590727,12.349518],[-1.59071,12.349517],[-1.590693,12.349517],[-1.590677,12.349514],[-1.590659,12.349513],[-1.590643,12.349512],[-1.590626,12.34951],[-1.590609,12.349507],[-1.590593,12.349504],[-1.590576,12.349502],[-1.59056,12.349498],[-1.590543,12.349495],[-1.590527,12.34949],[-1.590511,12.349486],[-1.590495,12.349482],[-1.590478,12.349477],[-1.590462,12.349473],[-1.590446,12.349467],[-1.59043,12.349461],[-1.590415,12.349455],[-1.590399,12.34945],[-1.590383,12.349443],[-1.590368,12.349437],[-1.590352,12.34943],[-1.590345,12.349426],[-1.590847,12.348425]]]},"properties":{"nom":"Ceinture verte"}},{"type":"Feature","geometry":{"type":"Polygon","coordinates":[[[-1.590532,12.347651],[-1.590567,12.347667],[-1.590599,12.347755],[-1.589715,12.348547],[-1.589712,12.348539],[-1.589525,12.348069],[-1.589541,12.348033],[-1.590532,12.347651]]]},"properties":{"nom":"Ceinture verte"}},{"type":"Feature","geometry":{"type":"Polygon","coordinates":[[[-1.590599,12.347755],[-1.590603,12.347765],[-1.590831,12.348383],[-1.590847,12.348425],[-1.590345,12.349426],[-1.590337,12.349422],[-1.590322,12.349415],[-1.590308,12.349407],[-1.590293,12.349399],[-1.590278,12.349391],[-1.590257,12.34938],[-1.590243,12.349371],[-1.590229,12.349362],[-1.590215,12.349353],[-1.590201,12.349344],[-1.590187,12.349333],[-1.590174,12.349323],[-1.590161,12.349314],[-1.590148,12.349303],[-1.590135,12.349292],[-1.590122,12.349282],[-1.590109,12.349271],[-1.590097,12.349259],[-1.590085,12.349248],[-1.590073,12.349237],[-1.590061,12.349224],[-1.59005,12.349212],[-1.590039,12.3492],[-1.590027,12.349188],[-1.590016,12.349174],[-1.590006,12.349162],[-1.589996,12.349149],[-1.589985,12.349136],[-1.589975,12.349122],[-1.589965,12.349108],[-1.589956,12.349095],[-1.589947,12.349081],[-1.589938,12.349068],[-1.58993,12.349053],[-1.589921,12.349038],[-1.589913,12.349025],[-1.589905,12.34901],[-1.589897,12.348995],[-1.58989,12.34898],[-1.589882,12.348965],[-1.589876,12.34895],[-1.589869,12.348935],[-1.589863,12.348919],[-1.589857,12.348903],[-1.589851,12.348889],[-1.589845,12.348873],[-1.589715,12.348547],[-1.590599,12.347755]]]},"properties":{"nom":"Ceinture verte"}},{"type":"Feature","geometry":{"type":"Polygon","coordinates":[[[-1.604558,12.35516],[-1.604607,12.355173],[-1.607358,12.357258],[-1.607369,12.357299],[-1.605767,12.361107],[-1.604359,12.365899],[-1.604324,12.365927],[-1.597277,12.366484],[-1.597247,12.366459],[-1.597129,12.365013],[-1.597201,12.364613],[-1.599339,12.358574],[-1.599373,12.358537],[-1.602633,12.356978],[-1.60303,12.355305],[-1.603064,12.355276],[-1.604558,12.35516]]]},"properties":{"nom":"Ceinture verte"}},{"type":"Feature","geometry":{"type":"Polygon","coordinates":[[[-1.608368,12.354862],[-1.608386,12.354884],[-1.6075,12.35699],[-1.607467,12.356997],[-1.605017,12.355142],[-1.605023,12.355124],[-1.608368,12.354862]]]},"properties":{"nom":"Ceinture verte"}},{"type":"Feature","geometry":{"type":"Polygon","coordinates":[[[-1.610499,12.347451],[-1.610528,12.347472],[-1.611124,12.354165],[-1.611099,12.354194],[-1.60448,12.354712],[-1.604431,12.354698],[-1.603388,12.353908],[-1.603372,12.353865],[-1.603958,12.351398],[-1.603517,12.349109],[-1.603538,12.349077],[-1.610499,12.347451]]]},"properties":{"nom":"Ceinture verte"}},{"type":"Feature","geometry":{"type":"Polygon","coordinates":[[[-1.603669,12.348847],[-1.603637,12.348826],[-1.603072,12.345895],[-1.600973,12.339732],[-1.600991,12.3397],[-1.606561,12.338447],[-1.606567,12.338454],[-1.606574,12.338464],[-1.606581,12.33847],[-1.606588,12.338478],[-1.606595,12.338485],[-1.606603,12.338493],[-1.606611,12.3385],[-1.60662,12.338506],[-1.606628,12.338512],[-1.606637,12.338518],[-1.606646,12.338524],[-1.606655,12.338528],[-1.606664,12.338534],[-1.606674,12.338539],[-1.606684,12.338543],[-1.606693,12.338547],[-1.606703,12.33855],[-1.606714,12.338554],[-1.606723,12.338557],[-1.606734,12.338559],[-1.606744,12.338562],[-1.606757,12.338564],[-1.608393,12.345535],[-1.610469,12.347236],[-1.610464,12.34726],[-1.603669,12.348847]]]},"properties":{"nom":"Ceinture verte"}},{"type":"Feature","geometry":{"type":"Polygon","coordinates":[[[-1.591561,12.347414],[-1.591531,12.347443],[-1.590794,12.347502],[-1.590757,12.347479],[-1.58765,12.339056],[-1.587667,12.339021],[-1.590556,12.338022],[-1.590595,12.338037],[-1.593381,12.343317],[-1.593392,12.34333],[-1.593406,12.343349],[-1.593419,12.343367],[-1.593431,12.343385],[-1.593444,12.343404],[-1.593456,12.343423],[-1.593468,12.343443],[-1.593479,12.343462],[-1.59349,12.343481],[-1.593501,12.3435],[-1.593512,12.343521],[-1.593522,12.343541],[-1.593531,12.343562],[-1.593541,12.343582],[-1.59355,12.343602],[-1.593559,12.343623],[-1.593567,12.343643],[-1.593575,12.343665],[-1.593582,12.343686],[-1.593589,12.343708],[-1.593596,12.343728],[-1.593602,12.34375],[-1.593608,12.343772],[-1.593614,12.343794],[-1.593619,12.343815],[-1.593624,12.343837],[-1.593629,12.343859],[-1.593633,12.343881],[-1.593636,12.343903],[-1.593639,12.343925],[-1.593643,12.343948],[-1.593645,12.34397],[-1.593647,12.343993],[-1.593649,12.344014],[-1.59365,12.344037],[-1.593651,12.344059],[-1.593651,12.344082],[-1.593652,12.344105],[-1.593651,12.344126],[-1.59365,12.344149],[-1.593649,12.344171],[-1.593648,12.344194],[-1.593646,12.344217],[-1.593643,12.344238],[-1.593641,12.344261],[-1.593638,12.344283],[-1.593634,12.344305],[-1.59363,12.344327],[-1.593626,12.344349],[-1.593621,12.344371],[-1.593617,12.344393],[-1.593611,12.344414],[-1.593606,12.344437],[-1.593599,12.344458],[-1.593593,12.34448],[-1.593586,12.344501],[-1.593579,12.344521],[-1.59357,12.344543],[-1.593562,12.344564],[-1.593554,12.344584],[-1.593545,12.344605],[-1.593536,12.344626],[-1.593527,12.344647],[-1.593517,12.344667],[-1.593506,12.344686],[-1.593496,12.344706],[-1.593485,12.344725],[-1.593473,12.344746],[-1.593462,12.344765],[-1.59345,12.344784],[-1.593437,12.344802],[-1.593425,12.344821],[-1.593412,12.344839],[-1.593399,12.344857],[-1.593385,12.344875],[-1.593371,12.344893],[-1.593357,12.344911],[-1.593342,12.344928],[-1.593328,12.344945],[-1.593312,12.344962],[-1.593297,12.344979],[-1.593281,12.344994],[-1.593265,12.34501],[-1.593248,12.345026],[-1.593232,12.345042],[-1.593215,12.345056],[-1.593198,12.345071],[-1.593181,12.345085],[-1.593163,12.3451],[-1.593145,12.345114],[-1.593127,12.345127],[-1.593109,12.34514],[-1.59309,12.345153],[-1.593071,12.345166],[-1.593052,12.345179],[-1.593033,12.34519],[-1.593013,12.345202],[-1.592993,12.345213],[-1.592974,12.345225],[-1.592954,12.345235],[-1.592933,12.345245],[-1.592913,12.345255],[-1.592892,12.345265],[-1.592872,12.345274],[-1.59285,12.345283],[-1.59283,12.34529],[-1.592808,12.345299],[-1.591726,12.345585],[-1.591561,12.347414]]]},"properties":{"nom":"Ceinture verte"}},{"type":"Feature","geometry":{"type":"Polygon","coordinates":[[[-1.600903,12.339441],[-1.600868,12.339422],[-1.599963,12.336765],[-1.599981,12.336735],[-1.606186,12.335792],[-1.60622,12.335815],[-1.606735,12.337978],[-1.606725,12.337981],[-1.606715,12.337984],[-1.606704,12.337987],[-1.606695,12.337991],[-1.606685,12.337995],[-1.606675,12.338],[-1.606666,12.338004],[-1.606657,12.338009],[-1.606647,12.338014],[-1.606638,12.33802],[-1.60663,12.338025],[-1.606621,12.338031],[-1.606613,12.338038],[-1.606605,12.338044],[-1.606597,12.338051],[-1.606589,12.338059],[-1.606582,12.338066],[-1.606575,12.338074],[-1.606568,12.338082],[-1.606561,12.338091],[-1.606555,12.338098],[-1.606549,12.338107],[-1.606543,12.338116],[-1.606538,12.338125],[-1.606534,12.338135],[-1.606529,12.338144],[-1.606525,12.338154],[-1.606521,12.338163],[-1.606515,12.338178],[-1.600903,12.339441]]]},"properties":{"nom":"Ceinture verte"}},{"type":"Feature","geometry":{"type":"Polygon","coordinates":[[[-1.543608,12.301492],[-1.543579,12.301517],[-1.541493,12.30145],[-1.541388,12.301446],[-1.539275,12.301377],[-1.539252,12.30135],[-1.539592,12.298809],[-1.54371,12.298892],[-1.543669,12.300545],[-1.543667,12.300563],[-1.543608,12.301492]]]},"properties":{"nom":"Ceinture verte"}},{"type":"Feature","geometry":{"type":"Polygon","coordinates":[[[-1.539021,12.301342],[-1.53899,12.301369],[-1.533442,12.301189],[-1.533337,12.301185],[-1.529209,12.301051],[-1.529182,12.301023],[-1.529307,12.298633],[-1.539367,12.298808],[-1.539021,12.301342]]]},"properties":{"nom":"Ceinture verte"}},{"type":"Feature","geometry":{"type":"Polygon","coordinates":[[[-1.595166,12.406454],[-1.587869,12.410118],[-1.585621,12.405965],[-1.588724,12.404613],[-1.59293,12.402346],[-1.594482,12.405256],[-1.595166,12.406454]]]},"properties":{"nom":"Ceinture verte"}},{"type":"Feature","geometry":{"type":"Polygon","coordinates":[[[-1.595596,12.406365],[-1.593317,12.402268],[-1.594047,12.401883],[-1.594433,12.401623],[-1.59473,12.401319],[-1.595222,12.400609],[-1.595596,12.399812],[-1.595928,12.39865],[-1.596499,12.396967],[-1.601834,12.39965],[-1.599729,12.404284],[-1.595596,12.406365]]]},"properties":{"nom":"Ceinture verte"}},{"type":"Feature","geometry":{"type":"Polygon","coordinates":[[[-1.601886,12.399491],[-1.596491,12.39679],[-1.596598,12.396253],[-1.59684,12.395178],[-1.599245,12.390683],[-1.604673,12.393503],[-1.60418,12.394474],[-1.601886,12.399491]]]},"properties":{"nom":"Ceinture verte"}},{"type":"Feature","geometry":{"type":"Polygon","coordinates":[[[-1.533198,12.412992],[-1.537823,12.40903],[-1.549274,12.411161],[-1.552601,12.41062],[-1.552318,12.408851],[-1.552206,12.408324],[-1.551576,12.406993],[-1.549722,12.403299],[-1.549141,12.400026],[-1.549987,12.399093],[-1.550234,12.400708],[-1.55113,12.402279],[-1.551767,12.40247],[-1.55179,12.402897],[-1.554381,12.404861],[-1.552792,12.415244],[-1.540793,12.413691],[-1.533198,12.412992]]]},"properties":{"nom":"Ceinture verte"}},{"type":"Feature","geometry":{"type":"Polygon","coordinates":[[[-1.544826,12.396686],[-1.54825,12.394898],[-1.549868,12.39789],[-1.546733,12.400196],[-1.544768,12.396686],[-1.544826,12.396686]]]},"properties":{"nom":"Ceinture verte"}},{"type":"Feature","geometry":{"type":"Polygon","coordinates":[[[-1.547612,12.394177],[-1.544422,12.395938],[-1.54258,12.392369],[-1.542647,12.391393],[-1.542242,12.39136],[-1.542321,12.391321],[-1.5424,12.391292],[-1.54252,12.391249],[-1.542559,12.391228],[-1.542617,12.391196],[-1.542676,12.391167],[-1.542733,12.391134],[-1.542757,12.391114],[-1.542771,12.391096],[-1.542782,12.391076],[-1.542794,12.391031],[-1.542793,12.39099],[-1.542775,12.390958],[-1.542769,12.390926],[-1.542791,12.3909],[-1.54284,12.390873],[-1.542872,12.390859],[-1.542921,12.39084],[-1.542993,12.390788],[-1.543005,12.390769],[-1.542999,12.390748],[-1.542977,12.390718],[-1.542972,12.390692],[-1.542978,12.390654],[-1.542994,12.390627],[-1.54303,12.390596],[-1.543073,12.390581],[-1.543118,12.390574],[-1.543141,12.390572],[-1.5432,12.390568],[-1.543289,12.390569],[-1.543438,12.390566],[-1.543532,12.39056],[-1.543551,12.390538],[-1.543567,12.390491],[-1.543599,12.390405],[-1.543608,12.390382],[-1.543664,12.390264],[-1.543682,12.390235],[-1.543722,12.390178],[-1.543769,12.390125],[-1.543796,12.390104],[-1.543829,12.390096],[-1.543884,12.3901],[-1.543991,12.39009],[-1.544017,12.390091],[-1.544062,12.3901],[-1.544105,12.390115],[-1.544127,12.390123],[-1.5442,12.390164],[-1.544227,12.390194],[-1.544251,12.390228],[-1.544261,12.390246],[-1.54428,12.390286],[-1.544304,12.390347],[-1.544313,12.390386],[-1.544328,12.390441],[-1.544342,12.390467],[-1.544361,12.390489],[-1.544383,12.390495],[-1.544401,12.390481],[-1.54442,12.390468],[-1.544469,12.390451],[-1.544542,12.390429],[-1.54469,12.390383],[-1.54475,12.390368],[-1.544808,12.390353],[-1.544837,12.390343],[-1.544919,12.390299],[-1.544932,12.390281],[-1.544939,12.390243],[-1.54493,12.390203],[-1.544925,12.390183],[-1.544912,12.390157],[-1.544887,12.390121],[-1.544861,12.390047],[-1.544848,12.389958],[-1.544854,12.389896],[-1.544869,12.389856],[-1.544895,12.3898],[-1.544938,12.389705],[-1.544951,12.389683],[-1.544979,12.389645],[-1.545026,12.389589],[-1.545052,12.389551],[-1.54508,12.389512],[-1.545095,12.389495],[-1.54513,12.389463],[-1.545169,12.389437],[-1.545189,12.389424],[-1.545228,12.389406],[-1.545288,12.389382],[-1.54537,12.389335],[-1.54544,12.389298],[-1.545513,12.389255],[-1.545556,12.389248],[-1.545602,12.389245],[-1.545624,12.389245],[-1.545674,12.389248],[-1.545748,12.389255],[-1.545829,12.389257],[-1.54585,12.389257],[-1.545981,12.389253],[-1.546013,12.389251],[-1.546068,12.389245],[-1.54615,12.389233],[-1.546311,12.389217],[-1.546375,12.389202],[-1.54647,12.389178],[-1.546646,12.389138],[-1.546787,12.389111],[-1.546819,12.389097],[-1.546847,12.389077],[-1.546862,12.389053],[-1.546862,12.389028],[-1.546858,12.389003],[-1.546849,12.388973],[-1.546847,12.388912],[-1.546869,12.38888],[-1.546896,12.388849],[-1.546925,12.388822],[-1.546957,12.388797],[-1.546991,12.388781],[-1.547031,12.388775],[-1.547055,12.388756],[-1.547062,12.388781],[-1.547079,12.388792],[-1.547105,12.388794],[-1.547175,12.388773],[-1.547257,12.388738],[-1.547336,12.388708],[-1.547371,12.3887],[-1.547481,12.388693],[-1.547591,12.388689],[-1.547646,12.388684],[-1.547685,12.388677],[-1.547837,12.388633],[-1.547862,12.388625],[-1.547911,12.388605],[-1.547957,12.388581],[-1.548063,12.388504],[-1.548149,12.388442],[-1.548209,12.388404],[-1.548243,12.388388],[-1.548314,12.388359],[-1.548384,12.388332],[-1.548528,12.388266],[-1.54866,12.388211],[-1.548702,12.388195],[-1.548796,12.38817],[-1.548858,12.38815],[-1.548879,12.38814],[-1.54892,12.388119],[-1.548958,12.388092],[-1.549029,12.388014],[-1.549044,12.387997],[-1.549108,12.387935],[-1.549153,12.387898],[-1.549186,12.387876],[-1.549253,12.387849],[-1.549313,12.387822],[-1.549376,12.38778],[-1.549394,12.387765],[-1.549465,12.387702],[-1.549485,12.387684],[-1.549564,12.387611],[-1.549613,12.387557],[-1.549647,12.387522],[-1.5497,12.387478],[-1.549753,12.387443],[-1.549818,12.387419],[-1.549934,12.387403],[-1.55005,12.387383],[-1.55018,12.387357],[-1.550254,12.387339],[-1.550303,12.387329],[-1.550447,12.387315],[-1.550588,12.387296],[-1.550618,12.387293],[-1.550737,12.387282],[-1.550787,12.387279],[-1.550984,12.38727],[-1.551146,12.387266],[-1.551234,12.387263],[-1.551293,12.387259],[-1.551321,12.387256],[-1.551432,12.387235],[-1.551573,12.387206],[-1.551602,12.387202],[-1.55172,12.387182],[-1.55183,12.387175],[-1.551851,12.387171],[-1.551933,12.387159],[-1.551958,12.387158],[-1.552059,12.387157],[-1.552118,12.387166],[-1.552157,12.387172],[-1.55221,12.387171],[-1.552244,12.387168],[-1.552268,12.387162],[-1.552362,12.387136],[-1.552437,12.387111],[-1.552486,12.387092],[-1.552551,12.38706],[-1.552592,12.387034],[-1.550526,12.389775],[-1.547612,12.394177]]]},"properties":{"nom":"Ceinture verte"}},{"type":"Feature","geometry":{"type":"Polygon","coordinates":[[[-1.478191,12.413846],[-1.481172,12.411377],[-1.494078,12.424208],[-1.494556,12.424596],[-1.494946,12.424898],[-1.495293,12.425071],[-1.495684,12.425244],[-1.495989,12.425289],[-1.496294,12.425333],[-1.496642,12.425335],[-1.496904,12.425251],[-1.497297,12.425167],[-1.497602,12.424998],[-1.497908,12.424871],[-1.498259,12.424531],[-1.504778,12.419643],[-1.506508,12.418206],[-1.507973,12.416963],[-1.508498,12.416581],[-1.509764,12.416031],[-1.511451,12.414626],[-1.511995,12.414417],[-1.51275,12.414018],[-1.515272,12.412508],[-1.51811,12.410246],[-1.518347,12.408029],[-1.519137,12.407137],[-1.519249,12.406202],[-1.521526,12.406321],[-1.523951,12.40516],[-1.524799,12.405164],[-1.52588,12.406717],[-1.527373,12.406864],[-1.527453,12.407023],[-1.518219,12.414919],[-1.516856,12.415934],[-1.513607,12.418358],[-1.509488,12.42143],[-1.5009,12.427912],[-1.498812,12.429434],[-1.498435,12.429659],[-1.498116,12.429856],[-1.497943,12.429911],[-1.497624,12.429995],[-1.49719,12.430106],[-1.496988,12.430133],[-1.496728,12.430189],[-1.496265,12.430243],[-1.496063,12.430185],[-1.495832,12.430184],[-1.495515,12.430125],[-1.49514,12.430066],[-1.494851,12.429951],[-1.494506,12.429779],[-1.494131,12.429606],[-1.493671,12.429348],[-1.493383,12.42912],[-1.493009,12.428834],[-1.492779,12.428605],[-1.492492,12.428291],[-1.49209,12.427863],[-1.491746,12.427521],[-1.478191,12.413846]]]},"properties":{"nom":"Ceinture verte"}},{"type":"Feature","geometry":{"type":"Polygon","coordinates":[[[-1.502192,12.295927],[-1.502224,12.295959],[-1.502209,12.300561],[-1.502176,12.300593],[-1.498104,12.30062],[-1.498071,12.300588],[-1.498087,12.295945],[-1.49812,12.295914],[-1.502192,12.295927]]]},"properties":{"nom":"Ceinture verte"}},{"type":"Feature","geometry":{"type":"Polygon","coordinates":[[[-1.507285,12.295978],[-1.507317,12.296011],[-1.507302,12.300564],[-1.507269,12.300596],[-1.503197,12.300623],[-1.503164,12.300591],[-1.50318,12.295998],[-1.503212,12.295966],[-1.507285,12.295978]]]},"properties":{"nom":"Ceinture verte"}},{"type":"Feature","geometry":{"type":"Polygon","coordinates":[[[-1.449437,12.345535],[-1.435094,12.335391],[-1.425274,12.332272],[-1.422602,12.318678],[-1.433924,12.313211],[-1.44061,12.309878],[-1.44818,12.306814],[-1.451035,12.306186],[-1.453387,12.305972],[-1.454542,12.306092],[-1.455388,12.3064],[-1.458193,12.307666],[-1.461848,12.308634],[-1.461452,12.310526],[-1.457185,12.308684],[-1.455649,12.307804],[-1.453453,12.307867],[-1.444691,12.310507],[-1.438136,12.313825],[-1.435923,12.313683],[-1.432759,12.314764],[-1.431461,12.31564],[-1.429522,12.317181],[-1.425524,12.319831],[-1.42768,12.329933],[-1.436104,12.33221],[-1.453348,12.344319],[-1.441923,12.368],[-1.44079,12.376553],[-1.444841,12.385713],[-1.448367,12.39774],[-1.445758,12.398581],[-1.442218,12.386807],[-1.437942,12.377468],[-1.439034,12.367836],[-1.449437,12.345535]]]},"properties":{"nom":"Ceinture verte"}},{"type":"Feature","geometry":{"type":"Polygon","coordinates":[[[-1.477691,12.305293],[-1.479761,12.307802],[-1.475119,12.310318],[-1.47184,12.311095],[-1.470404,12.312754],[-1.468633,12.31263],[-1.466365,12.311708],[-1.46386,12.311694],[-1.464216,12.310143],[-1.474249,12.307509],[-1.477691,12.305293]]]},"properties":{"nom":"Ceinture verte"}},{"type":"Feature","geometry":{"type":"Polygon","coordinates":[[[-1.478108,12.413635],[-1.477882,12.413399],[-1.475382,12.40901],[-1.47431,12.406657],[-1.477007,12.406002],[-1.478074,12.404562],[-1.478099,12.404516],[-1.478579,12.4043],[-1.479897,12.403989],[-1.480413,12.40387],[-1.480338,12.403635],[-1.480199,12.402949],[-1.481556,12.402685],[-1.481764,12.402977],[-1.481907,12.403024],[-1.482393,12.403027],[-1.483044,12.402721],[-1.483931,12.401188],[-1.487086,12.38875],[-1.491101,12.387795],[-1.502148,12.385364],[-1.501125,12.390579],[-1.498178,12.396558],[-1.478108,12.413635]]]},"properties":{"nom":"Ceinture verte"}},{"type":"Feature","geometry":{"type":"Polygon","coordinates":[[[-1.528284,12.295962],[-1.528231,12.3005],[-1.528052,12.300643],[-1.518847,12.300665],[-1.518874,12.295842],[-1.528152,12.295881],[-1.528284,12.295962]]]},"properties":{"nom":"Ceinture verte"}},{"type":"Feature","geometry":{"type":"Polygon","coordinates":[[[-1.526022,12.408835],[-1.528181,12.407106],[-1.530262,12.407126],[-1.530722,12.407922],[-1.53683,12.409284],[-1.532638,12.413081],[-1.528984,12.412204],[-1.526022,12.408835]]]},"properties":{"nom":"Ceinture verte"}},{"type":"Feature","geometry":{"type":"Polygon","coordinates":[[[-1.599421,12.385208],[-1.603623,12.388153],[-1.603576,12.38761],[-1.606444,12.387398],[-1.606616,12.389616],[-1.606572,12.389828],[-1.604698,12.39315],[-1.59909,12.390246],[-1.598194,12.390177],[-1.598179,12.388883],[-1.597692,12.388845],[-1.597698,12.387779],[-1.596809,12.38752],[-1.596747,12.387122],[-1.595719,12.386727],[-1.595614,12.387228],[-1.59334,12.385785],[-1.591676,12.385458],[-1.5918,12.38486],[-1.591198,12.384486],[-1.590963,12.383986],[-1.59075,12.383508],[-1.59047,12.383315],[-1.590027,12.383514],[-1.58898,12.383414],[-1.588689,12.383454],[-1.588623,12.383698],[-1.588234,12.383802],[-1.587871,12.383819],[-1.587748,12.3838],[-1.586755,12.383763],[-1.586576,12.383778],[-1.586606,12.383603],[-1.586155,12.382806],[-1.585435,12.382534],[-1.584624,12.380883],[-1.582842,12.380624],[-1.581697,12.380403],[-1.580824,12.38022],[-1.579237,12.380945],[-1.578397,12.381441],[-1.577576,12.381849],[-1.575848,12.381589],[-1.573207,12.381951],[-1.573114,12.38238],[-1.571841,12.382176],[-1.570031,12.383723],[-1.569524,12.38313],[-1.571054,12.379506],[-1.571462,12.379486],[-1.5718,12.379432],[-1.574269,12.377502],[-1.573952,12.375496],[-1.57452,12.375594],[-1.57461,12.375438],[-1.574702,12.375195],[-1.574829,12.374961],[-1.575111,12.374769],[-1.575379,12.374688],[-1.575636,12.374707],[-1.575671,12.374707],[-1.575703,12.374707],[-1.575738,12.374713],[-1.57577,12.374717],[-1.575795,12.374723],[-1.575817,12.374729],[-1.575849,12.374745],[-1.575868,12.374755],[-1.575887,12.374773],[-1.575906,12.374792],[-1.575924,12.374828],[-1.577937,12.37176],[-1.577768,12.36926],[-1.579173,12.369074],[-1.579423,12.372224],[-1.578413,12.374648],[-1.578086,12.375365],[-1.57675,12.377968],[-1.578337,12.378224],[-1.580541,12.378456],[-1.581653,12.377979],[-1.583081,12.378898],[-1.587867,12.381959],[-1.593104,12.383475],[-1.597046,12.384505],[-1.599421,12.385208]]]},"properties":{"nom":"Ceinture verte"}},{"type":"Feature","geometry":{"type":"Polygon","coordinates":[[[-1.47739,12.413574],[-1.476863,12.414014],[-1.473576,12.41043],[-1.468965,12.414389],[-1.468011,12.41344],[-1.462005,12.418701],[-1.464354,12.423874],[-1.461928,12.425706],[-1.458874,12.419168],[-1.452501,12.419229],[-1.452459,12.41923],[-1.442509,12.421632],[-1.442495,12.421582],[-1.442347,12.421676],[-1.441644,12.42182],[-1.430638,12.428907],[-1.429348,12.426606],[-1.435216,12.422744],[-1.43766,12.421008],[-1.438317,12.420124],[-1.438799,12.419264],[-1.439203,12.418822],[-1.439757,12.41848],[-1.440385,12.418262],[-1.440762,12.418289],[-1.441164,12.418094],[-1.441433,12.417849],[-1.441303,12.417389],[-1.441468,12.413079],[-1.441951,12.412876],[-1.442101,12.41088],[-1.442395,12.406268],[-1.443429,12.402866],[-1.444568,12.399674],[-1.446385,12.39916],[-1.444978,12.402508],[-1.444749,12.405181],[-1.444632,12.406858],[-1.443882,12.417767],[-1.445559,12.41721],[-1.451459,12.41602],[-1.452041,12.415669],[-1.455497,12.415593],[-1.456032,12.415596],[-1.46261,12.415664],[-1.46636,12.413011],[-1.473431,12.40786],[-1.474327,12.409648],[-1.47739,12.413574]]]},"properties":{"nom":"Ceinture verte"}},{"type":"Feature","geometry":{"type":"Polygon","coordinates":[[[-1.603653,12.329274],[-1.601561,12.329971],[-1.601451,12.329755],[-1.601687,12.328337],[-1.602011,12.328206],[-1.604607,12.324683],[-1.607798,12.324652],[-1.60784,12.322689],[-1.617839,12.316087],[-1.619465,12.317948],[-1.608467,12.325759],[-1.603653,12.329274]]]},"properties":{"nom":"Ceinture verte"}},{"type":"Feature","geometry":{"type":"Polygon","coordinates":[[[-1.554099,12.411361],[-1.554378,12.409277],[-1.555017,12.405008],[-1.555852,12.406018],[-1.558522,12.406584],[-1.560046,12.407945],[-1.561954,12.408665],[-1.562785,12.408786],[-1.56439,12.405025],[-1.572832,12.405924],[-1.575597,12.407579],[-1.57686,12.407585],[-1.577401,12.407333],[-1.578267,12.406839],[-1.578816,12.407245],[-1.582325,12.407121],[-1.585307,12.406012],[-1.585327,12.406004],[-1.587558,12.410172],[-1.584163,12.411889],[-1.574641,12.412007],[-1.56918,12.412012],[-1.565119,12.412057],[-1.561092,12.411935],[-1.554099,12.411361]]]},"properties":{"nom":"Ceinture verte"}}]}